{
"type": "FeatureCollection",
"name": "athens",
"crs": { "type": "name", "properties": { "name": "urn:ogc:def:crs:OGC:1.3:CRS84" } },
"features": [
{ "type": "Feature", "properties": { "NAME20": "Clarke" }, "geometry": { "type": "Polygon", "coordinates": [ [ [ -83.420591936997269, 34.017392527527001 ], [ -83.420440935587905, 34.017443527089398 ], [ -83.400324930887891, 34.024295529682767 ], [ -83.400078930840607, 34.024388529619742 ], [ -83.39884493040617, 34.024857529566276 ], [ -83.398652930785545, 34.024930529634403 ], [ -83.398240930158593, 34.025075530440191 ], [ -83.397273929687827, 34.025414530782299 ], [ -83.393026928586494, 34.026905530277361 ], [ -83.392912928783687, 34.026945530825749 ], [ -83.387933927388232, 34.02869453056001 ], [ -83.387750927988435, 34.028732530578061 ], [ -83.387399927460848, 34.028854530756092 ], [ -83.386940926978227, 34.02901353155481 ], [ -83.384850926401128, 34.029740532132138 ], [ -83.385714926939698, 34.030197531386378 ], [ -83.388962928681579, 34.031914531348718 ], [ -83.389279927975664, 34.032014531992296 ], [ -83.393411929449272, 34.034263532282658 ], [ -83.389901927766601, 34.035400533188046 ], [ -83.390191929093135, 34.036117532837928 ], [ -83.390079928041828, 34.036154532753038 ], [ -83.38992792860418, 34.036200532685307 ], [ -83.38984692841332, 34.036229533034373 ], [ -83.389746927955898, 34.036261532637987 ], [ -83.384967926576991, 34.03778353287592 ], [ -83.384866927192974, 34.037811533691638 ], [ -83.384500926596758, 34.03733053325508 ], [ -83.384057926905967, 34.036590532468431 ], [ -83.383050927150578, 34.035576532578354 ], [ -83.382974926982584, 34.034385532696525 ], [ -83.381969925978694, 34.034594532710997 ], [ -83.380998926208306, 34.034797532089641 ], [ -83.380964925873116, 34.034804532726945 ], [ -83.380412925504061, 34.034919532479947 ], [ -83.37986092513502, 34.035034532821498 ], [ -83.379387926205325, 34.035148532494787 ], [ -83.379051925746353, 34.034530532978515 ], [ -83.378838925311015, 34.03382153232841 ], [ -83.378740925401715, 34.033588532564181 ], [ -83.378642925492429, 34.033356531949011 ], [ -83.378618925202986, 34.033298532254413 ], [ -83.378594924913557, 34.033241532310569 ], [ -83.378459925194335, 34.03289953258772 ], [ -83.378044924194313, 34.031845532793881 ], [ -83.377709925356882, 34.032051532207994 ], [ -83.377409924882912, 34.032146532184889 ], [ -83.377108924584036, 34.032242531857577 ], [ -83.37488292446281, 34.032952532841854 ], [ -83.372709923146729, 34.034046533205974 ], [ -83.372680923732716, 34.034061532895848 ], [ -83.368157921548544, 34.036338533076957 ], [ -83.360031919591876, 34.040578534448379 ], [ -83.358880919896436, 34.039964534628545 ], [ -83.358126919861036, 34.039561534698393 ], [ -83.357081918674169, 34.038996534778896 ], [ -83.354150918921349, 34.037904534447271 ], [ -83.352885918524763, 34.037433534181623 ], [ -83.35018491712907, 34.036427534202986 ], [ -83.349877916982408, 34.036312534261029 ], [ -83.349571916660651, 34.036198534663107 ], [ -83.34690991562303, 34.035208534181194 ], [ -83.34688091531072, 34.035197534507965 ], [ -83.34583691574538, 34.034807534276084 ], [ -83.342938914706195, 34.033741534718011 ], [ -83.33951991415843, 34.032483533713361 ], [ -83.337040912520592, 34.031744533631972 ], [ -83.33522391175498, 34.031203533774878 ], [ -83.335184912295233, 34.031191533767824 ], [ -83.335154912158004, 34.031182533947515 ], [ -83.334851912209302, 34.031092533458839 ], [ -83.334547912435681, 34.031001533802396 ], [ -83.332127911247397, 34.030280533303291 ], [ -83.331507911106272, 34.030096533240624 ], [ -83.328824910152264, 34.029296534252637 ], [ -83.327948909918106, 34.029034533407895 ], [ -83.326726910077554, 34.028670533556941 ], [ -83.326764909712381, 34.028588533632693 ], [ -83.323678908352235, 34.027497533192168 ], [ -83.323599908709511, 34.027467532977845 ], [ -83.321916908736512, 34.026837533471053 ], [ -83.320244907735841, 34.026029533045708 ], [ -83.319437907996985, 34.025493533384221 ], [ -83.31909390714209, 34.025265532507433 ], [ -83.318977906791133, 34.025188533186437 ], [ -83.318893908023853, 34.025146532782856 ], [ -83.318769907276987, 34.025083533255263 ], [ -83.317670906561759, 34.024378532905679 ], [ -83.315872906062722, 34.0232065326841 ], [ -83.315733906145539, 34.023114532850684 ], [ -83.313131905382363, 34.021471532765027 ], [ -83.312704905585107, 34.021202532805766 ], [ -83.312362904380038, 34.021053532347914 ], [ -83.312332905141119, 34.021040532460468 ], [ -83.31208390561909, 34.020949532448043 ], [ -83.311449904335973, 34.02053353231868 ], [ -83.310745904529256, 34.020072532612616 ], [ -83.309942904988375, 34.019545532867909 ], [ -83.309219904016786, 34.019071532074285 ], [ -83.309098904541273, 34.018991532470949 ], [ -83.308977904167449, 34.018911532047703 ], [ -83.308867904562575, 34.01883953197455 ], [ -83.308758903884325, 34.018767531840332 ], [ -83.307236903569816, 34.017763531630507 ], [ -83.304954902473767, 34.016256531770033 ], [ -83.303569901528292, 34.015341531061956 ], [ -83.301658901051326, 34.014113531032947 ], [ -83.301648901903917, 34.014106530922447 ], [ -83.299657901061011, 34.012827530829981 ], [ -83.299608900657205, 34.012795531324606 ], [ -83.299548901281071, 34.012757531617154 ], [ -83.299344901066576, 34.012595530792261 ], [ -83.299124900958546, 34.012421531464852 ], [ -83.298942901383668, 34.012276530636065 ], [ -83.298632900863936, 34.012029530723581 ], [ -83.298259900595042, 34.011732530896296 ], [ -83.297384901084129, 34.011071530653162 ], [ -83.296657899914578, 34.01052353040744 ], [ -83.296283899820764, 34.010165531217737 ], [ -83.295947899361778, 34.010016530748182 ], [ -83.295665900227789, 34.009806530452174 ], [ -83.29521589996601, 34.009333530457432 ], [ -83.29480589988718, 34.008829530628837 ], [ -83.294658898675763, 34.008646530309811 ], [ -83.294600898949454, 34.008546530428646 ], [ -83.294543899048037, 34.008448530594755 ], [ -83.294482898948658, 34.00815053007053 ], [ -83.294464899405327, 34.008127530323925 ], [ -83.294437899641153, 34.008093530363396 ], [ -83.294330899511039, 34.008086530501203 ], [ -83.294218899358029, 34.008160530185044 ], [ -83.294122899098568, 34.008224530443222 ], [ -83.294009899120667, 34.008299530090994 ], [ -83.293567898356471, 34.008482530413154 ], [ -83.293147899130219, 34.008555530415371 ], [ -83.292997898444071, 34.008557530577725 ], [ -83.292773899036405, 34.008562530983532 ], [ -83.292116899085372, 34.008380530172388 ], [ -83.291507898814913, 34.008211530825186 ], [ -83.291341898235231, 34.008137531185831 ], [ -83.291090898165081, 34.00802553040144 ], [ -83.290576898329178, 34.007796530172854 ], [ -83.2898748981723, 34.007656530096391 ], [ -83.289456897697548, 34.007573529883608 ], [ -83.289266897726762, 34.007541530632231 ], [ -83.288922896871867, 34.007517529882627 ], [ -83.288572897067496, 34.007493530615548 ], [ -83.288524897386921, 34.007490530334337 ], [ -83.288003897878326, 34.007385530106468 ], [ -83.287219897705683, 34.007227529845139 ], [ -83.286916896858671, 34.007221530008493 ], [ -83.28666289641545, 34.007235530619546 ], [ -83.286587896970701, 34.007215530171472 ], [ -83.286403896847673, 34.007166529872961 ], [ -83.286136896883988, 34.006998530443312 ], [ -83.285922896623745, 34.006808530679059 ], [ -83.285849896828822, 34.0067045304556 ], [ -83.285556896925854, 34.006289529885478 ], [ -83.285500896849356, 34.006233529782435 ], [ -83.285121895834351, 34.005854530242203 ], [ -83.284642896158559, 34.005426530686819 ], [ -83.28423689627769, 34.005063529503943 ], [ -83.284010895423577, 34.004885529883268 ], [ -83.283984896382606, 34.004877530376881 ], [ -83.28381189613026, 34.0048015305603 ], [ -83.283618895786404, 34.004717529664831 ], [ -83.282606895109822, 34.004424530102085 ], [ -83.282259895678493, 34.004324529717501 ], [ -83.281633894791298, 34.004143529637957 ], [ -83.281413894683283, 34.004066529775187 ], [ -83.28110089558713, 34.003943530323461 ], [ -83.280779895196773, 34.003785530360723 ], [ -83.280684894762217, 34.003738529848455 ], [ -83.280665895393952, 34.003729530095995 ], [ -83.280602894746437, 34.003706529896775 ], [ -83.280433895590363, 34.003659529340787 ], [ -83.280295895498099, 34.003642529957197 ], [ -83.280154895032794, 34.003626529964812 ], [ -83.279939894947631, 34.003659530085507 ], [ -83.279853894733918, 34.003661529618512 ], [ -83.279778894390844, 34.00368352969133 ], [ -83.279122894264731, 34.003806530264306 ], [ -83.278733894102288, 34.003879529817816 ], [ -83.278448894595257, 34.003933529712377 ], [ -83.27821889444148, 34.003977530456126 ], [ -83.277957894325581, 34.004065529641103 ], [ -83.277498893842946, 34.004292529986614 ], [ -83.277064893474673, 34.004507530413754 ], [ -83.276447893706617, 34.004888530256522 ], [ -83.276355893645103, 34.004942530254262 ], [ -83.27618789341561, 34.00511053077232 ], [ -83.276133893887263, 34.005178530089665 ], [ -83.276027894480364, 34.005294529894584 ], [ -83.275912893954313, 34.005584529830777 ], [ -83.275806893649104, 34.005823530456432 ], [ -83.275657893686187, 34.005954530314618 ], [ -83.275454893296612, 34.00605353015866 ], [ -83.275314893554523, 34.006079530798083 ], [ -83.275096893096304, 34.006098530658853 ], [ -83.275015893803769, 34.006116530405443 ], [ -83.274905893300598, 34.006140530806356 ], [ -83.274781893452044, 34.00619853044401 ], [ -83.27418889307512, 34.006472530815728 ], [ -83.273994892906373, 34.006538530322011 ], [ -83.273860893012056, 34.006583530565216 ], [ -83.273540893344915, 34.006659530276508 ], [ -83.273134892565722, 34.006710531073466 ], [ -83.272899893287402, 34.006713531382189 ], [ -83.272609892859194, 34.006716530201473 ], [ -83.27212489243729, 34.006641530644956 ], [ -83.271979892672334, 34.006583530565216 ], [ -83.271919892397861, 34.006537530961722 ], [ -83.271829892884497, 34.006466530925742 ], [ -83.271786892328478, 34.006387530721597 ], [ -83.271747891970421, 34.006301531179332 ], [ -83.271724892404208, 34.006205531206469 ], [ -83.271747891970421, 34.006110530490361 ], [ -83.271821892488575, 34.005994530310616 ], [ -83.271953892733066, 34.005785530607589 ], [ -83.271960892405758, 34.00563653064421 ], [ -83.271931892991759, 34.005582531087747 ], [ -83.271903892504341, 34.005531530358077 ], [ -83.271798892922362, 34.00539553074487 ], [ -83.271730892251995, 34.005360530316345 ], [ -83.271655892807217, 34.005308530823321 ], [ -83.271503892471273, 34.00524453060158 ], [ -83.270564892487926, 34.00511053077232 ], [ -83.270331891961106, 34.005101530420539 ], [ -83.270219891808111, 34.005088530324429 ], [ -83.269741891957239, 34.005067530737847 ], [ -83.269322891657566, 34.005001530088386 ], [ -83.268715891935273, 34.004905530135375 ], [ -83.268594891561435, 34.004886530007703 ], [ -83.268034891694768, 34.004856530738138 ], [ -83.267856891419555, 34.004847530359434 ], [ -83.267528890458166, 34.004797530803216 ], [ -83.267314891096234, 34.004690529971057 ], [ -83.267078891094698, 34.004626530773017 ], [ -83.266849890765826, 34.004603530816709 ], [ -83.266605891266664, 34.004618530497474 ], [ -83.266353891371594, 34.004683530573068 ], [ -83.266124890144425, 34.004793530301242 ], [ -83.265979891277766, 34.004923530134867 ], [ -83.265887891216281, 34.005068530860143 ], [ -83.265849891581425, 34.005213530593196 ], [ -83.26585789018074, 34.005366531029118 ], [ -83.266048890874757, 34.005762530220466 ], [ -83.266086890509584, 34.006033530176914 ], [ -83.266070890616064, 34.006144531244892 ], [ -83.266009890516699, 34.006258531003247 ], [ -83.265918891178416, 34.006354530916191 ], [ -83.265819890545899, 34.006422530726873 ], [ -83.265567890650814, 34.006491531333261 ], [ -83.265169890267558, 34.006482530383153 ], [ -83.265071890358271, 34.006480530916569 ], [ -83.264923890220274, 34.006519530559622 ], [ -83.264900890654047, 34.006523530980296 ], [ -83.264816890988456, 34.006564530812959 ], [ -83.264592890682479, 34.006650531578217 ], [ -83.264489889852001, 34.006663530690531 ], [ -83.264366890726663, 34.006669531311296 ], [ -83.264329890916741, 34.006661531228211 ], [ -83.264171890732996, 34.006628530784639 ], [ -83.264036891013788, 34.006502531003846 ], [ -83.263936890556337, 34.006408530726482 ], [ -83.26389989074643, 34.006382530187771 ], [ -83.263812889809486, 34.006338531434714 ], [ -83.263652889975901, 34.006312530874524 ], [ -83.263557890439671, 34.006322531205484 ], [ -83.263457889982234, 34.006333530897955 ], [ -83.263421889997247, 34.006328531105652 ], [ -83.263354890948392, 34.006300531071624 ], [ -83.263301889448329, 34.006232531163249 ], [ -83.263309889844237, 34.006147531573603 ], [ -83.26303489038294, 34.005694531370715 ], [ -83.263027889811923, 34.005673531189274 ], [ -83.262897890115582, 34.005270531488691 ], [ -83.262637889824589, 34.004778530651386 ], [ -83.261890889461867, 34.003550530518147 ], [ -83.26178989007785, 34.003353530234676 ], [ -83.261478889733226, 34.002745530058441 ], [ -83.26106688910626, 34.002217529843236 ], [ -83.260964888999027, 34.002086530178708 ], [ -83.260814889211176, 34.001894530276843 ], [ -83.260753889111811, 34.001723529614878 ], [ -83.260654889377605, 34.001581530371368 ], [ -83.260394889086612, 34.0013495301421 ], [ -83.260308888872899, 34.001194530325947 ], [ -83.260226888857119, 34.00104452958594 ], [ -83.26002888849041, 34.000937529983482 ], [ -83.259845888192302, 34.000777530041113 ], [ -83.259513887931277, 34.000320529528118 ], [ -83.25931888793761, 34.000052529760438 ], [ -83.259081889009465, 33.999801530047705 ], [ -83.258857888703488, 33.999643529827345 ], [ -83.258655888138804, 33.999395530218067 ], [ -83.258416888662524, 33.999104529810374 ], [ -83.258471888015791, 33.999079529462698 ], [ -83.258717888063074, 33.998971530169932 ], [ -83.258970887783079, 33.998885529821187 ], [ -83.259871888131556, 33.998621529298006 ], [ -83.25997988898493, 33.998592529503654 ], [ -83.260077888894202, 33.998566529551212 ], [ -83.26039088799034, 33.998496529754213 ], [ -83.260709888730887, 33.998444529782624 ], [ -83.261031888946164, 33.998408529268048 ], [ -83.261355888811266, 33.998390529377389 ], [ -83.261571889619646, 33.998387528774593 ], [ -83.261978889325405, 33.998356529242528 ], [ -83.262618889558013, 33.998508529170302 ], [ -83.263851890167544, 33.998915528965547 ], [ -83.264515889791269, 33.999165529615013 ], [ -83.266051890349488, 33.99970452924493 ], [ -83.267563891516602, 34.000119529967812 ], [ -83.268812892019639, 34.000547530201089 ], [ -83.268903891357922, 34.000579529853439 ], [ -83.268995891419422, 34.000610529319026 ], [ -83.269073891237227, 33.992700528039762 ], [ -83.269087891480936, 33.99125652739756 ], [ -83.269088890407531, 33.991205527748924 ], [ -83.269089890232436, 33.991136527386949 ], [ -83.269107891572432, 33.989296527355329 ], [ -83.269108890499012, 33.989257527253017 ], [ -83.269108890499012, 33.989243526658022 ], [ -83.269146891032165, 33.985408526622209 ], [ -83.269150890331801, 33.984981526458924 ], [ -83.269151890156721, 33.98491952579456 ], [ -83.269151890156721, 33.984884526613001 ], [ -83.269151890156721, 33.984792526226819 ], [ -83.269154890529762, 33.984627526094371 ], [ -83.269154890529762, 33.984546525709014 ], [ -83.269155890354682, 33.984497526486706 ], [ -83.269155890354682, 33.984465525991283 ], [ -83.269183890842086, 33.981677525310204 ], [ -83.269623890159835, 33.981520525306692 ], [ -83.270715891202357, 33.980886525165587 ], [ -83.271711891087094, 33.980286525440192 ], [ -83.271748890897015, 33.980264525267955 ], [ -83.272768891969534, 33.979569524277714 ], [ -83.274705891487415, 33.97814752398007 ], [ -83.27556389127993, 33.977518524753677 ], [ -83.27469389179187, 33.9773285238673 ], [ -83.273778891199655, 33.97705452410753 ], [ -83.273607891495445, 33.97698752433638 ], [ -83.273016891666657, 33.976757524909345 ], [ -83.272901891140606, 33.976734524857946 ], [ -83.272223891273171, 33.976399524213356 ], [ -83.271505891222773, 33.976004524203717 ], [ -83.270880891058795, 33.975622523985862 ], [ -83.27012689012507, 33.975095524056684 ], [ -83.270041890634559, 33.97503652431363 ], [ -83.269710891096778, 33.974765524563885 ], [ -83.269324889510756, 33.974449523844648 ], [ -83.269013890064457, 33.974170523551244 ], [ -83.268785889560519, 33.973966523990889 ], [ -83.268653890214352, 33.973847523897177 ], [ -83.268073890256204, 33.973169524354908 ], [ -83.26741788923178, 33.972270523567431 ], [ -83.26713488937456, 33.971863523548471 ], [ -83.266761889105666, 33.971325522917134 ], [ -83.266228889003187, 33.970327523112658 ], [ -83.265938888574965, 33.969366523481582 ], [ -83.265816888376222, 33.968985523044338 ], [ -83.265602888115978, 33.968122522673859 ], [ -83.265525888123094, 33.967297523174544 ], [ -83.265449888853411, 33.966434522065974 ], [ -83.265494889059241, 33.965715522125137 ], [ -83.265601888291059, 33.964753521935727 ], [ -83.265671888611266, 33.964262521794133 ], [ -83.265738888558403, 33.963798521827869 ], [ -83.265921888856511, 33.963096521258322 ], [ -83.266333888585166, 33.962286521884458 ], [ -83.266714888351672, 33.961591520725641 ], [ -83.267019888848509, 33.961025520629718 ], [ -83.267476888783008, 33.960360520431465 ], [ -83.26782788841227, 33.960017520846066 ], [ -83.268254889107851, 33.959451520709109 ], [ -83.268566889277395, 33.959050520699968 ], [ -83.268839889088866, 33.958734520449973 ], [ -83.26924288949499, 33.958424520818561 ], [ -83.269196889464254, 33.958415520737915 ], [ -83.269554889664533, 33.957975520765281 ], [ -83.27008089009432, 33.957733519884933 ], [ -83.270607890349012, 33.957322519839138 ], [ -83.271117889088615, 33.956995520505558 ], [ -83.271813890296031, 33.956599519835237 ], [ -83.272502890034119, 33.956229519801248 ], [ -83.272592890445793, 33.956189519479693 ], [ -83.272754889929189, 33.956119519803096 ], [ -83.273250890221746, 33.955904519904102 ], [ -83.274117891133372, 33.955552519853157 ], [ -83.274649890512606, 33.955374519357697 ], [ -83.275170890919526, 33.955265519707723 ], [ -83.275581891721572, 33.955140519738954 ], [ -83.276054890651267, 33.955016518807597 ], [ -83.276572891583456, 33.954945519689254 ], [ -83.277227890986339, 33.954827519029472 ], [ -83.277793891599103, 33.954762518823451 ], [ -83.277868891043866, 33.954754519814912 ], [ -83.278613891756748, 33.954689518807967 ], [ -83.279148892407363, 33.954656519045876 ], [ -83.279146891859213, 33.954635519664706 ], [ -83.279067892216517, 33.954143519268598 ], [ -83.279044891751965, 33.954001518770632 ], [ -83.278844891735432, 33.952881518785404 ], [ -83.278756891871879, 33.952387518685676 ], [ -83.27864889101852, 33.951751518917199 ], [ -83.278626891277227, 33.951622518233215 ], [ -83.278568891550904, 33.951394518781491 ], [ -83.278428891808815, 33.950840518842909 ], [ -83.278370892082506, 33.950488518708426 ], [ -83.278337891572207, 33.950315518159563 ], [ -83.278247891160532, 33.949843518663769 ], [ -83.278150891974491, 33.949323517956898 ], [ -83.277950891059618, 33.948231517308471 ], [ -83.277870890693677, 33.947794517736021 ], [ -83.277719891080935, 33.946968517770017 ], [ -83.277650890585647, 33.946747517471749 ], [ -83.277634890692113, 33.946662518006789 ], [ -83.277616891148782, 33.946572517384894 ], [ -83.277598890707111, 33.946478517147099 ], [ -83.277437891048621, 33.945955517273973 ], [ -83.277412890934272, 33.945875517386156 ], [ -83.277206891069937, 33.945383517019231 ], [ -83.277065890604646, 33.945099517106271 ], [ -83.276911890618862, 33.944788517644405 ], [ -83.276742890564464, 33.944522517358912 ], [ -83.27668289028999, 33.944419517022347 ], [ -83.276547890570782, 33.944185517089501 ], [ -83.276465890555016, 33.944044517211118 ], [ -83.276175890126794, 33.943542517175203 ], [ -83.275986890879224, 33.943217516520406 ], [ -83.275932890452552, 33.943140516612246 ], [ -83.275891890444669, 33.943082516422479 ], [ -83.275884890771948, 33.943043516735244 ], [ -83.275916889660706, 33.943000517345986 ], [ -83.275815891174986, 33.942895517186322 ], [ -83.275753890352405, 33.942761516687931 ], [ -83.275418890616649, 33.942211516915314 ], [ -83.274658889835138, 33.941415516488085 ], [ -83.2740658894582, 33.940749516424468 ], [ -83.273081889269022, 33.939645516551863 ], [ -83.270762889261391, 33.937040515411738 ], [ -83.267913887727687, 33.933840515194774 ], [ -83.267337887069203, 33.933193514516688 ], [ -83.267328887746686, 33.933184515494382 ], [ -83.266894887378413, 33.932696514993502 ], [ -83.26354588625253, 33.929068514632846 ], [ -83.262566886086219, 33.927966513695928 ], [ -83.262543885621682, 33.927941514047042 ], [ -83.260432884229871, 33.925570513697167 ], [ -83.260332884670746, 33.92545951401555 ], [ -83.259036884312053, 33.924023514013449 ], [ -83.258415884346036, 33.923336513192396 ], [ -83.257879883870487, 33.922743513250936 ], [ -83.25779588420491, 33.922649512794457 ], [ -83.257597883838201, 33.922429513081113 ], [ -83.257398883646573, 33.92220951354507 ], [ -83.257262884102431, 33.922058512504677 ], [ -83.256263883844653, 33.920952512591406 ], [ -83.255127882421192, 33.919695513218663 ], [ -83.255117883273769, 33.919684512753285 ], [ -83.254926883478049, 33.91947251292607 ], [ -83.254741882631819, 33.919265513011332 ], [ -83.254726883461515, 33.919249512049873 ], [ -83.253190882903283, 33.917548512572623 ], [ -83.252939882833118, 33.917270512480727 ], [ -83.251443881559553, 33.915613511766637 ], [ -83.251151881481505, 33.915290511244095 ], [ -83.250777881387691, 33.914876512211478 ], [ -83.25064888151627, 33.914733511381392 ], [ -83.250443881476826, 33.914506511989828 ], [ -83.250254881330946, 33.914309511909551 ], [ -83.249438881371262, 33.913458511238296 ], [ -83.24838088066393, 33.91235451096226 ], [ -83.247322880854909, 33.911251511775461 ], [ -83.247099880373824, 33.911019511877349 ], [ -83.247058880365955, 33.910976511229187 ], [ -83.246908880578118, 33.910820510966744 ], [ -83.246877879717658, 33.910787510602248 ], [ -83.246719880432238, 33.910623511312167 ], [ -83.246611880477204, 33.910510511308601 ], [ -83.246590879662492, 33.910488510987008 ], [ -83.24632988044489, 33.910216510947059 ], [ -83.245287879631093, 33.909130510572489 ], [ -83.245122878876316, 33.908958510747254 ], [ -83.243854879005028, 33.907637510520367 ], [ -83.243594879612331, 33.907366510854736 ], [ -83.243391879222742, 33.907148510762539 ], [ -83.243167878916751, 33.906908510358264 ], [ -83.242745878244051, 33.906455510829232 ], [ -83.241696878655858, 33.905330509698466 ], [ -83.240863878079409, 33.904436510114429 ], [ -83.24126087773945, 33.903765509581696 ], [ -83.241541877946844, 33.903311509925892 ], [ -83.241574878457101, 33.903257510259195 ], [ -83.242410878508295, 33.901907509712963 ], [ -83.243257878430128, 33.900538509086076 ], [ -83.243424877936377, 33.900249509439391 ], [ -83.247364878891062, 33.893938507328798 ], [ -83.248060880098478, 33.892823507575841 ], [ -83.248312879993549, 33.892431507316523 ], [ -83.248482879872867, 33.892147506832579 ], [ -83.250089880576198, 33.889764506262431 ], [ -83.251270880408867, 33.887770506551668 ], [ -83.251370879967979, 33.887602505444057 ], [ -83.254075880663322, 33.883037504443138 ], [ -83.254836880371414, 33.881725504586484 ], [ -83.255263881066995, 33.881024504653674 ], [ -83.255528881380869, 33.880588504208667 ], [ -83.255689881937656, 33.880324503533707 ], [ -83.256023880950195, 33.879774504165269 ], [ -83.256312881553512, 33.879568503421488 ], [ -83.256397881044009, 33.879430503571825 ], [ -83.256643881989618, 33.879029504147418 ], [ -83.257034881801872, 33.878390503698249 ], [ -83.257372881012358, 33.877837503417837 ], [ -83.257619881782873, 33.87743450370332 ], [ -83.258120882098282, 33.876615503447894 ], [ -83.258438882115613, 33.876097502779295 ], [ -83.258564881614006, 33.87589150360057 ], [ -83.25888688182927, 33.875365503260888 ], [ -83.259050881860801, 33.87509850235989 ], [ -83.259180882455453, 33.874886502787035 ], [ -83.259448882244058, 33.874449502885469 ], [ -83.259539881582356, 33.874303502365066 ], [ -83.260068882385184, 33.873457503066554 ], [ -83.260500882205307, 33.872767502148278 ], [ -83.260825881895315, 33.872246502161524 ], [ -83.26159988202221, 33.871007501418788 ], [ -83.26333188329734, 33.868237501262804 ], [ -83.263750882698673, 33.867567501127105 ], [ -83.263888882790937, 33.867346500743977 ], [ -83.266956883709426, 33.862316500325448 ], [ -83.267956883792138, 33.860678499473067 ], [ -83.268079883815787, 33.86048049929073 ], [ -83.269834883758818, 33.857662498991417 ], [ -83.27293888466231, 33.852676497216351 ], [ -83.273452885396523, 33.851850498131739 ], [ -83.274424884991831, 33.850290497233722 ], [ -83.274882884751221, 33.84955449693134 ], [ -83.274970885513099, 33.84940649693597 ], [ -83.275516885136042, 33.848490497067559 ], [ -83.275812885412051, 33.848285495909188 ], [ -83.275936885260606, 33.847983496614781 ], [ -83.275979884918328, 33.847991495947781 ], [ -83.276053885436468, 33.848010496039315 ], [ -83.276233885361549, 33.848057496758038 ], [ -83.276823886263713, 33.848195496591835 ], [ -83.277736886307778, 33.848428496237766 ], [ -83.278044886279375, 33.848506496383948 ], [ -83.278515886457569, 33.84863749594308 ], [ -83.278728885994568, 33.848679496214849 ], [ -83.278965886719362, 33.848717496087609 ], [ -83.279337886265026, 33.848744496772326 ], [ -83.279707886160892, 33.848762496229256 ], [ -83.28080388740139, 33.848789496899748 ], [ -83.281316886514048, 33.848816496069553 ], [ -83.281463886827154, 33.848832496070919 ], [ -83.28160888659211, 33.848863496344805 ], [ -83.281804886410669, 33.848924497139791 ], [ -83.281937887378376, 33.848953496450584 ], [ -83.281979887211179, 33.848987495835864 ], [ -83.282087887166213, 33.84903749666276 ], [ -83.282178887402807, 33.849079496737822 ], [ -83.282661887276561, 33.849345496485199 ], [ -83.282822886935051, 33.849442496313209 ], [ -83.283388887547801, 33.849781496854455 ], [ -83.283605887282775, 33.84988749654292 ], [ -83.283689887846677, 33.849930496653549 ], [ -83.283777887710229, 33.849966496556043 ], [ -83.283846888205503, 33.849983496048786 ], [ -83.283976887901844, 33.849966496556043 ], [ -83.284204887507485, 33.849947496153462 ], [ -83.284435888384493, 33.849944496285865 ], [ -83.284566887905726, 33.849954497087587 ], [ -83.285412888002654, 33.850115496778528 ], [ -83.285703888255782, 33.850158496028328 ], [ -83.286385889219488, 33.8502184961946 ], [ -83.286713889282552, 33.850248497007925 ], [ -83.287304888213029, 33.85037049583029 ], [ -83.287395889347948, 33.85040449688973 ], [ -83.287454888899177, 33.850426497041433 ], [ -83.287500888929927, 33.850444496890084 ], [ -83.287531888892062, 33.850457496736951 ], [ -83.287546888960676, 33.850463497182069 ], [ -83.287578888747731, 33.850486496273405 ], [ -83.287606889235136, 33.850506496256699 ], [ -83.287654888915711, 33.850542496662506 ], [ -83.287732888733515, 33.850599496714402 ], [ -83.287774888566304, 33.850630496347136 ], [ -83.287847889259567, 33.850684496498666 ], [ -83.287909888285526, 33.850731496492294 ], [ -83.288032889207486, 33.850828496984633 ], [ -83.288120889969349, 33.850900496763614 ], [ -83.288332889681456, 33.851069496700539 ], [ -83.288454888981875, 33.851163496984277 ], [ -83.288559889462178, 33.851227497451596 ], [ -83.288645889675905, 33.851264497245275 ], [ -83.288738889562325, 33.851293496507829 ], [ -83.288900889944031, 33.851328496144887 ], [ -83.289029889815467, 33.851348496677097 ], [ -83.289227889283865, 33.851357496877753 ], [ -83.289557889895065, 33.851360496695783 ], [ -83.289688889416311, 33.851350496804663 ], [ -83.290068890256222, 33.851279497096591 ], [ -83.290462889543207, 33.851198496674598 ], [ -83.29095988966067, 33.851096496641851 ], [ -83.291601890441399, 33.851009497132047 ], [ -83.292730890395532, 33.850833496960909 ], [ -83.293339890666005, 33.850734496332244 ], [ -83.294011890685638, 33.850624495913699 ], [ -83.294498891655678, 33.85055249590215 ], [ -83.294759890873266, 33.850525495788879 ], [ -83.295252891691078, 33.850500496560663 ], [ -83.295679891488362, 33.850472495983908 ], [ -83.296338891089206, 33.850421496295318 ], [ -83.296548891151502, 33.850405496591577 ], [ -83.297349891940868, 33.850388496436743 ], [ -83.297684891676624, 33.850402495994011 ], [ -83.297971891731805, 33.85038249598631 ], [ -83.299325892715146, 33.850378496431844 ], [ -83.299812892786875, 33.850380495836063 ], [ -83.299888892056543, 33.850379496133982 ], [ -83.301121892666075, 33.850359496120959 ], [ -83.301508893178678, 33.850371495532471 ], [ -83.301845893462556, 33.850389495392719 ], [ -83.302267893236959, 33.850442495995246 ], [ -83.302964893370955, 33.850589495988203 ], [ -83.303300893829942, 33.850680496212334 ], [ -83.304017893157109, 33.850876495849306 ], [ -83.304798893855022, 33.851104496429365 ], [ -83.305290893949604, 33.851263496061442 ], [ -83.305596894271346, 33.851361496386382 ], [ -83.305624893860454, 33.851370495839632 ], [ -83.305723894492971, 33.851389495925687 ], [ -83.30606989409938, 33.851507495855003 ], [ -83.306242894351712, 33.851586495861994 ], [ -83.306355895227966, 33.85166149555554 ], [ -83.306412895129355, 33.851699495593941 ], [ -83.306611894422673, 33.851858496356591 ], [ -83.307040894768065, 33.852270496059639 ], [ -83.30719989477673, 33.852430496183622 ], [ -83.307212895195519, 33.852443496474237 ], [ -83.307219894868226, 33.852454496661245 ], [ -83.308010895611872, 33.853227496285641 ], [ -83.308056894744311, 33.853271496621332 ], [ -83.308643895273448, 33.853835496407349 ], [ -83.308771895319964, 33.853951496621143 ], [ -83.308815894802592, 33.854008496636297 ], [ -83.308887895670921, 33.854080496718929 ], [ -83.309055895002103, 33.85413949671026 ], [ -83.30937389591773, 33.854310496265299 ], [ -83.309678895516257, 33.854475496807069 ], [ -83.309964894848207, 33.854620497268755 ], [ -83.310321896121906, 33.854785496465688 ], [ -83.310579895864777, 33.854896496397139 ], [ -83.310924895646252, 33.855034496372916 ], [ -83.311238896363932, 33.855159496996379 ], [ -83.311784895986875, 33.855359496867436 ], [ -83.311965896635158, 33.855419497110404 ], [ -83.31216289627865, 33.855475497249444 ], [ -83.31242889641743, 33.855542496395074 ], [ -83.313043897433971, 33.855663496968042 ], [ -83.31328089636213, 33.855690496949208 ], [ -83.313512897064058, 33.855701496718048 ], [ -83.313716896380228, 33.855693496615061 ], [ -83.314004896260315, 33.855661496941458 ], [ -83.314203897350254, 33.855630496896616 ], [ -83.314859896578071, 33.855501496155867 ], [ -83.315869897604827, 33.855287496371005 ], [ -83.316705897656007, 33.855104497042952 ], [ -83.317839898531318, 33.854873497001194 ], [ -83.318672898209442, 33.854720496028875 ], [ -83.318968898485466, 33.854660496040829 ], [ -83.319255898540646, 33.854611496665875 ], [ -83.319652899098983, 33.854561496863667 ], [ -83.319873898133608, 33.854553496653843 ], [ -83.320077898348117, 33.854552496254577 ], [ -83.320276899438056, 33.854558496412032 ], [ -83.320450898617011, 33.854556496359635 ], [ -83.321292899414289, 33.854602496062057 ], [ -83.321835899562501, 33.854629496378635 ], [ -83.322226899374769, 33.854643495986807 ], [ -83.322757898929083, 33.854661495692859 ], [ -83.323058899227973, 33.854669495892516 ], [ -83.323409899755561, 33.854692496089413 ], [ -83.323586899307557, 33.854704495638316 ], [ -83.323887900504772, 33.854734496368152 ], [ -83.324234899936101, 33.854778495927512 ], [ -83.324557899976284, 33.854825495906518 ], [ -83.324887899689159, 33.854897496046405 ], [ -83.325200899683608, 33.854977496296399 ], [ -83.325328900628421, 33.855023496518164 ], [ -83.325487899738775, 33.855060496159545 ], [ -83.325794900783748, 33.855176496201693 ], [ -83.325992901150471, 33.855251495727011 ], [ -83.326390900635431, 33.855433496589129 ], [ -83.326505900263143, 33.85549149600353 ], [ -83.326598900149577, 33.855544496424436 ], [ -83.326691900934307, 33.85559749606638 ], [ -83.326670901017906, 33.85561949562662 ], [ -83.326573900933525, 33.855720495840721 ], [ -83.326486899996567, 33.855810496182016 ], [ -83.326305901144934, 33.85598649579611 ], [ -83.325679901156036, 33.85683749702401 ], [ -83.325465900895793, 33.8572374966448 ], [ -83.325381900331891, 33.857535496826706 ], [ -83.325390899654408, 33.857784496176301 ], [ -83.325391900377625, 33.857810496617766 ], [ -83.325389899829489, 33.857836497051316 ], [ -83.325465900895793, 33.858103496741812 ], [ -83.325617900333441, 33.858290496287871 ], [ -83.325633900226961, 33.858309496326527 ], [ -83.325992901150471, 33.858668497047816 ], [ -83.326367900170879, 33.85896249681371 ], [ -83.326411900551818, 33.85899649669085 ], [ -83.326808901110169, 33.859244496658079 ], [ -83.327065901028107, 33.859368496744572 ], [ -83.327434901099068, 33.85954549682684 ], [ -83.327609901001239, 33.859663497423803 ], [ -83.32772490152729, 33.859782497449814 ], [ -83.32778590162664, 33.859892497263658 ], [ -83.327815900865573, 33.860014497230608 ], [ -83.327792901299347, 33.860152497142003 ], [ -83.327716901131367, 33.860289497244345 ], [ -83.327602901328547, 33.860403496982222 ], [ -83.327332900991806, 33.860553497229986 ], [ -83.327273901440563, 33.860586497637037 ], [ -83.326930900410602, 33.860747496682265 ], [ -83.326561900339655, 33.860877498029559 ], [ -83.326190900618869, 33.86097949682506 ], [ -83.325328900628421, 33.861124497433416 ], [ -83.325114901266502, 33.861201497599836 ], [ -83.324947899963618, 33.861307498034954 ], [ -83.32474889977199, 33.861506497363536 ], [ -83.324565900372207, 33.861826497766536 ], [ -83.324458900242078, 33.862128498095956 ], [ -83.324336900043335, 33.862654497952093 ], [ -83.324184899707376, 33.863367497914794 ], [ -83.324115900110385, 33.864085497837344 ], [ -83.324016900376193, 33.864363498274038 ], [ -83.324023900947196, 33.864554497920722 ], [ -83.32408490014825, 33.864741499004126 ], [ -83.324143899699479, 33.864825497861666 ], [ -83.324155900293363, 33.864842498126563 ], [ -83.324199900674287, 33.864905498508314 ], [ -83.324466900638001, 33.865416498809346 ], [ -83.324756901066223, 33.865816498523934 ], [ -83.325717900790863, 33.866892498189024 ], [ -83.326676900865692, 33.867840499450381 ], [ -83.326945901377513, 33.868174498864533 ], [ -83.327289901334112, 33.868643498862092 ], [ -83.32753390173157, 33.868906498892521 ], [ -83.327762902060428, 33.869094498877146 ], [ -83.327877901688154, 33.869189498941971 ], [ -83.32825890145466, 33.869467499168159 ], [ -83.328746901351295, 33.869768499100644 ], [ -83.32933390188046, 33.870074499059051 ], [ -83.329982902333867, 33.870348499275615 ], [ -83.331538902983596, 33.87108149876795 ], [ -83.332149902903865, 33.871287499860088 ], [ -83.332683902831249, 33.871393498961062 ], [ -83.333140903664045, 33.871413499269245 ], [ -83.333386902813032, 33.871394499163031 ], [ -83.333912903242805, 33.871356498938013 ], [ -83.334231903983351, 33.87137449885045 ], [ -83.334537903406783, 33.87142049918949 ], [ -83.334794903324735, 33.871500499622869 ], [ -83.335040904270357, 33.871615499508515 ], [ -83.335658903863319, 33.872057499228625 ], [ -83.335829903567543, 33.872182499545971 ], [ -83.33611390504629, 33.872390499107354 ], [ -83.336398904553334, 33.872598499653655 ], [ -83.337416905077703, 33.873342498950073 ], [ -83.337825905331613, 33.873614500257851 ], [ -83.338092904397001, 33.873751500388124 ], [ -83.338443904924588, 33.873865500051231 ], [ -83.339084904982101, 33.874010499657899 ], [ -83.340198905765931, 33.874052499384788 ], [ -83.340510905935488, 33.874083499454052 ], [ -83.340777905000849, 33.874140500201655 ], [ -83.341212906092352, 33.874304499549595 ], [ -83.341708906384895, 33.874621499969962 ], [ -83.342021906379358, 33.874777500078665 ], [ -83.342395905574847, 33.87491449983375 ], [ -83.342807906201813, 33.875010499547429 ], [ -83.343074907063809, 33.875040499109488 ], [ -83.343616906488805, 33.875048499637323 ], [ -83.34366290651954, 33.87505750032345 ], [ -83.344081906819213, 33.875143499788038 ], [ -83.344254907071573, 33.875214500538263 ], [ -83.344386906417725, 33.875269500217378 ], [ -83.344676906845962, 33.875597500225815 ], [ -83.344890907106205, 33.876002499961352 ], [ -83.345088906574617, 33.876681500036085 ], [ -83.345325907299383, 33.878016500511713 ], [ -83.34547390743738, 33.878598500808813 ], [ -83.345721907134504, 33.878660500616796 ], [ -83.346194907860848, 33.878672500526292 ], [ -83.346850907986962, 33.878504500893762 ], [ -83.347583907207664, 33.878222499781579 ], [ -83.347886908054676, 33.878120499959067 ], [ -83.348335908491549, 33.877969499873672 ], [ -83.348559907899244, 33.877898500669723 ], [ -83.349040908123172, 33.877688500850759 ], [ -83.349551908484344, 33.877573500198167 ], [ -83.349594908142038, 33.87757050055523 ], [ -83.349811908775337, 33.877554500717487 ], [ -83.349958909088429, 33.877558499744957 ], [ -83.350055909172809, 33.877402499499013 ], [ -83.350152909257176, 33.877247499847101 ], [ -83.350329908809186, 33.877233500215951 ], [ -83.350931909406953, 33.877228499548011 ], [ -83.351521908512524, 33.877407500156757 ], [ -83.352049908592107, 33.877369500371415 ], [ -83.352114908889448, 33.877364499711447 ], [ -83.352461909219073, 33.877301499574955 ], [ -83.352777909586578, 33.877104500043707 ], [ -83.352895909587346, 33.876865500244129 ], [ -83.352822909792422, 33.876453499876412 ], [ -83.352426909058991, 33.875886499870759 ], [ -83.352131908607888, 33.875402500054427 ], [ -83.352163909293253, 33.875208499594763 ], [ -83.352178909361868, 33.875116499991492 ], [ -83.352498909028995, 33.874864499240864 ], [ -83.352811909023444, 33.87469949931414 ], [ -83.353467910047868, 33.874584499854528 ], [ -83.353881909426349, 33.874569499621771 ], [ -83.355672910252721, 33.874587499602477 ], [ -83.356992910900857, 33.874646499595428 ], [ -83.358063911128681, 33.874854499118811 ], [ -83.35831291065071, 33.874903498810824 ], [ -83.358656911505605, 33.875008499228173 ], [ -83.358888911309208, 33.875136499427285 ], [ -83.358907911575784, 33.875146499516347 ], [ -83.359954911514151, 33.875576499253476 ], [ -83.360450911806694, 33.876021499041777 ], [ -83.360976912236481, 33.876536499746649 ], [ -83.361190912496724, 33.876981499749895 ], [ -83.361243912200166, 33.877446499310402 ], [ -83.36125891137047, 33.877594499187495 ], [ -83.361211912413125, 33.878073500124124 ], [ -83.361028912115017, 33.879034500235029 ], [ -83.361067911574764, 33.879556500654779 ], [ -83.3611969114462, 33.880038499829801 ], [ -83.361517911836572, 33.88066750042973 ], [ -83.361944912532124, 33.881283500495222 ], [ -83.362488912505256, 33.881714500712761 ], [ -83.363233912319842, 33.882269500627253 ], [ -83.363372913135336, 33.882354500208059 ], [ -83.363744912681, 33.882583501078777 ], [ -83.363973913009858, 33.88297950062281 ], [ -83.364012913367915, 33.883570501162282 ], [ -83.363943913770953, 33.884064501423573 ], [ -83.364080912241661, 33.88466950180969 ], [ -83.364462913629723, 33.885186501112827 ], [ -83.364858913464843, 33.885461501322077 ], [ -83.365370912752596, 33.885899501538951 ], [ -83.365637913614606, 33.886556501376447 ], [ -83.365881914012078, 33.887353501342865 ], [ -83.366056913914264, 33.887563501237921 ], [ -83.366073913632718, 33.887583501485025 ], [ -83.366247913709984, 33.887791502285737 ], [ -83.366294913565639, 33.88780250164713 ], [ -83.366332914098791, 33.887811502479437 ], [ -83.366544913810898, 33.88786050144266 ], [ -83.367201913761932, 33.887734502453746 ], [ -83.368551914547311, 33.887362502222494 ], [ -83.369139914901368, 33.887216501423836 ], [ -83.37023091522066, 33.886945501730764 ], [ -83.370741915581846, 33.886781501322247 ], [ -83.371466915304921, 33.88622750170321 ], [ -83.372305915729143, 33.885540501234594 ], [ -83.372702915389183, 33.885321500485645 ], [ -83.373030916350558, 33.885374501777505 ], [ -83.373411916117064, 33.885594500934438 ], [ -83.374022916037347, 33.886345501212894 ], [ -83.374586916101961, 33.887156501156021 ], [ -83.374899916994721, 33.88767850110338 ], [ -83.375142915770653, 33.888204500859423 ], [ -83.375491916648429, 33.888732501098069 ], [ -83.375884916110508, 33.889133501899245 ], [ -83.376194916630212, 33.889664502316791 ], [ -83.376361917034785, 33.890041501374839 ], [ -83.376592917013468, 33.890398502166995 ], [ -83.376715917037117, 33.890439502051606 ], [ -83.376781917159349, 33.890461502327142 ], [ -83.376954916513412, 33.890519502551776 ], [ -83.377699917226295, 33.8907705018351 ], [ -83.378294918151369, 33.890936501977301 ], [ -83.37847091787846, 33.891093502057139 ], [ -83.378556917193862, 33.891381501447519 ], [ -83.378526917954972, 33.89220350226622 ], [ -83.378770917454119, 33.892709501922425 ], [ -83.379036918491209, 33.893012502543115 ], [ -83.379600918555838, 33.893273502148276 ], [ -83.380300918164551, 33.893494502500843 ], [ -83.381388918110801, 33.893632502717388 ], [ -83.381868918509838, 33.89371850284742 ], [ -83.38246991928267, 33.894186502711406 ], [ -83.38294991878341, 33.894499502616448 ], [ -83.383726919283333, 33.894692502533303 ], [ -83.38378491900967, 33.894715503131764 ], [ -83.383953919064055, 33.894783502725083 ], [ -83.384199920009664, 33.894882502979058 ], [ -83.384627919631839, 33.895185502590472 ], [ -83.384909919664139, 33.895460502627373 ], [ -83.384962920265906, 33.895815502529622 ], [ -83.384878919702004, 33.896172503014178 ], [ -83.384520919501725, 33.896515502554415 ], [ -83.384070919239917, 33.896696502773047 ], [ -83.383330918549902, 33.89683350312395 ], [ -83.382834919155655, 33.896997503591948 ], [ -83.382521919161235, 33.897228503725245 ], [ -83.382292919730688, 33.897486502669565 ], [ -83.382282918786615, 33.897510503155935 ], [ -83.382162919136036, 33.897791503252755 ], [ -83.382185918702248, 33.897864503580124 ], [ -83.382262918695133, 33.898104503347753 ], [ -83.382475919130471, 33.898393503554026 ], [ -83.382803919193535, 33.898655502977086 ], [ -83.383864919375597, 33.898889502731791 ], [ -83.384718919868433, 33.898942503794686 ], [ -83.385885919457408, 33.8991225042042 ], [ -83.386763920239702, 33.899296503493339 ], [ -83.387047920820152, 33.899340503197287 ], [ -83.387473920792488, 33.899406503829141 ], [ -83.388075920491943, 33.89945950307942 ], [ -83.389464921635394, 33.899419502930819 ], [ -83.389990921166856, 33.899530503725735 ], [ -83.390433921755957, 33.899720503830871 ], [ -83.390814921522448, 33.899978503437019 ], [ -83.391097921379668, 33.900265503529603 ], [ -83.391221922126547, 33.900390504275926 ], [ -83.391627922007416, 33.90080350298124 ], [ -83.391654922669915, 33.900831503452892 ], [ -83.392249921798339, 33.901406503490101 ], [ -83.393027922123196, 33.90181950323889 ], [ -83.39346992198908, 33.902297504014101 ], [ -83.393668922180709, 33.902982504053021 ], [ -83.393625922522986, 33.903774504255836 ], [ -83.39362292304827, 33.90383150380589 ], [ -83.393599922583732, 33.903996504799942 ], [ -83.39359092236289, 33.904073504309558 ], [ -83.393581923040387, 33.904150504495227 ], [ -83.393661923406313, 33.904641504672711 ], [ -83.393886922638913, 33.906031504470789 ], [ -83.393855922676764, 33.906144504447838 ], [ -83.393855922676764, 33.906199505062041 ], [ -83.393790922379452, 33.906405504864722 ], [ -83.39400092244172, 33.906958504844468 ], [ -83.394298923265879, 33.907576504711905 ], [ -83.394595923366793, 33.907812504880944 ], [ -83.395351923052033, 33.908034505347025 ], [ -83.396106922912352, 33.908232504791272 ], [ -83.396289924108771, 33.908469505147991 ], [ -83.396442923371325, 33.908636505642214 ], [ -83.396770923434403, 33.908766504862911 ], [ -83.397243924160719, 33.908854505656578 ], [ -83.397655923889374, 33.90904150508441 ], [ -83.398219923953988, 33.909800505654701 ], [ -83.398433924214217, 33.910017505179425 ], [ -83.398875924080102, 33.910128504849865 ], [ -83.399570925462598, 33.910155505493343 ], [ -83.400107924864713, 33.910436504917854 ], [ -83.400478924585471, 33.910631504775203 ], [ -83.400637925492461, 33.910663505458544 ], [ -83.400673924579138, 33.91067050514048 ], [ -83.400698925591826, 33.910675505338922 ], [ -83.400719925508227, 33.910680505537094 ], [ -83.400973925053108, 33.910731505006915 ], [ -83.401446924881142, 33.910754505006295 ], [ -83.401747925180018, 33.910879506029104 ], [ -83.402222925556174, 33.911168505425493 ], [ -83.40225592516812, 33.911201505642488 ], [ -83.402307925046671, 33.911241505481684 ], [ -83.402403925306132, 33.911298505257449 ], [ -83.402457925732804, 33.911344505689563 ], [ -83.402610925893683, 33.9117125052707 ], [ -83.402701925231966, 33.911799506276502 ], [ -83.402713924927539, 33.911932505817205 ], [ -83.402687925886582, 33.912012506281769 ], [ -83.402705925429927, 33.91207850530386 ], [ -83.402669926343222, 33.91215650543775 ], [ -83.402608926243857, 33.912707505946294 ], [ -83.40261592591655, 33.912750505721121 ], [ -83.402679925490645, 33.912913505676144 ], [ -83.40292092551509, 33.913089505318688 ], [ -83.403238926430717, 33.913197506325709 ], [ -83.403344925837601, 33.913233505636924 ], [ -83.403461926013478, 33.913199505749404 ], [ -83.403585925862046, 33.912997505567816 ], [ -83.403598926280822, 33.912970505079187 ], [ -83.403804926145142, 33.912787505683376 ], [ -83.404155926672743, 33.912688506090873 ], [ -83.404262925904547, 33.91268450572845 ], [ -83.404567925503073, 33.912672506130924 ], [ -83.404645926219189, 33.912693506170996 ], [ -83.404701927194012, 33.9127085056639 ], [ -83.40477792646368, 33.91272950569509 ], [ -83.4048359270883, 33.912744505927236 ], [ -83.404880926395819, 33.912756505514622 ], [ -83.40490492668529, 33.912820505273494 ], [ -83.404941926495198, 33.912863505736809 ], [ -83.404964926061425, 33.912955505632333 ], [ -83.40494892616789, 33.913042506114763 ], [ -83.404907926160021, 33.913063506063658 ], [ -83.404880926395819, 33.913077505778183 ], [ -83.404848926608793, 33.913078505491498 ], [ -83.404815926996818, 33.91308050566348 ], [ -83.404734926805972, 33.913085506466054 ], [ -83.404567925503073, 33.913096505546896 ], [ -83.404315925608003, 33.913161506253729 ], [ -83.404239926338334, 33.913248505780359 ], [ -83.404353926141155, 33.913348505923395 ], [ -83.404773926265705, 33.913385505626039 ], [ -83.404856927004701, 33.913392505829925 ], [ -83.404890926441581, 33.913395506449589 ], [ -83.404943926145023, 33.913400505742715 ], [ -83.405035926206537, 33.913408505654751 ], [ -83.405143926161571, 33.913419505439357 ], [ -83.405337926330333, 33.913454506438974 ], [ -83.405551926590562, 33.913485505608378 ], [ -83.405647926850037, 33.913535505182793 ], [ -83.40589492672224, 33.913664506170853 ], [ -83.405920926661523, 33.913711505777265 ], [ -83.405978926387817, 33.913748506067812 ], [ -83.40617792657946, 33.913966505680335 ], [ -83.406207926716689, 33.914024505572264 ], [ -83.4062999276765, 33.91413050599246 ], [ -83.406318927044765, 33.914222506011221 ], [ -83.406329926915433, 33.914274506042695 ], [ -83.406297927128378, 33.914311506088758 ], [ -83.406283926884669, 33.914374505727309 ], [ -83.406146926617325, 33.914469506064513 ], [ -83.406045927233293, 33.91447050650693 ], [ -83.405933926181987, 33.91451150599935 ], [ -83.405870927331122, 33.914527506359597 ], [ -83.405726926492747, 33.914563506599983 ], [ -83.405644926476981, 33.914647505610809 ], [ -83.405633926606342, 33.91467650644816 ], [ -83.405600926096042, 33.914842505524611 ], [ -83.405603926469112, 33.914853505869608 ], [ -83.405624926385514, 33.914927506188427 ], [ -83.405645926301901, 33.915004506260551 ], [ -83.405693926880787, 33.915176505812141 ], [ -83.405760926827938, 33.915276505929278 ], [ -83.405780926919434, 33.915312505853251 ], [ -83.405933926181987, 33.915674506604155 ], [ -83.406062926951719, 33.915821506070571 ], [ -83.406156926663058, 33.915886506189914 ], [ -83.406184926252152, 33.915903505972103 ], [ -83.4062869263594, 33.915942506161223 ], [ -83.406408926558129, 33.915952506684711 ], [ -83.406526927457236, 33.915962506461526 ], [ -83.406596926879118, 33.91595750582777 ], [ -83.406734926971382, 33.915911506394664 ], [ -83.406784927200093, 33.915882505977557 ], [ -83.40696292747532, 33.91578150614454 ], [ -83.407084926775752, 33.915675506286995 ], [ -83.407093926996581, 33.915636506721164 ], [ -83.407196927827059, 33.915564505640795 ], [ -83.407267927073846, 33.915515506196009 ], [ -83.407303927058862, 33.915485505959126 ], [ -83.40740592716611, 33.915400506597379 ], [ -83.407558927326988, 33.915393505812943 ], [ -83.407672927129809, 33.915377506360848 ], [ -83.407910927679495, 33.915429505687548 ], [ -83.407985927124258, 33.915446505560901 ], [ -83.408046927223637, 33.915453506340924 ], [ -83.408073927886122, 33.915498506336412 ], [ -83.408145927856125, 33.915541506193961 ], [ -83.408183927490953, 33.915602505555889 ], [ -83.408183927490953, 33.915671506064733 ], [ -83.408168927422352, 33.915696506332559 ], [ -83.40819192788689, 33.915774506882379 ], [ -83.40817392834353, 33.915789506578555 ], [ -83.408072928061202, 33.915873506617302 ], [ -83.407931927595882, 33.915991506851412 ], [ -83.407893927961069, 33.916060506299722 ], [ -83.407832927861691, 33.916140506616571 ], [ -83.407882927192091, 33.916249506414914 ], [ -83.407915927702362, 33.916318506399868 ], [ -83.407929927047746, 33.916346506248146 ], [ -83.408041927200756, 33.916496506556761 ], [ -83.408229927521717, 33.916594506526316 ], [ -83.408449927629761, 33.916594506526316 ], [ -83.408473927919189, 33.916594506526316 ], [ -83.408717928316662, 33.916594506526316 ], [ -83.409036927260587, 33.916796506381793 ], [ -83.409167928578455, 33.916880506173371 ], [ -83.409577928657285, 33.917126506311291 ], [ -83.409961927898536, 33.917284506285924 ], [ -83.4102899279616, 33.917448506921644 ], [ -83.410368928502621, 33.917504506611913 ], [ -83.41046092766581, 33.917520506410177 ], [ -83.410484927955267, 33.917548506608952 ], [ -83.410566928869343, 33.917645506454363 ], [ -83.410861928422122, 33.917879507010348 ], [ -83.410958928506503, 33.918026506400153 ], [ -83.411060927715425, 33.918181506491251 ], [ -83.41120292800565, 33.918221506781606 ], [ -83.411357928714679, 33.91826550640841 ], [ -83.411616928282442, 33.918256506554364 ], [ -83.411792928907857, 33.918189506699925 ], [ -83.412051929373945, 33.918005506183398 ], [ -83.4125709292327, 33.917616506627454 ], [ -83.412860928762612, 33.917429506632345 ], [ -83.413017929121452, 33.917392506449161 ], [ -83.413078929220816, 33.917387506644808 ], [ -83.413119929228714, 33.917372506484504 ], [ -83.413225928635597, 33.917414506479439 ], [ -83.413264928993669, 33.917422506014667 ], [ -83.41329892932886, 33.917444506037192 ], [ -83.413386929192399, 33.917479506129112 ], [ -83.413600928554345, 33.917773506035324 ], [ -83.413842929301978, 33.918031506912484 ], [ -83.414102928694646, 33.918308507106012 ], [ -83.414130929182065, 33.918315506160027 ], [ -83.414201929327177, 33.918331507296884 ], [ -83.414714929338174, 33.918401506737602 ], [ -83.415118929569203, 33.918429506646874 ], [ -83.415515930127555, 33.918547506323229 ], [ -83.415782929192943, 33.918890506785658 ], [ -83.416042930382261, 33.919117506425842 ], [ -83.416103930481611, 33.919161506335357 ], [ -83.416203930040723, 33.919258506580888 ], [ -83.416507929814344, 33.919524506026612 ], [ -83.416708930554108, 33.91983750683309 ], [ -83.41672893064559, 33.919863507003193 ], [ -83.416744930539124, 33.919893506444097 ], [ -83.417018930175516, 33.920321507207262 ], [ -83.417216930542224, 33.920771506474729 ], [ -83.417445930871082, 33.92101950729144 ], [ -83.4186519308181, 33.921564507226094 ], [ -83.419729931616942, 33.922020506523666 ], [ -83.419887931800687, 33.922087507092662 ], [ -83.420215930965426, 33.9224005074283 ], [ -83.420215930965426, 33.922816507863963 ], [ -83.419986931534879, 33.923140507778093 ], [ -83.41951993155466, 33.923461507685616 ], [ -83.419398931180822, 33.923463506868515 ], [ -83.419154930783364, 33.923586507213251 ], [ -83.419045931003424, 33.923611507394938 ], [ -83.418948930919029, 33.923651508117629 ], [ -83.418887930819679, 33.923804507745579 ], [ -83.418964930812564, 33.923983507502228 ], [ -83.419444931211586, 33.924502507618818 ], [ -83.419692931807006, 33.924931507908994 ], [ -83.420352931232799, 33.925421508061071 ], [ -83.420795931821885, 33.92577650841848 ], [ -83.421046930993739, 33.92594450810126 ], [ -83.421374931955114, 33.926035508474413 ], [ -83.421443931552076, 33.926447507841388 ], [ -83.421457931795786, 33.926708507945357 ], [ -83.421458931620705, 33.926722507654127 ], [ -83.421936932369903, 33.92706150831296 ], [ -83.422008932339921, 33.927088508808744 ], [ -83.422043931601706, 33.927086508220142 ], [ -83.422121932317836, 33.927080507944929 ], [ -83.422214932204241, 33.927073508120252 ], [ -83.422488931840633, 33.926928508534139 ], [ -83.422717932169476, 33.926863507894168 ], [ -83.423630933111866, 33.926750507810226 ], [ -83.424152932445381, 33.926666508059732 ], [ -83.424390932995067, 33.92661350783731 ], [ -83.425387933603048, 33.926279507659864 ], [ -83.425687933178693, 33.926218507742703 ], [ -83.425723933163709, 33.926211507101783 ], [ -83.426097933257523, 33.926207508119525 ], [ -83.426127933394739, 33.926212507406348 ], [ -83.426184933296156, 33.926222508215133 ], [ -83.426206933037463, 33.926222508215133 ], [ -83.426245933395521, 33.926233507836379 ], [ -83.426470933526417, 33.926272507769355 ], [ -83.426509932986164, 33.926279507659864 ], [ -83.426662933147028, 33.926329507180618 ], [ -83.426715933748795, 33.926356507908437 ], [ -83.42684093342227, 33.926390507763685 ], [ -83.426863932988482, 33.926400507806228 ], [ -83.427087934192798, 33.926489507835001 ], [ -83.427311933600478, 33.926577508215907 ], [ -83.427425933403285, 33.926592508246358 ], [ -83.427608933701379, 33.926577508215907 ], [ -83.427760934037352, 33.926531507807901 ], [ -83.427974933399284, 33.926420507887812 ], [ -83.428126933735257, 33.926302507935041 ], [ -83.428239934611469, 33.926165507986916 ], [ -83.428432934057, 33.925932508134927 ], [ -83.428660933662627, 33.925738507823127 ], [ -83.428722934485236, 33.925707507148338 ], [ -83.429202933985934, 33.92563550786992 ], [ -83.429413933873121, 33.925644507689888 ], [ -83.429554934338441, 33.925639507624389 ], [ -83.429645933676738, 33.92563550786992 ], [ -83.429693934255624, 33.925655507385713 ], [ -83.429744934309227, 33.925658507573594 ], [ -83.429835934545821, 33.925715507395715 ], [ -83.429958933671159, 33.925768507431478 ], [ -83.429987934881794, 33.925799508084033 ], [ -83.430286934632548, 33.926123507833566 ], [ -83.430453934138825, 33.926169507716445 ], [ -83.430624934741346, 33.926146508150801 ], [ -83.430675934794962, 33.926138507198559 ], [ -83.431064934957391, 33.925974507637065 ], [ -83.43133193492109, 33.925757507750248 ], [ -83.431453935119833, 33.925349507795524 ], [ -83.431529935287813, 33.925196507960884 ], [ -83.43171293468761, 33.925001507890279 ], [ -83.43205693464418, 33.924776507426195 ], [ -83.432101935748335, 33.924685507198888 ], [ -83.432132934812159, 33.924471507239623 ], [ -83.432193934911524, 33.924387507477881 ], [ -83.432284935148132, 33.924307506704963 ], [ -83.432475934943838, 33.924235506988595 ], [ -83.432510935103934, 33.924230506840388 ], [ -83.432635934777409, 33.924166506706442 ], [ -83.433894936224519, 33.924002507075379 ], [ -83.434230934886855, 33.923915506602071 ], [ -83.434451935718116, 33.923807507253173 ], [ -83.434886935911294, 33.923533507310729 ], [ -83.435234936065854, 33.923223506938946 ], [ -83.435297935815044, 33.923036506577937 ], [ -83.435323935754326, 33.922912507332015 ], [ -83.435364935762195, 33.92287650614653 ], [ -83.435401935572102, 33.922781506237385 ], [ -83.435418935290556, 33.922738507051861 ], [ -83.435480935214827, 33.922726506633836 ], [ -83.435573935101246, 33.922682506329132 ], [ -83.435649936167536, 33.922678507181246 ], [ -83.435756935399354, 33.922678507181246 ], [ -83.435859936229832, 33.922735506761136 ], [ -83.436015935865456, 33.922777507094153 ], [ -83.436143935911957, 33.922780506637913 ], [ -83.436377936263682, 33.922786506470644 ], [ -83.436968936092498, 33.922714506959608 ], [ -83.437423936377158, 33.922635506452934 ], [ -83.437877935938587, 33.922556506618434 ], [ -83.438350936664918, 33.922468506556115 ], [ -83.438650937138888, 33.922516506872441 ], [ -83.438761936568653, 33.922564506416251 ], [ -83.43897393628076, 33.922636506799485 ], [ -83.439243936617501, 33.922728506579418 ], [ -83.439325936633267, 33.922756506557498 ], [ -83.439603937365931, 33.922851506494574 ], [ -83.439939937824917, 33.922965506875514 ], [ -83.44013893711822, 33.923022506263329 ], [ -83.440223937507028, 33.923046507014227 ], [ -83.44027793703539, 33.923062506517162 ], [ -83.440423937523576, 33.923107506966623 ], [ -83.440648936756162, 33.923177506210578 ], [ -83.44079993816554, 33.92321650679726 ], [ -83.440936936636248, 33.923236506880983 ], [ -83.441417937758501, 33.923289506222915 ], [ -83.441576937767152, 33.923300506968253 ], [ -83.442508938077808, 33.923365505854591 ], [ -83.442695937675552, 33.923378506520429 ], [ -83.442836938140871, 33.92338850617115 ], [ -83.4430509384011, 33.92347950703855 ], [ -83.443129938043825, 33.92350950669703 ], [ -83.443233938699208, 33.923548506386368 ], [ -83.443255938440515, 33.923561506278858 ], [ -83.443332938433414, 33.923584506542454 ], [ -83.44339693800751, 33.923628506381284 ], [ -83.443579938305618, 33.923755506330728 ], [ -83.443660938496464, 33.923804507000163 ], [ -83.443802938786703, 33.923900506845634 ], [ -83.444179938355248, 33.924131506379887 ], [ -83.444649938708523, 33.924517506523848 ], [ -83.444830938458495, 33.924666507032654 ], [ -83.444940938961651, 33.924732506689487 ], [ -83.445071938482926, 33.924770506242851 ], [ -83.445224939542101, 33.924814506959883 ], [ -83.445277939245557, 33.924829506555376 ], [ -83.44550693867609, 33.924872506921652 ], [ -83.445819938670539, 33.924963506203788 ], [ -83.446063939068011, 33.925066506969557 ], [ -83.446551939862957, 33.925318506979153 ], [ -83.447047939257203, 33.925501507042391 ], [ -83.447491938772885, 33.925607506601906 ], [ -83.448047939339887, 33.925688506464716 ], [ -83.448535940134846, 33.925730506832565 ], [ -83.44910094002438, 33.925745506266772 ], [ -83.449397940125294, 33.925738507077732 ], [ -83.449573940750696, 33.925661507015903 ], [ -83.449725940188358, 33.925566507230954 ], [ -83.44979493978532, 33.925368507064 ], [ -83.449741940081879, 33.925112506677891 ], [ -83.449763939823171, 33.92486850638582 ], [ -83.449855939884699, 33.924727507315858 ], [ -83.449944940471468, 33.924678506431981 ], [ -83.450023941012503, 33.924635505967721 ], [ -83.450062940472236, 33.924632506489282 ], [ -83.450083939490312, 33.924627507109733 ], [ -83.450205939689056, 33.924622506984534 ], [ -83.452123940737025, 33.924484506245861 ], [ -83.452220940821405, 33.924477506207793 ], [ -83.453097940880454, 33.924322506389736 ], [ -83.454005940901652, 33.924338507143844 ], [ -83.454122941077514, 33.924354506404114 ], [ -83.454234942128835, 33.924357506637769 ], [ -83.454883941683931, 33.924444506659718 ], [ -83.454929941714681, 33.924463506130046 ], [ -83.45499094181406, 33.924471506494214 ], [ -83.455189942005703, 33.924555506173128 ], [ -83.455707942039552, 33.924775506359367 ], [ -83.455901942208314, 33.924854506372284 ], [ -83.456630942129365, 33.925146506284328 ], [ -83.45725694301656, 33.925449507154021 ], [ -83.457698942882445, 33.925642507067423 ], [ -83.458411942011665, 33.925950506965762 ], [ -83.459445942429554, 33.92628350663869 ], [ -83.460200943188184, 33.926367506021592 ], [ -83.460483943045389, 33.926451506812334 ], [ -83.460614942566664, 33.926515506720328 ], [ -83.460796943039853, 33.926581507180749 ], [ -83.460831943199963, 33.926587506745712 ], [ -83.460972943665254, 33.926612506792068 ], [ -83.461002943802484, 33.926625506216929 ], [ -83.461185943202281, 33.926640506238925 ], [ -83.461384943393909, 33.926630506969943 ], [ -83.461506943592653, 33.926612506792068 ], [ -83.462695943821231, 33.926245507014912 ], [ -83.463992944004858, 33.925932506644131 ], [ -83.464366944098671, 33.9259095062691 ], [ -83.464831944429079, 33.925913506756103 ], [ -83.465054944910165, 33.925940506124981 ], [ -83.465559944525225, 33.926000505934248 ], [ -83.465736944975546, 33.926038505667321 ], [ -83.4658459447555, 33.926061506007521 ], [ -83.465955945258671, 33.926084506341567 ], [ -83.46601694445971, 33.926097505846997 ], [ -83.466181945214473, 33.926132506856568 ], [ -83.466551945110325, 33.926210506797169 ], [ -83.466724945362685, 33.926234505904482 ], [ -83.467052944527438, 33.926497506518146 ], [ -83.467231945525882, 33.926823506443625 ], [ -83.467746946085015, 33.927275506237763 ], [ -83.468318945647226, 33.927923506692458 ], [ -83.468570945542311, 33.928385506421826 ], [ -83.468585946509251, 33.929320506529514 ], [ -83.468560945496577, 33.92984350648095 ], [ -83.468524946409872, 33.930620506689657 ], [ -83.468661945778905, 33.930900506947737 ], [ -83.468955946405103, 33.931070506708593 ], [ -83.469211946498135, 33.93113550711935 ], [ -83.469424946035147, 33.931147507098025 ], [ -83.46968494632614, 33.931113506905589 ], [ -83.469774946737829, 33.931079507444949 ], [ -83.469964946708643, 33.931007507490079 ], [ -83.47009594622989, 33.93095650673984 ], [ -83.47034894594988, 33.930861506897742 ], [ -83.471606946673759, 33.930212506922878 ], [ -83.471843947398526, 33.930064506685156 ], [ -83.472041945968627, 33.929896507674933 ], [ -83.472156947392975, 33.929766506403233 ], [ -83.472194947027816, 33.929629506809214 ], [ -83.472290947287277, 33.929525507568698 ], [ -83.472592946512748, 33.929315506679792 ], [ -83.472652946787221, 33.929274506112151 ], [ -83.472782946483562, 33.929242506455367 ], [ -83.472987947421274, 33.929152506797031 ], [ -83.473445948079004, 33.929045506905645 ], [ -83.474413947476336, 33.928952506967448 ], [ -83.474499946791738, 33.928932506735087 ], [ -83.474549947918788, 33.928920507189638 ], [ -83.474635947234205, 33.928931506462469 ], [ -83.475291948258629, 33.928896506603053 ], [ -83.475780947980169, 33.928976506792949 ], [ -83.477238948720583, 33.929238506124726 ], [ -83.477267949032907, 33.929243506724333 ], [ -83.477309947967385, 33.929254505955399 ], [ -83.478206948117929, 33.929495506302132 ], [ -83.478816949111618, 33.929625506496741 ], [ -83.47938894957214, 33.929674506770901 ], [ -83.480167949721903, 33.92963650642384 ], [ -83.480426949289694, 33.929667506414035 ], [ -83.480470948772293, 33.929677506817164 ], [ -83.480708949321979, 33.929732506404854 ], [ -83.480960949217064, 33.92982750676093 ], [ -83.481219949683151, 33.929983506511647 ], [ -83.481418949874794, 33.93016750724545 ], [ -83.481533949502506, 33.930329506420151 ], [ -83.481640949632634, 33.930456506813712 ], [ -83.48201795009949, 33.930725507080652 ], [ -83.482201950222517, 33.930809507300225 ], [ -83.482676949700334, 33.930970506495804 ], [ -83.483432950283898, 33.9312275066642 ], [ -83.483543950611974, 33.931226506418533 ], [ -83.483787950111136, 33.931221507426066 ], [ -83.483841949639498, 33.931219506934532 ], [ -83.483901949913957, 33.93121650694259 ], [ -83.484256950639491, 33.93115150659365 ], [ -83.484767951000677, 33.93112850613722 ], [ -83.485210950691453, 33.931170506803966 ], [ -83.485355951354734, 33.931235507138403 ], [ -83.485438951195391, 33.931251506593924 ], [ -83.485610950724535, 33.931231506901426 ], [ -83.485728951623628, 33.931189506264701 ], [ -83.485927950916945, 33.931174507043877 ], [ -83.486153950872747, 33.931188506763945 ], [ -83.486375950630602, 33.931174507043877 ], [ -83.48644695167404, 33.931170506803966 ], [ -83.487216950704664, 33.931254506584686 ], [ -83.487484951391565, 33.931308506399937 ], [ -83.487662950768481, 33.931326506330741 ], [ -83.487699951476714, 33.931335507040046 ], [ -83.487748950982208, 33.931348506489464 ], [ -83.487780950769263, 33.931354507209363 ], [ -83.48839995198378, 33.931471506628434 ], [ -83.489078951676106, 33.931643506476362 ], [ -83.490073952634262, 33.931953506763755 ], [ -83.490741952455949, 33.932127506853803 ], [ -83.491184953045064, 33.932282506630287 ], [ -83.491687953010299, 33.932459506741736 ], [ -83.491967953392773, 33.932459506741736 ], [ -83.492068952776805, 33.932413506529173 ], [ -83.492633953564649, 33.931906506040193 ], [ -83.493335953721513, 33.931410506702882 ], [ -83.493648953715962, 33.931228506164494 ], [ -83.494136953612596, 33.930945506237876 ], [ -83.494492953264739, 33.930778506235036 ], [ -83.495441954192145, 33.930334506210343 ], [ -83.495814953562729, 33.930235506135972 ], [ -83.496066954356124, 33.930228506570579 ], [ -83.496310953855271, 33.930254505805344 ], [ -83.496443953924654, 33.930292505876615 ], [ -83.496539953285819, 33.930300506438712 ], [ -83.496682954299274, 33.930349505579109 ], [ -83.496859953851285, 33.930410506264607 ], [ -83.497333954402521, 33.930544506077382 ], [ -83.497655954617784, 33.930714506548853 ], [ -83.498088954262826, 33.930918506219477 ], [ -83.498332954660313, 33.930981506249125 ], [ -83.498401955155586, 33.930999506249108 ], [ -83.498501954714712, 33.931025506739154 ], [ -83.498683954289589, 33.931038506235843 ], [ -83.499256954575017, 33.931080506201688 ], [ -83.49988395528716, 33.931112505913248 ], [ -83.500033955074969, 33.931120506398308 ], [ -83.500575954499979, 33.931078506452195 ], [ -83.500896955788662, 33.931006506496495 ], [ -83.50115595535641, 33.930960506244439 ], [ -83.501430954817707, 33.930960506244439 ], [ -83.501559955587467, 33.930983506000892 ], [ -83.501903955544051, 33.931120506398308 ], [ -83.502015954798722, 33.931132505633741 ], [ -83.502049956032224, 33.931135506373998 ], [ -83.502208956040903, 33.931116506155874 ], [ -83.502421956476212, 33.931036505740074 ], [ -83.502963955901208, 33.9306825059424 ], [ -83.503299956360195, 33.930506505373188 ], [ -83.503657955662163, 33.930369505478787 ], [ -83.503902956782866, 33.930334505464991 ], [ -83.504077956685052, 33.930357506135856 ], [ -83.504497955911305, 33.930487505760091 ], [ -83.504817956476757, 33.930537506537377 ], [ -83.504941956325311, 33.930626505970125 ], [ -83.505108956729885, 33.930700505260148 ], [ -83.505210956837146, 33.930719505571091 ], [ -83.505404957005894, 33.930830506596841 ], [ -83.505562957189639, 33.930876505428444 ], [ -83.505710956429326, 33.930885506185305 ], [ -83.505905956423021, 33.930923505975102 ], [ -83.506109957535813, 33.930987506249579 ], [ -83.506285957262904, 33.930978505503447 ], [ -83.506415956959259, 33.930923505975102 ], [ -83.506711957235268, 33.930941505987271 ], [ -83.50706495741268, 33.93104350598442 ], [ -83.507332957201285, 33.931080506201688 ], [ -83.507750956777727, 33.93110850567048 ], [ -83.508103956955139, 33.931138506368853 ], [ -83.508316957390463, 33.931206505229468 ], [ -83.50850095751349, 33.931288505975473 ], [ -83.508533957125451, 33.931324505841729 ], [ -83.50854695754424, 33.931338506282493 ], [ -83.508554957041852, 33.931348505744126 ], [ -83.509922958268888, 33.932965505949142 ], [ -83.510159958095358, 33.933246506172615 ], [ -83.511615958287635, 33.934967506288856 ], [ -83.513608959678663, 33.937351506659972 ], [ -83.516047960235241, 33.94027150776013 ], [ -83.516200960396105, 33.940454507739744 ], [ -83.516353959658659, 33.940637508071205 ], [ -83.516935960164943, 33.941334507735078 ], [ -83.51711696081324, 33.94155150817523 ], [ -83.517517960671213, 33.942031507654434 ], [ -83.518549961439305, 33.943266508228128 ], [ -83.518954961495254, 33.943751508218163 ], [ -83.519076961693969, 33.943897508320916 ], [ -83.519412961254645, 33.944300508382064 ], [ -83.52013796187606, 33.945149507812957 ], [ -83.521247961563617, 33.946452508707146 ], [ -83.521672962609372, 33.946951508538419 ], [ -83.52169796182541, 33.94698050806528 ], [ -83.52183896229073, 33.947145508962855 ], [ -83.522151962285164, 33.947513508891085 ], [ -83.522753962882916, 33.948220509350875 ], [ -83.523166962436477, 33.948711509672783 ], [ -83.523880962288928, 33.949562509132313 ], [ -83.526492963996148, 33.952677509145403 ], [ -83.52681396438652, 33.953066509516944 ], [ -83.527585963965279, 33.953998510639714 ], [ -83.52835896516558, 33.954931510463219 ], [ -83.52903896468284, 33.955756509933209 ], [ -83.529719964923316, 33.9565805103976 ], [ -83.529785965943873, 33.956660510654274 ], [ -83.529852964992699, 33.95674151078169 ], [ -83.529943964330968, 33.956850510031103 ], [ -83.530033965640968, 33.95695951063113 ], [ -83.530331965566802, 33.957316510518012 ], [ -83.530533965233175, 33.957558510349187 ], [ -83.53062896476942, 33.957673510397171 ], [ -83.530666965302558, 33.957719511117929 ], [ -83.530946965685047, 33.958040510320593 ], [ -83.531185966059638, 33.95833751080918 ], [ -83.531635966321446, 33.958874510972137 ], [ -83.531752966497308, 33.959013510285857 ], [ -83.532292966272479, 33.959657510950457 ], [ -83.532308966165999, 33.95967651075955 ], [ -83.532981966908878, 33.960478511182352 ], [ -83.534326966773065, 33.962081511069606 ], [ -83.537388967843782, 33.965918511839853 ], [ -83.531846966208633, 33.968960513090941 ], [ -83.527252964777674, 33.971485514246474 ], [ -83.527238965432275, 33.971493513916769 ], [ -83.527211965668101, 33.971508514227843 ], [ -83.527105965362878, 33.971566514412302 ], [ -83.526184964922891, 33.972138513727558 ], [ -83.5153609619436, 33.978047515014318 ], [ -83.513728962024217, 33.978913515767971 ], [ -83.512467961825593, 33.979604516708811 ], [ -83.51122096007407, 33.980287516915297 ], [ -83.511206960728671, 33.980295516502373 ], [ -83.510592961333671, 33.980631516358081 ], [ -83.509978960142035, 33.980967517120376 ], [ -83.509723959873895, 33.981108516146769 ], [ -83.50946896050408, 33.981248516026426 ], [ -83.509458960458332, 33.981262517193571 ], [ -83.508954960668191, 33.981530516637697 ], [ -83.508927960005707, 33.981545516667779 ], [ -83.508452959629537, 33.981815516756662 ], [ -83.508417960367751, 33.981835516480828 ], [ -83.502265958637238, 33.985211517787818 ], [ -83.499886958355148, 33.986588517963966 ], [ -83.49844195803351, 33.987422518724493 ], [ -83.498343958124224, 33.987478518566313 ], [ -83.498246958039843, 33.987535518699886 ], [ -83.498369957165167, 33.987835518459264 ], [ -83.498625957258213, 33.988456518499113 ], [ -83.4987449570839, 33.988566518384538 ], [ -83.498958957344144, 33.988699518671972 ], [ -83.499194957345694, 33.988814518321547 ], [ -83.499843957799129, 33.989023518814669 ], [ -83.499926958538111, 33.989112518904278 ], [ -83.500026958097237, 33.989218518939566 ], [ -83.5006159582762, 33.989602519000371 ], [ -83.500990958194919, 33.989847518733704 ], [ -83.501061958340017, 33.98989351843764 ], [ -83.501097959223358, 33.989935519149483 ], [ -83.501300958714651, 33.990053518768441 ], [ -83.501483959012745, 33.990198518807965 ], [ -83.501735958907815, 33.990500518691896 ], [ -83.502045958529223, 33.991208519667623 ], [ -83.502246959268987, 33.991747519133774 ], [ -83.502292958401426, 33.992003519444538 ], [ -83.502277959231122, 33.992434519671285 ], [ -83.502330958934579, 33.992873519094239 ], [ -83.502439959612829, 33.993218519994372 ], [ -83.50246095952923, 33.993285519633268 ], [ -83.502530958951098, 33.993438519210834 ], [ -83.502704959028378, 33.993815519272339 ], [ -83.502872959257871, 33.994387520074874 ], [ -83.502994959456615, 33.995013519612698 ], [ -83.503004959502363, 33.995132519122052 ], [ -83.503047960058367, 33.995673520229005 ], [ -83.503187958902146, 33.996230520024319 ], [ -83.503223959785473, 33.996371520540507 ], [ -83.503306959626144, 33.996667520244877 ], [ -83.50357496031306, 33.997618520465082 ], [ -83.503635959514114, 33.997679520592015 ], [ -83.50365795925542, 33.997732520495852 ], [ -83.503680959719958, 33.997908520543405 ], [ -83.503680959719958, 33.998087520839825 ], [ -83.503668960024399, 33.998134520010517 ], [ -83.503665959651329, 33.998160520095169 ], [ -83.503649959757823, 33.998208520918084 ], [ -83.503627960016516, 33.998293520260624 ], [ -83.503573959589829, 33.998315520234343 ], [ -83.503581959087427, 33.998507520033783 ], [ -83.503549960198711, 33.998662520284519 ], [ -83.503517959513331, 33.998815521350153 ], [ -83.503487959376102, 33.998962520975432 ], [ -83.503448959916369, 33.999034520030314 ], [ -83.503314960022067, 33.999223521355141 ], [ -83.503221960135647, 33.999351520397965 ], [ -83.503175959206573, 33.999408520759147 ], [ -83.503126959701078, 33.999485520376261 ], [ -83.503057959205805, 33.999583520871191 ], [ -83.50315395946528, 33.998949520684448 ], [ -83.503190959275187, 33.998554520461582 ], [ -83.503134959198704, 33.997959519892412 ], [ -83.503134959198704, 33.997376519945021 ], [ -83.502942959578064, 33.997169520319552 ], [ -83.502887959326486, 33.997032520505968 ], [ -83.502392958858849, 33.996597519627876 ], [ -83.502006959069476, 33.996437519703413 ], [ -83.501885958695652, 33.996418519915785 ], [ -83.501402958821885, 33.99634551990831 ], [ -83.501134959033294, 33.99634551990831 ], [ -83.50093395919184, 33.99634551990831 ], [ -83.500835958384215, 33.99634551990831 ], [ -83.500730958802237, 33.99634551990831 ], [ -83.500372958601957, 33.996344519683319 ], [ -83.50030395810667, 33.996436520969056 ], [ -83.499865958438747, 33.996591520529911 ], [ -83.4995949582771, 33.996687520942508 ], [ -83.499383957491588, 33.996700520090151 ], [ -83.499257957993194, 33.996707520890702 ], [ -83.499173958327603, 33.996712519759868 ], [ -83.498745957807131, 33.996903520729575 ], [ -83.498242957841882, 33.997132520538493 ], [ -83.497982957550889, 33.997315520345282 ], [ -83.497830958113241, 33.997399520368759 ], [ -83.497566958522583, 33.997430520994833 ], [ -83.49750995862118, 33.99743752024574 ], [ -83.497174957987127, 33.997460520652957 ], [ -83.497082957027303, 33.997497520291226 ], [ -83.496929957764735, 33.997559520715754 ], [ -83.496487957898864, 33.997597520521104 ], [ -83.49614195739413, 33.997610520274279 ], [ -83.496116957279767, 33.997611520484369 ], [ -83.495711957223818, 33.997525520993065 ], [ -83.495435957039291, 33.997523520570844 ], [ -83.494707956943159, 33.997392520370006 ], [ -83.493833956358827, 33.997191520584373 ], [ -83.493033956292678, 33.997013520851411 ], [ -83.492202956264379, 33.996805520866666 ], [ -83.491347956844933, 33.996477520457582 ], [ -83.49050395549952, 33.996141520687232 ], [ -83.489911954947516, 33.995841520460949 ], [ -83.489528955531171, 33.995529520084943 ], [ -83.488957954895554, 33.995302520898363 ], [ -83.488859954986268, 33.995239520078236 ], [ -83.487968954683495, 33.994849520203474 ], [ -83.487757954796308, 33.994752520449296 ], [ -83.487496954680395, 33.994620520943798 ], [ -83.487447955174915, 33.994591519783661 ], [ -83.486982953946182, 33.994318520062535 ], [ -83.486809954592147, 33.99416952009296 ], [ -83.486642955085884, 33.99401652034215 ], [ -83.48659495450697, 33.993957520325687 ], [ -83.486379954421821, 33.993697520408887 ], [ -83.486221954238076, 33.993489520498386 ], [ -83.485896954548068, 33.993114520261273 ], [ -83.485466954377756, 33.993030519725046 ], [ -83.485143954337573, 33.992971519768702 ], [ -83.484895953742139, 33.992920520404596 ], [ -83.484781953939304, 33.992897520257891 ], [ -83.484492953336002, 33.992838520209148 ], [ -83.484404954370774, 33.992813519507131 ], [ -83.484204953455915, 33.992768520161377 ], [ -83.474779950767484, 33.996306520807003 ], [ -83.47332095110049, 33.996867521051449 ], [ -83.473187951031079, 33.996918521770176 ], [ -83.473113951411236, 33.996987521160484 ], [ -83.472595950479061, 33.997472520960144 ], [ -83.472487950524041, 33.997541521389977 ], [ -83.472236950453862, 33.99764752133671 ], [ -83.471934950330066, 33.997721521923715 ], [ -83.471530950997362, 33.997805521545743 ], [ -83.471299951018665, 33.997869521414835 ], [ -83.47101894991296, 33.997993521675646 ], [ -83.470838949987908, 33.998064521347075 ], [ -83.470739950253702, 33.998159521381083 ], [ -83.470697949522602, 33.998216521797332 ], [ -83.467728949236616, 33.999426521923553 ], [ -83.466144948997822, 34.000072522213785 ], [ -83.466064948631882, 34.000105522225866 ], [ -83.462688947741796, 34.001481522915817 ], [ -83.462646947909008, 34.001496522403265 ], [ -83.459388947019718, 34.002744523206388 ], [ -83.454350946073049, 34.004691523395508 ], [ -83.454028945857758, 34.004815524123288 ], [ -83.453865945651145, 34.004878523799164 ], [ -83.45366094561173, 34.004909523929818 ], [ -83.452613945673377, 34.005289524083587 ], [ -83.443516942149685, 34.008694525206771 ], [ -83.431717939202059, 34.013269526207502 ], [ -83.431703939856646, 34.013280526489311 ], [ -83.431662939848778, 34.013291526025107 ], [ -83.429850939106018, 34.014030525962475 ], [ -83.42681493887288, 34.015138527580923 ], [ -83.4222339369624, 34.016817526821939 ], [ -83.422139936352735, 34.016852527740184 ], [ -83.422102936542828, 34.016866527507766 ], [ -83.422032937120932, 34.016892527814633 ], [ -83.421994937486105, 34.016911527489675 ], [ -83.421983936717155, 34.016916527403446 ], [ -83.421960937150928, 34.016928527939967 ], [ -83.421738936494762, 34.017037527461049 ], [ -83.421595936379632, 34.017080527390739 ], [ -83.421388936690377, 34.017142527666643 ], [ -83.421363936576029, 34.017153527446609 ], [ -83.421068936124939, 34.01728952758733 ], [ -83.420935936055542, 34.017318527698649 ], [ -83.420790937188897, 34.017349527755336 ], [ -83.420591936997269, 34.017392527527001 ] ] ] } }
]
}
