{"type": "FeatureCollection", "features": [{"type": "Feature", "geometry": {"type": "Polygon", "coordinates": [[[-83.7, 33.72], [-83.7, 34.18], [-83.08, 34.18], [-83.08, 33.72], [-83.7, 33.72]], [[-83.4207909371889, 34.017349527755336], [-83.42093593605554, 34.01731852769865], [-83.42106893612494, 34.01728952758733], [-83.42136393657603, 34.01715352744661], [-83.42138893669038, 34.01714252766664], [-83.42159593637963, 34.01708052739074], [-83.42173893649476, 34.01703752746105], [-83.42196093715093, 34.01692852793997], [-83.42198393671715, 34.016916527403446], [-83.4219949374861, 34.016911527489675], [-83.42203293712093, 34.01689252781463], [-83.42210293654283, 34.016866527507766], [-83.42213993635274, 34.016852527740184], [-83.4222339369624, 34.01681752682194], [-83.42681493887288, 34.01513852758092], [-83.42985093910602, 34.014030525962475], [-83.43166293984878, 34.01329152602511], [-83.43170393985665, 34.01328052648931], [-83.43171793920206, 34.0132695262075], [-83.44351694214969, 34.00869452520677], [-83.45261394567338, 34.00528952408359], [-83.45366094561173, 34.00490952392982], [-83.45386594565115, 34.004878523799164], [-83.45402894585776, 34.00481552412329], [-83.45435094607305, 34.00469152339551], [-83.45938894701972, 34.00274452320639], [-83.46264694790901, 34.001496522403265], [-83.4626889477418, 34.00148152291582], [-83.46606494863188, 34.000105522225866], [-83.46614494899782, 34.000072522213785], [-83.46772894923662, 33.99942652192355], [-83.4706979495226, 33.99821652179733], [-83.4707399502537, 33.99815952138108], [-83.47083894998791, 33.998064521347075], [-83.47101894991296, 33.997993521675646], [-83.47129995101866, 33.997869521414835], [-83.47153095099736, 33.99780552154574], [-83.47193495033007, 33.997721521923715], [-83.47223695045386, 33.99764752133671], [-83.47248795052404, 33.99754152138998], [-83.47259595047906, 33.997472520960144], [-83.47311395141124, 33.996987521160484], [-83.47318795103108, 33.996918521770176], [-83.47332095110049, 33.99686752105145], [-83.47477995076748, 33.996306520807], [-83.48420495345592, 33.99276852016138], [-83.48440495437077, 33.99281351950713], [-83.484492953336, 33.99283852020915], [-83.4847819539393, 33.99289752025789], [-83.48489595374214, 33.992920520404596], [-83.48514395433757, 33.9929715197687], [-83.48546695437776, 33.993030519725046], [-83.48589695454807, 33.99311452026127], [-83.48622195423808, 33.993489520498386], [-83.48637995442182, 33.99369752040889], [-83.48659495450697, 33.99395752032569], [-83.48664295508588, 33.99401652034215], [-83.48680995459215, 33.99416952009296], [-83.48698295394618, 33.994318520062535], [-83.48744795517491, 33.99459151978366], [-83.4874969546804, 33.9946205209438], [-83.48775795479631, 33.994752520449296], [-83.4879689546835, 33.99484952020347], [-83.48885995498627, 33.995239520078236], [-83.48895795489555, 33.99530252089836], [-83.48952895553117, 33.99552952008494], [-83.48991195494752, 33.99584152046095], [-83.49050395549952, 33.99614152068723], [-83.49134795684493, 33.99647752045758], [-83.49220295626438, 33.996805520866666], [-83.49303395629268, 33.99701352085141], [-83.49383395635883, 33.99719152058437], [-83.49470795694316, 33.997392520370006], [-83.49543595703929, 33.997523520570844], [-83.49571195722382, 33.997525520993065], [-83.49611695727977, 33.99761152048437], [-83.49614195739413, 33.99761052027428], [-83.49648795789886, 33.997597520521104], [-83.49692995776473, 33.997559520715754], [-83.4970829570273, 33.997497520291226], [-83.49717495798713, 33.99746052065296], [-83.49750995862118, 33.99743752024574], [-83.49756695852258, 33.99743052099483], [-83.49783095811324, 33.99739952036876], [-83.49798295755089, 33.99731552034528], [-83.49824295784188, 33.99713252053849], [-83.49874595780713, 33.996903520729575], [-83.4991739583276, 33.99671251975987], [-83.4992579579932, 33.9967075208907], [-83.49938395749159, 33.99670052009015], [-83.4995949582771, 33.99668752094251], [-83.49986595843875, 33.99659152052991], [-83.50030395810667, 33.996436520969056], [-83.50037295860196, 33.99634451968332], [-83.50073095880224, 33.99634551990831], [-83.50083595838422, 33.99634551990831], [-83.50093395919184, 33.99634551990831], [-83.5011349590333, 33.99634551990831], [-83.50140295882188, 33.99634551990831], [-83.50188595869565, 33.996418519915785], [-83.50200695906948, 33.99643751970341], [-83.50239295885885, 33.996597519627876], [-83.50288795932649, 33.99703252050597], [-83.50294295957806, 33.99716952031955], [-83.5031349591987, 33.99737651994502], [-83.5031349591987, 33.99795951989241], [-83.50319095927519, 33.99855452046158], [-83.50315395946528, 33.99894952068445], [-83.5030579592058, 33.99958352087119], [-83.50312695970108, 33.99948552037626], [-83.50317595920657, 33.99940852075915], [-83.50322196013565, 33.999351520397965], [-83.50331496002207, 33.99922352135514], [-83.50344895991637, 33.999034520030314], [-83.5034879593761, 33.99896252097543], [-83.50351795951333, 33.99881552135015], [-83.50354996019871, 33.99866252028452], [-83.50358195908743, 33.99850752003378], [-83.50357395958983, 33.99831552023434], [-83.50362796001652, 33.998293520260624], [-83.50364995975782, 33.998208520918084], [-83.50366595965133, 33.99816052009517], [-83.5036689600244, 33.99813452001052], [-83.50368095971996, 33.998087520839825], [-83.50368095971996, 33.997908520543405], [-83.50365795925542, 33.99773252049585], [-83.50363595951411, 33.997679520592015], [-83.50357496031306, 33.99761852046508], [-83.50330695962614, 33.99666752024488], [-83.50322395978547, 33.99637152054051], [-83.50318795890215, 33.99623052002432], [-83.50304796005837, 33.995673520229005], [-83.50300495950236, 33.99513251912205], [-83.50299495945661, 33.9950135196127], [-83.50287295925787, 33.99438752007487], [-83.50270495902838, 33.99381551927234], [-83.5025309589511, 33.993438519210834], [-83.50246095952923, 33.99328551963327], [-83.50243995961283, 33.99321851999437], [-83.50233095893458, 33.99287351909424], [-83.50227795923112, 33.992434519671285], [-83.50229295840143, 33.99200351944454], [-83.50224695926899, 33.991747519133774], [-83.50204595852922, 33.99120851966762], [-83.50173595890782, 33.990500518691896], [-83.50148395901275, 33.990198518807965], [-83.50130095871465, 33.99005351876844], [-83.50109795922336, 33.98993551914948], [-83.50106195834002, 33.98989351843764], [-83.50099095819492, 33.989847518733704], [-83.5006159582762, 33.98960251900037], [-83.50002695809724, 33.989218518939566], [-83.49992695853811, 33.98911251890428], [-83.49984395779913, 33.98902351881467], [-83.4991949573457, 33.98881451832155], [-83.49895895734414, 33.98869951867197], [-83.4987449570839, 33.98856651838454], [-83.49862595725821, 33.98845651849911], [-83.49836995716517, 33.98783551845926], [-83.49824695803984, 33.987535518699886], [-83.49834395812422, 33.98747851856631], [-83.49844195803351, 33.98742251872449], [-83.49988695835515, 33.986588517963966], [-83.50226595863724, 33.98521151778782], [-83.50841796036775, 33.98183551648083], [-83.50845295962954, 33.98181551675666], [-83.5089279600057, 33.98154551666778], [-83.50895496066819, 33.9815305166377], [-83.50945896045833, 33.98126251719357], [-83.50946896050408, 33.981248516026426], [-83.5097239598739, 33.98110851614677], [-83.50997896014204, 33.980967517120376], [-83.51059296133367, 33.98063151635808], [-83.51120696072867, 33.98029551650237], [-83.51122096007407, 33.9802875169153], [-83.51246796182559, 33.97960451670881], [-83.51372896202422, 33.97891351576797], [-83.5153609619436, 33.97804751501432], [-83.52618496492289, 33.97213851372756], [-83.52710596536288, 33.9715665144123], [-83.5272119656681, 33.97150851422784], [-83.52723896543228, 33.97149351391677], [-83.52725296477767, 33.971485514246474], [-83.53184696620863, 33.96896051309094], [-83.53738896784378, 33.96591851183985], [-83.53432696677307, 33.962081511069606], [-83.53298196690888, 33.96047851118235], [-83.532308966166, 33.95967651075955], [-83.53229296627248, 33.95965751095046], [-83.53175296649731, 33.95901351028586], [-83.53163596632145, 33.95887451097214], [-83.53118596605964, 33.95833751080918], [-83.53094696568505, 33.95804051032059], [-83.53066696530256, 33.95771951111793], [-83.53062896476942, 33.95767351039717], [-83.53053396523318, 33.95755851034919], [-83.5303319655668, 33.95731651051801], [-83.53003396564097, 33.95695951063113], [-83.52994396433097, 33.9568505100311], [-83.5298529649927, 33.95674151078169], [-83.52978596594387, 33.956660510654274], [-83.52971996492332, 33.9565805103976], [-83.52903896468284, 33.95575650993321], [-83.52835896516558, 33.95493151046322], [-83.52758596396528, 33.953998510639714], [-83.52681396438652, 33.953066509516944], [-83.52649296399615, 33.9526775091454], [-83.52388096228893, 33.94956250913231], [-83.52316696243648, 33.94871150967278], [-83.52275396288292, 33.948220509350875], [-83.52215196228516, 33.947513508891085], [-83.52183896229073, 33.947145508962855], [-83.52169796182541, 33.94698050806528], [-83.52167296260937, 33.94695150853842], [-83.52124796156362, 33.94645250870715], [-83.52013796187606, 33.94514950781296], [-83.51941296125464, 33.944300508382064], [-83.51907696169397, 33.943897508320916], [-83.51895496149525, 33.94375150821816], [-83.5185499614393, 33.94326650822813], [-83.51751796067121, 33.942031507654434], [-83.51711696081324, 33.94155150817523], [-83.51693596016494, 33.94133450773508], [-83.51635395965866, 33.940637508071205], [-83.5162009603961, 33.940454507739744], [-83.51604796023524, 33.94027150776013], [-83.51360895967866, 33.93735150665997], [-83.51161595828763, 33.93496750628886], [-83.51015995809536, 33.933246506172615], [-83.50992295826889, 33.93296550594914], [-83.50855495704185, 33.931348505744126], [-83.50854695754424, 33.93133850628249], [-83.50853395712545, 33.93132450584173], [-83.50850095751349, 33.93128850597547], [-83.50831695739046, 33.93120650522947], [-83.50810395695514, 33.93113850636885], [-83.50775095677773, 33.93110850567048], [-83.50733295720129, 33.93108050620169], [-83.50706495741268, 33.93104350598442], [-83.50671195723527, 33.93094150598727], [-83.50641595695926, 33.9309235059751], [-83.5062859572629, 33.93097850550345], [-83.50610995753581, 33.93098750624958], [-83.50590595642302, 33.9309235059751], [-83.50571095642933, 33.930885506185305], [-83.50556295718964, 33.930876505428444], [-83.5054049570059, 33.93083050659684], [-83.50521095683715, 33.93071950557109], [-83.50510895672988, 33.93070050526015], [-83.50494195632531, 33.930626505970125], [-83.50481795647676, 33.93053750653738], [-83.5044979559113, 33.93048750576009], [-83.50407795668505, 33.930357506135856], [-83.50390295678287, 33.93033450546499], [-83.50365795566216, 33.93036950547879], [-83.5032999563602, 33.93050650537319], [-83.50296395590121, 33.9306825059424], [-83.50242195647621, 33.931036505740074], [-83.5022089560409, 33.931116506155874], [-83.50204995603222, 33.931135506374], [-83.50201595479872, 33.93113250563374], [-83.50190395554405, 33.93112050639831], [-83.50155995558747, 33.93098350600089], [-83.5014309548177, 33.93096050624444], [-83.50115595535641, 33.93096050624444], [-83.50089695578866, 33.931006506496495], [-83.50057595449998, 33.931078506452195], [-83.50003395507497, 33.93112050639831], [-83.49988395528716, 33.93111250591325], [-83.49925695457502, 33.93108050620169], [-83.49868395428959, 33.93103850623584], [-83.49850195471471, 33.931025506739154], [-83.49840195515559, 33.93099950624911], [-83.49833295466031, 33.930981506249125], [-83.49808895426283, 33.93091850621948], [-83.49765595461778, 33.93071450654885], [-83.49733395440252, 33.93054450607738], [-83.49685995385128, 33.93041050626461], [-83.49668295429927, 33.93034950557911], [-83.49653995328582, 33.93030050643871], [-83.49644395392465, 33.930292505876615], [-83.49631095385527, 33.930254505805344], [-83.49606695435612, 33.93022850657058], [-83.49581495356273, 33.93023550613597], [-83.49544195419215, 33.93033450621034], [-83.49449295326474, 33.930778506235036], [-83.4941369536126, 33.930945506237876], [-83.49364895371596, 33.931228506164494], [-83.49333595372151, 33.93141050670288], [-83.49263395356465, 33.93190650604019], [-83.4920689527768, 33.93241350652917], [-83.49196795339277, 33.932459506741736], [-83.4916879530103, 33.932459506741736], [-83.49118495304506, 33.93228250663029], [-83.49074195245595, 33.9321275068538], [-83.49007395263426, 33.931953506763755], [-83.4890789516761, 33.93164350647636], [-83.48839995198378, 33.931471506628434], [-83.48778095076926, 33.93135450720936], [-83.48774895098221, 33.93134850648946], [-83.48769995147671, 33.931335507040046], [-83.48766295076848, 33.93132650633074], [-83.48748495139156, 33.93130850639994], [-83.48721695070466, 33.931254506584686], [-83.48644695167404, 33.931170506803966], [-83.4863759506306, 33.93117450704388], [-83.48615395087275, 33.931188506763945], [-83.48592795091695, 33.93117450704388], [-83.48572895162363, 33.9311895062647], [-83.48561095072453, 33.931231506901426], [-83.48543895119539, 33.931251506593924], [-83.48535595135473, 33.9312355071384], [-83.48521095069145, 33.931170506803966], [-83.48476795100068, 33.93112850613722], [-83.48425695063949, 33.93115150659365], [-83.48390194991396, 33.93121650694259], [-83.4838419496395, 33.93121950693453], [-83.48378795011114, 33.931221507426066], [-83.48354395061197, 33.93122650641853], [-83.4834329502839, 33.9312275066642], [-83.48267694970033, 33.930970506495804], [-83.48220195022252, 33.930809507300225], [-83.48201795009949, 33.93072550708065], [-83.48164094963263, 33.93045650681371], [-83.4815339495025, 33.93032950642015], [-83.4814189498748, 33.93016750724545], [-83.48121994968315, 33.92998350651165], [-83.48096094921706, 33.92982750676093], [-83.48070894932198, 33.929732506404854], [-83.4804709487723, 33.929677506817164], [-83.4804269492897, 33.929667506414035], [-83.4801679497219, 33.92963650642384], [-83.47938894957214, 33.9296745067709], [-83.47881694911162, 33.92962550649674], [-83.47820694811793, 33.92949550630213], [-83.47730994796738, 33.9292545059554], [-83.4772679490329, 33.92924350672433], [-83.47723894872058, 33.929238506124726], [-83.47578094798017, 33.92897650679295], [-83.47529194825863, 33.92889650660305], [-83.4746359472342, 33.92893150646247], [-83.47454994791879, 33.92892050718964], [-83.47449994679174, 33.92893250673509], [-83.47441394747634, 33.92895250696745], [-83.473445948079, 33.929045506905645], [-83.47298794742127, 33.92915250679703], [-83.47278294648356, 33.92924250645537], [-83.47265294678722, 33.92927450611215], [-83.47259294651275, 33.92931550667979], [-83.47229094728728, 33.9295255075687], [-83.47219494702782, 33.92962950680921], [-83.47215694739297, 33.92976650640323], [-83.47204194596863, 33.92989650767493], [-83.47184394739853, 33.930064506685156], [-83.47160694667376, 33.93021250692288], [-83.47034894594988, 33.93086150689774], [-83.47009594622989, 33.93095650673984], [-83.46996494670864, 33.93100750749008], [-83.46977494673783, 33.93107950744495], [-83.46968494632614, 33.93111350690559], [-83.46942494603515, 33.931147507098025], [-83.46921194649813, 33.93113550711935], [-83.4689559464051, 33.93107050670859], [-83.4686619457789, 33.93090050694774], [-83.46852494640987, 33.93062050668966], [-83.46856094549658, 33.92984350648095], [-83.46858594650925, 33.929320506529514], [-83.46857094554231, 33.928385506421826], [-83.46831894564723, 33.92792350669246], [-83.46774694608501, 33.92727550623776], [-83.46723194552588, 33.926823506443625], [-83.46705294452744, 33.926497506518146], [-83.46672494536269, 33.92623450590448], [-83.46655194511033, 33.92621050679717], [-83.46618194521447, 33.92613250685657], [-83.46601694445971, 33.926097505847], [-83.46595594525867, 33.92608450634157], [-83.4658459447555, 33.92606150600752], [-83.46573694497555, 33.92603850566732], [-83.46555994452522, 33.92600050593425], [-83.46505494491016, 33.92594050612498], [-83.46483194442908, 33.9259135067561], [-83.46436694409867, 33.9259095062691], [-83.46399294400486, 33.92593250664413], [-83.46269594382123, 33.92624550701491], [-83.46150694359265, 33.92661250679207], [-83.46138494339391, 33.92663050696994], [-83.46118594320228, 33.926640506238925], [-83.46100294380248, 33.92662550621693], [-83.46097294366525, 33.92661250679207], [-83.46083194319996, 33.92658750674571], [-83.46079694303985, 33.92658150718075], [-83.46061494256666, 33.92651550672033], [-83.46048394304539, 33.926451506812334], [-83.46020094318818, 33.92636750602159], [-83.45944594242955, 33.92628350663869], [-83.45841194201167, 33.92595050696576], [-83.45769894288244, 33.92564250706742], [-83.45725694301656, 33.92544950715402], [-83.45663094212937, 33.92514650628433], [-83.45590194220831, 33.924854506372284], [-83.45570794203955, 33.92477550635937], [-83.4551899420057, 33.92455550617313], [-83.45499094181406, 33.924471506494214], [-83.45492994171468, 33.924463506130046], [-83.45488394168393, 33.92444450665972], [-83.45423494212883, 33.92435750663777], [-83.45412294107751, 33.924354506404114], [-83.45400594090165, 33.924338507143844], [-83.45309794088045, 33.924322506389736], [-83.4522209408214, 33.92447750620779], [-83.45212394073702, 33.92448450624586], [-83.45020593968906, 33.924622506984534], [-83.45008393949031, 33.92462750710973], [-83.45006294047224, 33.92463250648928], [-83.4500239410125, 33.92463550596772], [-83.44994494047147, 33.92467850643198], [-83.4498559398847, 33.92472750731586], [-83.44976393982317, 33.92486850638582], [-83.44974194008188, 33.92511250667789], [-83.44979493978532, 33.925368507064], [-83.44972594018836, 33.925566507230954], [-83.4495739407507, 33.9256615070159], [-83.4493979401253, 33.92573850707773], [-83.44910094002438, 33.92574550626677], [-83.44853594013485, 33.925730506832565], [-83.44804793933989, 33.92568850646472], [-83.44749193877288, 33.92560750660191], [-83.4470479392572, 33.92550150704239], [-83.44655193986296, 33.92531850697915], [-83.44606393906801, 33.92506650696956], [-83.44581993867054, 33.92496350620379], [-83.44550693867609, 33.92487250692165], [-83.44527793924556, 33.924829506555376], [-83.4452249395421, 33.92481450695988], [-83.44507193848293, 33.92477050624285], [-83.44494093896165, 33.92473250668949], [-83.4448309384585, 33.924666507032654], [-83.44464993870852, 33.92451750652385], [-83.44417993835525, 33.92413150637989], [-83.4438029387867, 33.923900506845634], [-83.44366093849646, 33.92380450700016], [-83.44357993830562, 33.92375550633073], [-83.44339693800751, 33.923628506381284], [-83.44333293843341, 33.923584506542454], [-83.44325593844052, 33.92356150627886], [-83.44323393869921, 33.92354850638637], [-83.44312993804382, 33.92350950669703], [-83.4430509384011, 33.92347950703855], [-83.44283693814087, 33.92338850617115], [-83.44269593767555, 33.92337850652043], [-83.44250893807781, 33.92336550585459], [-83.44157693776715, 33.92330050696825], [-83.4414179377585, 33.923289506222915], [-83.44093693663625, 33.92323650688098], [-83.44079993816554, 33.92321650679726], [-83.44064893675616, 33.92317750621058], [-83.44042393752358, 33.92310750696662], [-83.44027793703539, 33.92306250651716], [-83.44022393750703, 33.92304650701423], [-83.44013893711822, 33.92302250626333], [-83.43993993782492, 33.922965506875514], [-83.43960393736593, 33.922851506494574], [-83.43932593663327, 33.9227565065575], [-83.4392439366175, 33.92272850657942], [-83.43897393628076, 33.922636506799485], [-83.43876193656865, 33.92256450641625], [-83.43865093713889, 33.92251650687244], [-83.43835093666492, 33.922468506556115], [-83.43787793593859, 33.922556506618434], [-83.43742393637716, 33.922635506452934], [-83.4369689360925, 33.92271450695961], [-83.43637793626368, 33.92278650647064], [-83.43614393591196, 33.92278050663791], [-83.43601593586546, 33.92277750709415], [-83.43585993622983, 33.922735506761136], [-83.43575693539935, 33.922678507181246], [-83.43564993616754, 33.922678507181246], [-83.43557393510125, 33.92268250632913], [-83.43548093521483, 33.922726506633836], [-83.43541893529056, 33.92273850705186], [-83.4354019355721, 33.922781506237385], [-83.4353649357622, 33.92287650614653], [-83.43532393575433, 33.922912507332015], [-83.43529793581504, 33.92303650657794], [-83.43523493606585, 33.923223506938946], [-83.4348869359113, 33.92353350731073], [-83.43445193571812, 33.92380750725317], [-83.43423093488686, 33.92391550660207], [-83.43389493622452, 33.92400250707538], [-83.43263593477741, 33.92416650670644], [-83.43251093510393, 33.92423050684039], [-83.43247593494384, 33.924235506988595], [-83.43228493514813, 33.92430750670496], [-83.43219393491152, 33.92438750747788], [-83.43213293481216, 33.92447150723962], [-83.43210193574834, 33.92468550719889], [-83.43205693464418, 33.924776507426195], [-83.43171293468761, 33.92500150789028], [-83.43152993528781, 33.925196507960884], [-83.43145393511983, 33.925349507795524], [-83.43133193492109, 33.92575750775025], [-83.43106493495739, 33.925974507637065], [-83.43067593479496, 33.92613850719856], [-83.43062493474135, 33.9261465081508], [-83.43045393413882, 33.926169507716445], [-83.43028693463255, 33.926123507833566], [-83.4299879348818, 33.92579950808403], [-83.42995893367116, 33.92576850743148], [-83.42983593454582, 33.925715507395715], [-83.42974493430923, 33.925658507573594], [-83.42969393425562, 33.92565550738571], [-83.42964593367674, 33.92563550786992], [-83.42955493433844, 33.92563950762439], [-83.42941393387312, 33.92564450768989], [-83.42920293398593, 33.92563550786992], [-83.42872293448524, 33.92570750714834], [-83.42866093366263, 33.92573850782313], [-83.428432934057, 33.92593250813493], [-83.42823993461147, 33.926165507986916], [-83.42812693373526, 33.92630250793504], [-83.42797493339928, 33.92642050788781], [-83.42776093403735, 33.9265315078079], [-83.42760893370138, 33.92657750821591], [-83.42742593340328, 33.92659250824636], [-83.42731193360048, 33.92657750821591], [-83.4270879341928, 33.926489507835], [-83.42686393298848, 33.92640050780623], [-83.42684093342227, 33.926390507763685], [-83.4267159337488, 33.92635650790844], [-83.42666293314703, 33.92632950718062], [-83.42650993298616, 33.926279507659864], [-83.42647093352642, 33.926272507769355], [-83.42624593339552, 33.92623350783638], [-83.42620693303746, 33.92622250821513], [-83.42618493329616, 33.92622250821513], [-83.42612793339474, 33.92621250740635], [-83.42609793325752, 33.926207508119525], [-83.42572393316371, 33.92621150710178], [-83.4256879331787, 33.9262185077427], [-83.42538793360305, 33.926279507659864], [-83.42439093299507, 33.92661350783731], [-83.42415293244538, 33.92666650805973], [-83.42363093311187, 33.926750507810226], [-83.42271793216948, 33.92686350789417], [-83.42248893184063, 33.92692850853414], [-83.42221493220424, 33.92707350812025], [-83.42212193231784, 33.92708050794493], [-83.4220439316017, 33.92708650822014], [-83.42200893233992, 33.927088508808744], [-83.4219369323699, 33.92706150831296], [-83.4214589316207, 33.92672250765413], [-83.42145793179579, 33.92670850794536], [-83.42144393155208, 33.92644750784139], [-83.42137493195511, 33.92603550847441], [-83.42104693099374, 33.92594450810126], [-83.42079593182189, 33.92577650841848], [-83.4203529312328, 33.92542150806107], [-83.419692931807, 33.924931507908994], [-83.41944493121159, 33.92450250761882], [-83.41896493081256, 33.92398350750223], [-83.41888793081968, 33.92380450774558], [-83.41894893091903, 33.92365150811763], [-83.41904593100342, 33.92361150739494], [-83.41915493078336, 33.92358650721325], [-83.41939893118082, 33.923463506868515], [-83.41951993155466, 33.923461507685616], [-83.41998693153488, 33.92314050777809], [-83.42021593096543, 33.92281650786396], [-83.42021593096543, 33.9224005074283], [-83.41988793180069, 33.92208750709266], [-83.41972993161694, 33.922020506523666], [-83.4186519308181, 33.921564507226094], [-83.41744593087108, 33.92101950729144], [-83.41721693054222, 33.92077150647473], [-83.41701893017552, 33.92032150720726], [-83.41674493053912, 33.9198935064441], [-83.41672893064559, 33.91986350700319], [-83.41670893055411, 33.91983750683309], [-83.41650792981434, 33.91952450602661], [-83.41620393004072, 33.91925850658089], [-83.41610393048161, 33.91916150633536], [-83.41604293038226, 33.91911750642584], [-83.41578292919294, 33.91889050678566], [-83.41551593012755, 33.91854750632323], [-83.4151189295692, 33.91842950664687], [-83.41471492933817, 33.9184015067376], [-83.41420192932718, 33.918331507296884], [-83.41413092918206, 33.91831550616003], [-83.41410292869465, 33.91830850710601], [-83.41384292930198, 33.918031506912484], [-83.41360092855435, 33.917773506035324], [-83.4133869291924, 33.91747950612911], [-83.41329892932886, 33.91744450603719], [-83.41326492899367, 33.91742250601467], [-83.4132259286356, 33.91741450647944], [-83.41311992922871, 33.917372506484504], [-83.41307892922082, 33.91738750664481], [-83.41301792912145, 33.91739250644916], [-83.41286092876261, 33.917429506632345], [-83.4125709292327, 33.91761650662745], [-83.41205192937394, 33.9180055061834], [-83.41179292890786, 33.918189506699925], [-83.41161692828244, 33.918256506554364], [-83.41135792871468, 33.91826550640841], [-83.41120292800565, 33.918221506781606], [-83.41106092771543, 33.91818150649125], [-83.4109589285065, 33.91802650640015], [-83.41086192842212, 33.91787950701035], [-83.41056692886934, 33.91764550645436], [-83.41048492795527, 33.91754850660895], [-83.41046092766581, 33.91752050641018], [-83.41036892850262, 33.91750450661191], [-83.4102899279616, 33.917448506921644], [-83.40996192789854, 33.917284506285924], [-83.40957792865728, 33.91712650631129], [-83.40916792857846, 33.91688050617337], [-83.40903692726059, 33.91679650638179], [-83.40871792831666, 33.916594506526316], [-83.40847392791919, 33.916594506526316], [-83.40844992762976, 33.916594506526316], [-83.40822992752172, 33.916594506526316], [-83.40804192720076, 33.91649650655676], [-83.40792992704775, 33.916346506248146], [-83.40791592770236, 33.91631850639987], [-83.40788292719209, 33.916249506414914], [-83.40783292786169, 33.91614050661657], [-83.40789392796107, 33.91606050629972], [-83.40793192759588, 33.91599150685141], [-83.4080729280612, 33.9158735066173], [-83.40817392834353, 33.915789506578555], [-83.40819192788689, 33.91577450688238], [-83.40816892742235, 33.91569650633256], [-83.40818392749095, 33.91567150606473], [-83.40818392749095, 33.91560250555589], [-83.40814592785613, 33.91554150619396], [-83.40807392788612, 33.91549850633641], [-83.40804692722364, 33.915453506340924], [-83.40798592712426, 33.9154465055609], [-83.4079109276795, 33.91542950568755], [-83.40767292712981, 33.91537750636085], [-83.40755892732699, 33.91539350581294], [-83.40740592716611, 33.91540050659738], [-83.40730392705886, 33.915485505959126], [-83.40726792707385, 33.91551550619601], [-83.40719692782706, 33.915564505640795], [-83.40709392699658, 33.915636506721164], [-83.40708492677575, 33.915675506286995], [-83.40696292747532, 33.91578150614454], [-83.40678492720009, 33.91588250597756], [-83.40673492697138, 33.915911506394664], [-83.40659692687912, 33.91595750582777], [-83.40652692745724, 33.915962506461526], [-83.40640892655813, 33.91595250668471], [-83.4062869263594, 33.91594250616122], [-83.40618492625215, 33.9159035059721], [-83.40615692666306, 33.91588650618991], [-83.40606292695172, 33.91582150607057], [-83.40593392618199, 33.915674506604155], [-83.40578092691943, 33.91531250585325], [-83.40576092682794, 33.91527650592928], [-83.40569392688079, 33.91517650581214], [-83.4056459263019, 33.91500450626055], [-83.40562492638551, 33.91492750618843], [-83.40560392646911, 33.91485350586961], [-83.40560092609604, 33.91484250552461], [-83.40563392660634, 33.91467650644816], [-83.40564492647698, 33.91464750561081], [-83.40572692649275, 33.91456350659998], [-83.40587092733112, 33.9145275063596], [-83.40593392618199, 33.91451150599935], [-83.4060459272333, 33.91447050650693], [-83.40614692661732, 33.91446950606451], [-83.40628392688467, 33.91437450572731], [-83.40629792712838, 33.91431150608876], [-83.40632992691543, 33.914274506042695], [-83.40631892704477, 33.91422250601122], [-83.4062999276765, 33.91413050599246], [-83.40620792671669, 33.914024505572264], [-83.40617792657946, 33.913966505680335], [-83.40597892638782, 33.91374850606781], [-83.40592092666152, 33.913711505777265], [-83.40589492672224, 33.91366450617085], [-83.40564792685004, 33.91353550518279], [-83.40555192659056, 33.91348550560838], [-83.40533792633033, 33.913454506438974], [-83.40514392616157, 33.91341950543936], [-83.40503592620654, 33.91340850565475], [-83.40494392614502, 33.913400505742715], [-83.40489092644158, 33.91339550644959], [-83.4048569270047, 33.913392505829925], [-83.4047739262657, 33.91338550562604], [-83.40435392614116, 33.913348505923395], [-83.40423992633833, 33.91324850578036], [-83.404315925608, 33.91316150625373], [-83.40456792550307, 33.913096505546896], [-83.40473492680597, 33.913085506466054], [-83.40481592699682, 33.91308050566348], [-83.40484892660879, 33.9130785054915], [-83.40488092639582, 33.91307750577818], [-83.40490792616002, 33.91306350606366], [-83.40494892616789, 33.91304250611476], [-83.40496492606142, 33.91295550563233], [-83.4049419264952, 33.91286350573681], [-83.40490492668529, 33.912820505273494], [-83.40488092639582, 33.91275650551462], [-83.4048359270883, 33.912744505927236], [-83.40477792646368, 33.91272950569509], [-83.40470192719401, 33.9127085056639], [-83.40464592621919, 33.912693506170996], [-83.40456792550307, 33.912672506130924], [-83.40426292590455, 33.91268450572845], [-83.40415592667274, 33.91268850609087], [-83.40380492614514, 33.912787505683376], [-83.40359892628082, 33.91297050507919], [-83.40358592586205, 33.912997505567816], [-83.40346192601348, 33.913199505749404], [-83.4033449258376, 33.913233505636924], [-83.40323892643072, 33.91319750632571], [-83.40292092551509, 33.91308950531869], [-83.40267992549065, 33.912913505676144], [-83.40261592591655, 33.91275050572112], [-83.40260892624386, 33.912707505946294], [-83.40266992634322, 33.91215650543775], [-83.40270592542993, 33.91207850530386], [-83.40268792588658, 33.91201250628177], [-83.40271392492754, 33.911932505817205], [-83.40270192523197, 33.9117995062765], [-83.40261092589368, 33.9117125052707], [-83.4024579257328, 33.91134450568956], [-83.40240392530613, 33.91129850525745], [-83.40230792504667, 33.911241505481684], [-83.40225592516812, 33.91120150564249], [-83.40222292555617, 33.91116850542549], [-83.40174792518002, 33.910879506029104], [-83.40144692488114, 33.910754505006295], [-83.40097392505311, 33.910731505006915], [-83.40071992550823, 33.910680505537094], [-83.40069892559183, 33.91067550533892], [-83.40067392457914, 33.91067050514048], [-83.40063792549246, 33.910663505458544], [-83.40047892458547, 33.9106315047752], [-83.40010792486471, 33.910436504917854], [-83.3995709254626, 33.91015550549334], [-83.3988759240801, 33.910128504849865], [-83.39843392421422, 33.910017505179425], [-83.39821992395399, 33.9098005056547], [-83.39765592388937, 33.90904150508441], [-83.39724392416072, 33.90885450565658], [-83.3967709234344, 33.90876650486291], [-83.39644292337132, 33.908636505642214], [-83.39628992410877, 33.90846950514799], [-83.39610692291235, 33.90823250479127], [-83.39535192305203, 33.908034505347025], [-83.3945959233668, 33.907812504880944], [-83.39429892326588, 33.907576504711905], [-83.39400092244172, 33.90695850484447], [-83.39379092237945, 33.90640550486472], [-83.39385592267676, 33.90619950506204], [-83.39385592267676, 33.90614450444784], [-83.39388692263891, 33.90603150447079], [-83.39366192340631, 33.90464150467271], [-83.39358192304039, 33.90415050449523], [-83.39359092236289, 33.90407350430956], [-83.39359992258373, 33.90399650479994], [-83.39362292304827, 33.90383150380589], [-83.39362592252299, 33.903774504255836], [-83.39366892218071, 33.90298250405302], [-83.39346992198908, 33.9022975040141], [-83.3930279221232, 33.90181950323889], [-83.39224992179834, 33.9014065034901], [-83.39165492266991, 33.90083150345289], [-83.39162792200742, 33.90080350298124], [-83.39122192212655, 33.900390504275926], [-83.39109792137967, 33.9002655035296], [-83.39081492152245, 33.89997850343702], [-83.39043392175596, 33.89972050383087], [-83.38999092116686, 33.899530503725735], [-83.3894649216354, 33.89941950293082], [-83.38807592049194, 33.89945950307942], [-83.38747392079249, 33.89940650382914], [-83.38704792082015, 33.89934050319729], [-83.3867639202397, 33.89929650349334], [-83.38588591945741, 33.8991225042042], [-83.38471891986843, 33.898942503794686], [-83.3838649193756, 33.89888950273179], [-83.38280391919353, 33.898655502977086], [-83.38247591913047, 33.898393503554026], [-83.38226291869513, 33.89810450334775], [-83.38218591870225, 33.897864503580124], [-83.38216291913604, 33.897791503252755], [-83.38228291878661, 33.897510503155935], [-83.38229291973069, 33.897486502669565], [-83.38252191916123, 33.897228503725245], [-83.38283491915566, 33.89699750359195], [-83.3833309185499, 33.89683350312395], [-83.38407091923992, 33.89669650277305], [-83.38452091950172, 33.896515502554415], [-83.384878919702, 33.89617250301418], [-83.3849629202659, 33.89581550252962], [-83.38490991966414, 33.89546050262737], [-83.38462791963184, 33.89518550259047], [-83.38419992000966, 33.89488250297906], [-83.38395391906406, 33.89478350272508], [-83.38378491900967, 33.89471550313176], [-83.38372691928333, 33.8946925025333], [-83.38294991878341, 33.89449950261645], [-83.38246991928267, 33.894186502711406], [-83.38186891850984, 33.89371850284742], [-83.3813889181108, 33.89363250271739], [-83.38030091816455, 33.89349450250084], [-83.37960091855584, 33.893273502148276], [-83.37903691849121, 33.893012502543115], [-83.37877091745412, 33.892709501922425], [-83.37852691795497, 33.89220350226622], [-83.37855691719386, 33.89138150144752], [-83.37847091787846, 33.89109350205714], [-83.37829491815137, 33.8909365019773], [-83.3776999172263, 33.8907705018351], [-83.37695491651341, 33.890519502551776], [-83.37678191715935, 33.89046150232714], [-83.37671591703712, 33.890439502051606], [-83.37659291701347, 33.890398502166995], [-83.37636191703479, 33.89004150137484], [-83.37619491663021, 33.88966450231679], [-83.37588491611051, 33.889133501899245], [-83.37549191664843, 33.88873250109807], [-83.37514291577065, 33.88820450085942], [-83.37489991699472, 33.88767850110338], [-83.37458691610196, 33.88715650115602], [-83.37402291603735, 33.886345501212894], [-83.37341191611706, 33.88559450093444], [-83.37303091635056, 33.885374501777505], [-83.37270291538918, 33.885321500485645], [-83.37230591572914, 33.885540501234594], [-83.37146691530492, 33.88622750170321], [-83.37074191558185, 33.88678150132225], [-83.37023091522066, 33.886945501730764], [-83.36913991490137, 33.887216501423836], [-83.36855191454731, 33.887362502222494], [-83.36720191376193, 33.887734502453746], [-83.3665449138109, 33.88786050144266], [-83.36633291409879, 33.88781150247944], [-83.36629491356564, 33.88780250164713], [-83.36624791370998, 33.88779150228574], [-83.36607391363272, 33.887583501485025], [-83.36605691391426, 33.88756350123792], [-83.36588191401208, 33.887353501342865], [-83.3656379136146, 33.88655650137645], [-83.3653709127526, 33.88589950153895], [-83.36485891346484, 33.88546150132208], [-83.36446291362972, 33.88518650111283], [-83.36408091224166, 33.88466950180969], [-83.36394391377095, 33.88406450142357], [-83.36401291336792, 33.88357050116228], [-83.36397391300986, 33.88297950062281], [-83.363744912681, 33.88258350107878], [-83.36337291313534, 33.88235450020806], [-83.36323391231984, 33.88226950062725], [-83.36248891250526, 33.88171450071276], [-83.36194491253212, 33.88128350049522], [-83.36151791183657, 33.88066750042973], [-83.3611969114462, 33.8800384998298], [-83.36106791157476, 33.87955650065478], [-83.36102891211502, 33.87903450023503], [-83.36121191241313, 33.878073500124124], [-83.36125891137047, 33.877594499187495], [-83.36124391220017, 33.8774464993104], [-83.36119091249672, 33.876981499749895], [-83.36097691223648, 33.87653649974665], [-83.3604509118067, 33.87602149904178], [-83.35995491151415, 33.87557649925348], [-83.35890791157578, 33.87514649951635], [-83.35888891130921, 33.875136499427285], [-83.3586569115056, 33.87500849922817], [-83.35831291065071, 33.87490349881082], [-83.35806391112868, 33.87485449911881], [-83.35699291090086, 33.87464649959543], [-83.35567291025272, 33.87458749960248], [-83.35388190942635, 33.87456949962177], [-83.35346791004787, 33.87458449985453], [-83.35281190902344, 33.87469949931414], [-83.352498909029, 33.874864499240864], [-83.35217890936187, 33.87511649999149], [-83.35216390929325, 33.87520849959476], [-83.35213190860789, 33.87540250005443], [-83.35242690905899, 33.87588649987076], [-83.35282290979242, 33.87645349987641], [-83.35289590958735, 33.87686550024413], [-83.35277790958658, 33.87710450004371], [-83.35246190921907, 33.877301499574955], [-83.35211490888945, 33.87736449971145], [-83.35204990859211, 33.877369500371415], [-83.35152190851252, 33.87740750015676], [-83.35093190940695, 33.87722849954801], [-83.35032990880919, 33.87723350021595], [-83.35015290925718, 33.8772474998471], [-83.35005590917281, 33.87740249949901], [-83.34995890908843, 33.87755849974496], [-83.34981190877534, 33.87755450071749], [-83.34959490814204, 33.87757050055523], [-83.34955190848434, 33.87757350019817], [-83.34904090812317, 33.87768850085076], [-83.34855990789924, 33.87789850066972], [-83.34833590849155, 33.87796949987367], [-83.34788690805468, 33.87812049995907], [-83.34758390720766, 33.87822249978158], [-83.34685090798696, 33.87850450089376], [-83.34619490786085, 33.87867250052629], [-83.3457219071345, 33.878660500616796], [-83.34547390743738, 33.87859850080881], [-83.34532590729938, 33.87801650051171], [-83.34508890657462, 33.876681500036085], [-83.3448909071062, 33.87600249996135], [-83.34467690684596, 33.875597500225815], [-83.34438690641772, 33.87526950021738], [-83.34425490707157, 33.87521450053826], [-83.34408190681921, 33.87514349978804], [-83.34366290651954, 33.87505750032345], [-83.3436169064888, 33.87504849963732], [-83.34307490706381, 33.87504049910949], [-83.34280790620181, 33.87501049954743], [-83.34239590557485, 33.87491449983375], [-83.34202190637936, 33.874777500078665], [-83.3417089063849, 33.87462149996996], [-83.34121290609235, 33.874304499549595], [-83.34077790500085, 33.874140500201655], [-83.34051090593549, 33.87408349945405], [-83.34019890576593, 33.87405249938479], [-83.3390849049821, 33.8740104996579], [-83.33844390492459, 33.87386550005123], [-83.338092904397, 33.873751500388124], [-83.33782590533161, 33.87361450025785], [-83.3374169050777, 33.87334249895007], [-83.33639890455333, 33.872598499653655], [-83.33611390504629, 33.872390499107354], [-83.33582990356754, 33.87218249954597], [-83.33565890386332, 33.872057499228625], [-83.33504090427036, 33.871615499508515], [-83.33479490332473, 33.87150049962287], [-83.33453790340678, 33.87142049918949], [-83.33423190398335, 33.87137449885045], [-83.3339129032428, 33.87135649893801], [-83.33338690281303, 33.87139449916303], [-83.33314090366405, 33.871413499269245], [-83.33268390283125, 33.87139349896106], [-83.33214990290386, 33.87128749986009], [-83.3315389029836, 33.87108149876795], [-83.32998290233387, 33.870348499275615], [-83.32933390188046, 33.87007449905905], [-83.3287469013513, 33.869768499100644], [-83.32825890145466, 33.86946749916816], [-83.32787790168815, 33.86918949894197], [-83.32776290206043, 33.869094498877146], [-83.32753390173157, 33.86890649889252], [-83.32728990133411, 33.86864349886209], [-83.32694590137751, 33.86817449886453], [-83.32667690086569, 33.86784049945038], [-83.32571790079086, 33.866892498189024], [-83.32475690106622, 33.865816498523934], [-83.324466900638, 33.865416498809346], [-83.32419990067429, 33.864905498508314], [-83.32415590029336, 33.86484249812656], [-83.32414389969948, 33.864825497861666], [-83.32408490014825, 33.864741499004126], [-83.3240239009472, 33.86455449792072], [-83.3240169003762, 33.86436349827404], [-83.32411590011039, 33.864085497837344], [-83.32418489970738, 33.863367497914794], [-83.32433690004333, 33.86265449795209], [-83.32445890024208, 33.862128498095956], [-83.3245659003722, 33.861826497766536], [-83.32474889977199, 33.861506497363536], [-83.32494789996362, 33.861307498034954], [-83.3251149012665, 33.861201497599836], [-83.32532890062842, 33.861124497433416], [-83.32619090061887, 33.86097949682506], [-83.32656190033966, 33.86087749802956], [-83.3269309004106, 33.860747496682265], [-83.32727390144056, 33.86058649763704], [-83.3273329009918, 33.860553497229986], [-83.32760290132855, 33.86040349698222], [-83.32771690113137, 33.860289497244345], [-83.32779290129935, 33.860152497142], [-83.32781590086557, 33.86001449723061], [-83.32778590162664, 33.85989249726366], [-83.32772490152729, 33.859782497449814], [-83.32760990100124, 33.8596634974238], [-83.32743490109907, 33.85954549682684], [-83.3270659010281, 33.85936849674457], [-83.32680890111017, 33.85924449665808], [-83.32641190055182, 33.85899649669085], [-83.32636790017088, 33.85896249681371], [-83.32599290115047, 33.858668497047816], [-83.32563390022696, 33.85830949632653], [-83.32561790033344, 33.85829049628787], [-83.3254659008958, 33.85810349674181], [-83.32538989982949, 33.857836497051316], [-83.32539190037762, 33.857810496617766], [-83.32539089965441, 33.8577844961763], [-83.32538190033189, 33.857535496826706], [-83.3254659008958, 33.8572374966448], [-83.32567990115604, 33.85683749702401], [-83.32630590114493, 33.85598649579611], [-83.32648689999657, 33.855810496182016], [-83.32657390093352, 33.85572049584072], [-83.3266709010179, 33.85561949562662], [-83.3266919009343, 33.85559749606638], [-83.32659890014958, 33.855544496424436], [-83.32650590026314, 33.85549149600353], [-83.32639090063543, 33.85543349658913], [-83.32599290115047, 33.85525149572701], [-83.32579490078375, 33.85517649620169], [-83.32548789973877, 33.855060496159545], [-83.32532890062842, 33.855023496518164], [-83.32520089968361, 33.8549774962964], [-83.32488789968916, 33.854897496046405], [-83.32455789997628, 33.85482549590652], [-83.3242348999361, 33.85477849592751], [-83.32388790050477, 33.85473449636815], [-83.32358689930756, 33.854704495638316], [-83.32340989975556, 33.85469249608941], [-83.32305889922797, 33.854669495892516], [-83.32275789892908, 33.85466149569286], [-83.32222689937477, 33.85464349598681], [-83.3218358995625, 33.854629496378635], [-83.32129289941429, 33.85460249606206], [-83.32045089861701, 33.854556496359635], [-83.32027689943806, 33.85455849641203], [-83.32007789834812, 33.85455249625458], [-83.31987389813361, 33.85455349665384], [-83.31965289909898, 33.85456149686367], [-83.31925589854065, 33.854611496665875], [-83.31896889848547, 33.85466049604083], [-83.31867289820944, 33.854720496028875], [-83.31783989853132, 33.85487349700119], [-83.316705897656, 33.85510449704295], [-83.31586989760483, 33.855287496371005], [-83.31485989657807, 33.85550149615587], [-83.31420389735025, 33.855630496896616], [-83.31400489626031, 33.85566149694146], [-83.31371689638023, 33.85569349661506], [-83.31351289706406, 33.85570149671805], [-83.31328089636213, 33.85569049694921], [-83.31304389743397, 33.85566349696804], [-83.31242889641743, 33.855542496395074], [-83.31216289627865, 33.855475497249444], [-83.31196589663516, 33.855419497110404], [-83.31178489598688, 33.855359496867436], [-83.31123889636393, 33.85515949699638], [-83.31092489564625, 33.855034496372916], [-83.31057989586478, 33.85489649639714], [-83.3103218961219, 33.85478549646569], [-83.3099648948482, 33.854620497268755], [-83.30967889551626, 33.85447549680707], [-83.30937389591773, 33.8543104962653], [-83.3090558950021, 33.85413949671026], [-83.30888789567092, 33.85408049671893], [-83.30881589480259, 33.8540084966363], [-83.30877189531996, 33.85395149662114], [-83.30864389527345, 33.85383549640735], [-83.30805689474431, 33.85327149662133], [-83.30801089561187, 33.85322749628564], [-83.30721989486823, 33.852454496661245], [-83.30721289519552, 33.85244349647424], [-83.30719989477673, 33.85243049618362], [-83.30704089476806, 33.85227049605964], [-83.30661189442267, 33.85185849635659], [-83.30641289512936, 33.85169949559394], [-83.30635589522797, 33.85166149555554], [-83.30624289435171, 33.851586495861994], [-83.30606989409938, 33.851507495855], [-83.30572389449297, 33.85138949592569], [-83.30562489386045, 33.85137049583963], [-83.30559689427135, 33.85136149638638], [-83.3052908939496, 33.85126349606144], [-83.30479889385502, 33.851104496429365], [-83.30401789315711, 33.850876495849306], [-83.30330089382994, 33.850680496212334], [-83.30296489337096, 33.8505894959882], [-83.30226789323696, 33.850442495995246], [-83.30184589346256, 33.85038949539272], [-83.30150889317868, 33.85037149553247], [-83.30112189266607, 33.85035949612096], [-83.29988889205654, 33.85037949613398], [-83.29981289278687, 33.85038049583606], [-83.29932589271515, 33.850378496431844], [-83.2979718917318, 33.85038249598631], [-83.29768489167662, 33.85040249599401], [-83.29734989194087, 33.85038849643674], [-83.2965488911515, 33.85040549659158], [-83.2963388910892, 33.85042149629532], [-83.29567989148836, 33.85047249598391], [-83.29525289169108, 33.85050049656066], [-83.29475989087327, 33.85052549578888], [-83.29449889165568, 33.85055249590215], [-83.29401189068564, 33.8506244959137], [-83.293339890666, 33.850734496332244], [-83.29273089039553, 33.85083349696091], [-83.2916018904414, 33.85100949713205], [-83.29095988966067, 33.85109649664185], [-83.2904628895432, 33.8511984966746], [-83.29006889025622, 33.85127949709659], [-83.28968888941631, 33.85135049680466], [-83.28955788989506, 33.85136049669578], [-83.28922788928386, 33.85135749687775], [-83.28902988981547, 33.8513484966771], [-83.28890088994403, 33.85132849614489], [-83.28873888956232, 33.85129349650783], [-83.2886458896759, 33.851264497245275], [-83.28855988946218, 33.851227497451596], [-83.28845488898187, 33.85116349698428], [-83.28833288968146, 33.85106949670054], [-83.28812088996935, 33.850900496763614], [-83.28803288920749, 33.85082849698463], [-83.28790988828553, 33.850731496492294], [-83.28784788925957, 33.850684496498666], [-83.2877748885663, 33.85063049634714], [-83.28773288873352, 33.8505994967144], [-83.28765488891571, 33.850542496662506], [-83.28760688923514, 33.8505064962567], [-83.28757888874773, 33.850486496273405], [-83.28754688896068, 33.85046349718207], [-83.28753188889206, 33.85045749673695], [-83.28750088892993, 33.850444496890084], [-83.28745488889918, 33.85042649704143], [-83.28739588934795, 33.85040449688973], [-83.28730488821303, 33.85037049583029], [-83.28671388928255, 33.850248497007925], [-83.28638588921949, 33.8502184961946], [-83.28570388825578, 33.85015849602833], [-83.28541288800265, 33.85011549677853], [-83.28456688790573, 33.84995449708759], [-83.2844358883845, 33.849944496285865], [-83.28420488750749, 33.84994749615346], [-83.28397688790184, 33.84996649655604], [-83.2838468882055, 33.849983496048786], [-83.28377788771023, 33.84996649655604], [-83.28368988784668, 33.84993049665355], [-83.28360588728277, 33.84988749654292], [-83.2833888875478, 33.849781496854455], [-83.28282288693505, 33.84944249631321], [-83.28266188727656, 33.8493454964852], [-83.28217888740281, 33.84907949673782], [-83.28208788716621, 33.84903749666276], [-83.28197988721118, 33.848987495835864], [-83.28193788737838, 33.848953496450584], [-83.28180488641067, 33.84892449713979], [-83.28160888659211, 33.848863496344805], [-83.28146388682715, 33.84883249607092], [-83.28131688651405, 33.84881649606955], [-83.28080388740139, 33.84878949689975], [-83.27970788616089, 33.848762496229256], [-83.27933788626503, 33.848744496772326], [-83.27896588671936, 33.84871749608761], [-83.27872888599457, 33.84867949621485], [-83.27851588645757, 33.84863749594308], [-83.27804488627937, 33.84850649638395], [-83.27773688630778, 33.848428496237766], [-83.27682388626371, 33.848195496591835], [-83.27623388536155, 33.84805749675804], [-83.27605388543647, 33.848010496039315], [-83.27597988491833, 33.84799149594778], [-83.2759368852606, 33.84798349661478], [-83.27581288541205, 33.84828549590919], [-83.27551688513604, 33.84849049706756], [-83.2749708855131, 33.84940649693597], [-83.27488288475122, 33.84955449693134], [-83.27442488499183, 33.85029049723372], [-83.27345288539652, 33.85185049813174], [-83.27293888466231, 33.85267649721635], [-83.26983488375882, 33.85766249899142], [-83.26807988381579, 33.86048049929073], [-83.26795688379214, 33.86067849947307], [-83.26695688370943, 33.86231650032545], [-83.26388888279094, 33.86734650074398], [-83.26375088269867, 33.867567501127105], [-83.26333188329734, 33.868237501262804], [-83.26159988202221, 33.87100750141879], [-83.26082588189531, 33.87224650216152], [-83.2605008822053, 33.87276750214828], [-83.26006888238518, 33.873457503066554], [-83.25953988158236, 33.874303502365066], [-83.25944888224406, 33.87444950288547], [-83.25918088245545, 33.874886502787035], [-83.2590508818608, 33.87509850235989], [-83.25888688182927, 33.87536550326089], [-83.258564881614, 33.87589150360057], [-83.25843888211561, 33.876097502779295], [-83.25812088209828, 33.876615503447894], [-83.25761988178287, 33.87743450370332], [-83.25737288101236, 33.87783750341784], [-83.25703488180187, 33.87839050369825], [-83.25664388198962, 33.87902950414742], [-83.25639788104401, 33.879430503571825], [-83.25631288155351, 33.87956850342149], [-83.2560238809502, 33.87977450416527], [-83.25568988193766, 33.88032450353371], [-83.25552888138087, 33.88058850420867], [-83.255263881067, 33.88102450465367], [-83.25483688037141, 33.881725504586484], [-83.25407588066332, 33.88303750444314], [-83.25137087996798, 33.88760250544406], [-83.25127088040887, 33.88777050655167], [-83.2500898805762, 33.88976450626243], [-83.24848287987287, 33.89214750683258], [-83.24831287999355, 33.89243150731652], [-83.24806088009848, 33.89282350757584], [-83.24736487889106, 33.8939385073288], [-83.24342487793638, 33.90024950943939], [-83.24325787843013, 33.900538509086076], [-83.2424108785083, 33.90190750971296], [-83.2415748784571, 33.903257510259195], [-83.24154187794684, 33.90331150992589], [-83.24126087773945, 33.903765509581696], [-83.24086387807941, 33.90443651011443], [-83.24169687865586, 33.905330509698466], [-83.24274587824405, 33.90645551082923], [-83.24316787891675, 33.906908510358264], [-83.24339187922274, 33.90714851076254], [-83.24359487961233, 33.907366510854736], [-83.24385487900503, 33.90763751052037], [-83.24512287887632, 33.908958510747254], [-83.24528787963109, 33.90913051057249], [-83.24632988044489, 33.91021651094706], [-83.24659087966249, 33.91048851098701], [-83.2466118804772, 33.9105105113086], [-83.24671988043224, 33.91062351131217], [-83.24687787971766, 33.91078751060225], [-83.24690888057812, 33.910820510966744], [-83.24705888036596, 33.91097651122919], [-83.24709988037382, 33.91101951187735], [-83.24732288085491, 33.91125151177546], [-83.24838088066393, 33.91235451096226], [-83.24943888137126, 33.9134585112383], [-83.25025488133095, 33.91430951190955], [-83.25044388147683, 33.91450651198983], [-83.25064888151627, 33.91473351138139], [-83.25077788138769, 33.91487651221148], [-83.2511518814815, 33.915290511244095], [-83.25144388155955, 33.91561351176664], [-83.25293988283312, 33.91727051248073], [-83.25319088290328, 33.91754851257262], [-83.25472688346152, 33.91924951204987], [-83.25474188263182, 33.91926551301133], [-83.25492688347805, 33.91947251292607], [-83.25511788327377, 33.919684512753285], [-83.25512788242119, 33.91969551321866], [-83.25626388384465, 33.920952512591406], [-83.25726288410243, 33.92205851250468], [-83.25739888364657, 33.92220951354507], [-83.2575978838382, 33.92242951308111], [-83.25779588420491, 33.92264951279446], [-83.25787988387049, 33.922743513250936], [-83.25841588434604, 33.923336513192396], [-83.25903688431205, 33.92402351401345], [-83.26033288467075, 33.92545951401555], [-83.26043288422987, 33.92557051369717], [-83.26254388562168, 33.92794151404704], [-83.26256688608622, 33.92796651369593], [-83.26354588625253, 33.929068514632846], [-83.26689488737841, 33.9326965149935], [-83.26732888774669, 33.93318451549438], [-83.2673378870692, 33.93319351451669], [-83.26791388772769, 33.933840515194774], [-83.27076288926139, 33.93704051541174], [-83.27308188926902, 33.93964551655186], [-83.2740658894582, 33.94074951642447], [-83.27465888983514, 33.941415516488085], [-83.27541889061665, 33.942211516915314], [-83.2757538903524, 33.94276151668793], [-83.27581589117499, 33.94289551718632], [-83.2759168896607, 33.943000517345986], [-83.27588489077195, 33.943043516735244], [-83.27589189044467, 33.94308251642248], [-83.27593289045255, 33.943140516612246], [-83.27598689087922, 33.943217516520406], [-83.2761758901268, 33.9435425171752], [-83.27646589055502, 33.94404451721112], [-83.27654789057078, 33.9441855170895], [-83.27668289028999, 33.94441951702235], [-83.27674289056446, 33.94452251735891], [-83.27691189061886, 33.944788517644405], [-83.27706589060465, 33.94509951710627], [-83.27720689106994, 33.94538351701923], [-83.27741289093427, 33.945875517386156], [-83.27743789104862, 33.94595551727397], [-83.27759889070711, 33.9464785171471], [-83.27761689114878, 33.946572517384894], [-83.27763489069211, 33.94666251800679], [-83.27765089058565, 33.94674751747175], [-83.27771989108093, 33.94696851777002], [-83.27787089069368, 33.94779451773602], [-83.27795089105962, 33.94823151730847], [-83.27815089197449, 33.9493235179569], [-83.27824789116053, 33.94984351866377], [-83.2783378915722, 33.95031551815956], [-83.2783708920825, 33.950488518708426], [-83.27842889180882, 33.95084051884291], [-83.2785688915509, 33.95139451878149], [-83.27862689127723, 33.951622518233215], [-83.27864889101852, 33.9517515189172], [-83.27875689187188, 33.952387518685676], [-83.27884489173543, 33.952881518785404], [-83.27904489175197, 33.95400151877063], [-83.27906789221652, 33.9541435192686], [-83.27914689185921, 33.954635519664706], [-83.27914889240736, 33.95465651904588], [-83.27861389175675, 33.95468951880797], [-83.27786889104387, 33.95475451981491], [-83.2777938915991, 33.95476251882345], [-83.27722789098634, 33.95482751902947], [-83.27657289158346, 33.954945519689254], [-83.27605489065127, 33.9550165188076], [-83.27558189172157, 33.955140519738954], [-83.27517089091953, 33.95526551970772], [-83.2746498905126, 33.9553745193577], [-83.27411789113337, 33.95555251985316], [-83.27325089022175, 33.9559045199041], [-83.27275488992919, 33.956119519803096], [-83.2725928904458, 33.95618951947969], [-83.27250289003412, 33.95622951980125], [-83.27181389029603, 33.95659951983524], [-83.27111788908861, 33.95699552050556], [-83.27060789034901, 33.95732251983914], [-83.27008089009432, 33.95773351988493], [-83.26955488966453, 33.95797552076528], [-83.26919688946425, 33.958415520737915], [-83.26924288949499, 33.95842452081856], [-83.26883988908887, 33.95873452044997], [-83.2685668892774, 33.95905052069997], [-83.26825488910785, 33.95945152070911], [-83.26782788841227, 33.960017520846066], [-83.26747688878301, 33.960360520431465], [-83.26701988884851, 33.96102552062972], [-83.26671488835167, 33.96159152072564], [-83.26633388858517, 33.96228652188446], [-83.26592188885651, 33.96309652125832], [-83.2657388885584, 33.96379852182787], [-83.26567188861127, 33.96426252179413], [-83.26560188829106, 33.96475352193573], [-83.26549488905924, 33.96571552212514], [-83.26544988885341, 33.966434522065974], [-83.2655258881231, 33.967297523174544], [-83.26560288811598, 33.96812252267386], [-83.26581688837622, 33.96898552304434], [-83.26593888857496, 33.96936652348158], [-83.26622888900319, 33.97032752311266], [-83.26676188910567, 33.971325522917134], [-83.26713488937456, 33.97186352354847], [-83.26741788923178, 33.97227052356743], [-83.2680738902562, 33.97316952435491], [-83.26865389021435, 33.97384752389718], [-83.26878588956052, 33.97396652399089], [-83.26901389006446, 33.974170523551244], [-83.26932488951076, 33.97444952384465], [-83.26971089109678, 33.974765524563885], [-83.27004189063456, 33.97503652431363], [-83.27012689012507, 33.975095524056684], [-83.2708808910588, 33.97562252398586], [-83.27150589122277, 33.97600452420372], [-83.27222389127317, 33.976399524213356], [-83.2729018911406, 33.976734524857946], [-83.27301689166666, 33.976757524909345], [-83.27360789149544, 33.97698752433638], [-83.27377889119965, 33.97705452410753], [-83.27469389179187, 33.9773285238673], [-83.27556389127993, 33.97751852475368], [-83.27470589148741, 33.97814752398007], [-83.27276889196953, 33.979569524277714], [-83.27174889089702, 33.980264525267955], [-83.2717118910871, 33.98028652544019], [-83.27071589120236, 33.98088652516559], [-83.26962389015983, 33.98152052530669], [-83.26918389084209, 33.981677525310204], [-83.26915589035468, 33.98446552599128], [-83.26915589035468, 33.984497526486706], [-83.26915489052976, 33.984546525709014], [-83.26915489052976, 33.98462752609437], [-83.26915189015672, 33.98479252622682], [-83.26915189015672, 33.984884526613], [-83.26915189015672, 33.98491952579456], [-83.2691508903318, 33.984981526458924], [-83.26914689103216, 33.98540852662221], [-83.26910889049901, 33.98924352665802], [-83.26910889049901, 33.98925752725302], [-83.26910789157243, 33.98929652735533], [-83.26908989023244, 33.99113652738695], [-83.26908889040753, 33.991205527748924], [-83.26908789148094, 33.99125652739756], [-83.26907389123723, 33.99270052803976], [-83.26899589141942, 34.000610529319026], [-83.26890389135792, 34.00057952985344], [-83.26881289201964, 34.00054753020109], [-83.2675638915166, 34.00011952996781], [-83.26605189034949, 33.99970452924493], [-83.26451588979127, 33.99916552961501], [-83.26385189016754, 33.99891552896555], [-83.26261888955801, 33.9985085291703], [-83.2619788893254, 33.99835652924253], [-83.26157188961965, 33.99838752877459], [-83.26135588881127, 33.99839052937739], [-83.26103188894616, 33.99840852926805], [-83.26070988873089, 33.998444529782624], [-83.26039088799034, 33.99849652975421], [-83.2600778888942, 33.99856652955121], [-83.25997988898493, 33.998592529503654], [-83.25987188813156, 33.998621529298006], [-83.25897088778308, 33.99888552982119], [-83.25871788806307, 33.99897153016993], [-83.25847188801579, 33.9990795294627], [-83.25841688866252, 33.999104529810374], [-83.2586558881388, 33.99939553021807], [-83.25885788870349, 33.999643529827345], [-83.25908188900947, 33.999801530047705], [-83.25931888793761, 34.00005252976044], [-83.25951388793128, 34.00032052952812], [-83.2598458881923, 34.00077753004111], [-83.26002888849041, 34.00093752998348], [-83.26022688885712, 34.00104452958594], [-83.2603088888729, 34.00119453032595], [-83.26039488908661, 34.0013495301421], [-83.2606548893776, 34.00158153037137], [-83.26075388911181, 34.00172352961488], [-83.26081488921118, 34.00189453027684], [-83.26096488899903, 34.00208653017871], [-83.26106688910626, 34.002217529843236], [-83.26147888973323, 34.00274553005844], [-83.26178989007785, 34.003353530234676], [-83.26189088946187, 34.00355053051815], [-83.26263788982459, 34.004778530651386], [-83.26289789011558, 34.00527053148869], [-83.26302788981192, 34.005673531189274], [-83.26303489038294, 34.005694531370715], [-83.26330988984424, 34.0061475315736], [-83.26330188944833, 34.00623253116325], [-83.26335489094839, 34.00630053107162], [-83.26342188999725, 34.00632853110565], [-83.26345788998223, 34.006333530897955], [-83.26355789043967, 34.006322531205484], [-83.2636528899759, 34.006312530874524], [-83.26381288980949, 34.006338531434714], [-83.26389989074643, 34.00638253018777], [-83.26393689055634, 34.00640853072648], [-83.26403689101379, 34.00650253100385], [-83.264171890733, 34.00662853078464], [-83.26432989091674, 34.00666153122821], [-83.26436689072666, 34.006669531311296], [-83.264489889852, 34.00666353069053], [-83.26459289068248, 34.00665053157822], [-83.26481689098846, 34.00656453081296], [-83.26490089065405, 34.006523530980296], [-83.26492389022027, 34.00651953055962], [-83.26507189035827, 34.00648053091657], [-83.26516989026756, 34.00648253038315], [-83.26556789065081, 34.00649153133326], [-83.2658198905459, 34.00642253072687], [-83.26591889117842, 34.00635453091619], [-83.2660098905167, 34.00625853100325], [-83.26607089061606, 34.00614453124489], [-83.26608689050958, 34.006033530176914], [-83.26604889087476, 34.005762530220466], [-83.26585789018074, 34.00536653102912], [-83.26584989158142, 34.005213530593196], [-83.26588789121628, 34.00506853086014], [-83.26597989127777, 34.00492353013487], [-83.26612489014443, 34.00479353030124], [-83.2663538913716, 34.00468353057307], [-83.26660589126666, 34.004618530497474], [-83.26684989076583, 34.00460353081671], [-83.2670788910947, 34.00462653077302], [-83.26731489109623, 34.00469052997106], [-83.26752889045817, 34.004797530803216], [-83.26785689141956, 34.004847530359434], [-83.26803489169477, 34.00485653073814], [-83.26859489156143, 34.0048865300077], [-83.26871589193527, 34.004905530135375], [-83.26932289165757, 34.005001530088386], [-83.26974189195724, 34.00506753073785], [-83.27021989180811, 34.00508853032443], [-83.2703318919611, 34.00510153042054], [-83.27056489248793, 34.00511053077232], [-83.27150389247127, 34.00524453060158], [-83.27165589280722, 34.00530853082332], [-83.271730892252, 34.005360530316345], [-83.27179889292236, 34.00539553074487], [-83.27190389250434, 34.00553153035808], [-83.27193189299176, 34.00558253108775], [-83.27196089240576, 34.00563653064421], [-83.27195389273307, 34.00578553060759], [-83.27182189248857, 34.005994530310616], [-83.27174789197042, 34.00611053049036], [-83.27172489240421, 34.00620553120647], [-83.27174789197042, 34.00630153117933], [-83.27178689232848, 34.0063875307216], [-83.2718298928845, 34.00646653092574], [-83.27191989239786, 34.00653753096172], [-83.27197989267233, 34.006583530565216], [-83.27212489243729, 34.006641530644956], [-83.2726098928592, 34.00671653020147], [-83.2728998932874, 34.00671353138219], [-83.27313489256572, 34.006710531073466], [-83.27354089334492, 34.00665953027651], [-83.27386089301206, 34.006583530565216], [-83.27399489290637, 34.00653853032201], [-83.27418889307512, 34.00647253081573], [-83.27478189345204, 34.00619853044401], [-83.2749058933006, 34.006140530806356], [-83.27501589380377, 34.00611653040544], [-83.2750968930963, 34.00609853065885], [-83.27531489355452, 34.00607953079808], [-83.27545489329661, 34.00605353015866], [-83.27565789368619, 34.00595453031462], [-83.2758068936491, 34.00582353045643], [-83.27591289395431, 34.00558452983078], [-83.27602789448036, 34.005294529894584], [-83.27613389388726, 34.005178530089665], [-83.27618789341561, 34.00511053077232], [-83.2763558936451, 34.00494253025426], [-83.27644789370662, 34.00488853025652], [-83.27706489347467, 34.004507530413754], [-83.27749889384295, 34.004292529986614], [-83.27795789432558, 34.0040655296411], [-83.27821889444148, 34.003977530456126], [-83.27844889459526, 34.00393352971238], [-83.27873389410229, 34.003879529817816], [-83.27912289426473, 34.003806530264306], [-83.27977889439084, 34.00368352969133], [-83.27985389473392, 34.00366152961851], [-83.27993989494763, 34.00365953008551], [-83.2801548950328, 34.00362652996481], [-83.2802958954981, 34.0036425299572], [-83.28043389559036, 34.00365952934079], [-83.28060289474644, 34.003706529896775], [-83.28066589539395, 34.003729530095995], [-83.28068489476222, 34.003738529848455], [-83.28077989519677, 34.00378553036072], [-83.28110089558713, 34.00394353032346], [-83.28141389468328, 34.00406652977519], [-83.2816338947913, 34.00414352963796], [-83.2822598956785, 34.0043245297175], [-83.28260689510982, 34.004424530102085], [-83.2836188957864, 34.00471752966483], [-83.28381189613026, 34.0048015305603], [-83.2839848963826, 34.00487753037688], [-83.28401089542358, 34.00488552988327], [-83.28423689627769, 34.00506352950394], [-83.28464289615856, 34.00542653068682], [-83.28512189583435, 34.0058545302422], [-83.28550089684936, 34.006233529782435], [-83.28555689692585, 34.00628952988548], [-83.28584989682882, 34.0067045304556], [-83.28592289662375, 34.00680853067906], [-83.28613689688399, 34.00699853044331], [-83.28640389684767, 34.00716652987296], [-83.2865878969707, 34.00721553017147], [-83.28666289641545, 34.007235530619546], [-83.28691689685867, 34.00722153000849], [-83.28721989770568, 34.00722752984514], [-83.28800389787833, 34.00738553010647], [-83.28852489738692, 34.00749053033434], [-83.2885728970675, 34.00749353061555], [-83.28892289687187, 34.00751752988263], [-83.28926689772676, 34.00754153063223], [-83.28945689769755, 34.00757352988361], [-83.2898748981723, 34.00765653009639], [-83.29057689832918, 34.007796530172854], [-83.29109089816508, 34.00802553040144], [-83.29134189823523, 34.00813753118583], [-83.29150789881491, 34.008211530825186], [-83.29211689908537, 34.00838053017239], [-83.2927738990364, 34.00856253098353], [-83.29299789844407, 34.008557530577725], [-83.29314789913022, 34.00855553041537], [-83.29356789835647, 34.008482530413154], [-83.29400989912067, 34.008299530090994], [-83.29412289909857, 34.00822453044322], [-83.29421889935803, 34.008160530185044], [-83.29433089951104, 34.0080865305012], [-83.29443789964115, 34.008093530363396], [-83.29446489940533, 34.008127530323925], [-83.29448289894866, 34.00815053007053], [-83.29454389904804, 34.008448530594755], [-83.29460089894945, 34.008546530428646], [-83.29465889867576, 34.00864653030981], [-83.29480589988718, 34.00882953062884], [-83.29521589996601, 34.00933353045743], [-83.29566590022779, 34.009806530452174], [-83.29594789936178, 34.01001653074818], [-83.29628389982076, 34.01016553121774], [-83.29665789991458, 34.01052353040744], [-83.29738490108413, 34.01107153065316], [-83.29825990059504, 34.011732530896296], [-83.29863290086394, 34.01202953072358], [-83.29894290138367, 34.012276530636065], [-83.29912490095855, 34.01242153146485], [-83.29934490106658, 34.01259553079226], [-83.29954890128107, 34.012757531617154], [-83.2996089006572, 34.012795531324606], [-83.29965790106101, 34.01282753082998], [-83.30164890190392, 34.01410653092245], [-83.30165890105133, 34.01411353103295], [-83.30356990152829, 34.01534153106196], [-83.30495490247377, 34.01625653177003], [-83.30723690356982, 34.01776353163051], [-83.30875890388432, 34.01876753184033], [-83.30886790456258, 34.01883953197455], [-83.30897790416745, 34.0189115320477], [-83.30909890454127, 34.01899153247095], [-83.30921990401679, 34.019071532074285], [-83.30994290498838, 34.01954553286791], [-83.31074590452926, 34.020072532612616], [-83.31144990433597, 34.02053353231868], [-83.31208390561909, 34.02094953244804], [-83.31233290514112, 34.02104053246047], [-83.31236290438004, 34.02105353234791], [-83.31270490558511, 34.021202532805766], [-83.31313190538236, 34.02147153276503], [-83.31573390614554, 34.023114532850684], [-83.31587290606272, 34.0232065326841], [-83.31767090656176, 34.02437853290568], [-83.31876990727699, 34.02508353325526], [-83.31889390802385, 34.025146532782856], [-83.31897790679113, 34.02518853318644], [-83.31909390714209, 34.02526553250743], [-83.31943790799698, 34.02549353338422], [-83.32024490773584, 34.02602953304571], [-83.32191690873651, 34.02683753347105], [-83.32359990870951, 34.027467532977845], [-83.32367890835224, 34.02749753319217], [-83.32676490971238, 34.02858853363269], [-83.32672691007755, 34.02867053355694], [-83.3279489099181, 34.029034533407895], [-83.32882491015226, 34.02929653425264], [-83.33150791110627, 34.030096533240624], [-83.3321279112474, 34.03028053330329], [-83.33454791243568, 34.031001533802396], [-83.3348519122093, 34.03109253345884], [-83.335154912158, 34.031182533947515], [-83.33518491229523, 34.031191533767824], [-83.33522391175498, 34.03120353377488], [-83.33704091252059, 34.03174453363197], [-83.33951991415843, 34.03248353371336], [-83.3429389147062, 34.03374153471801], [-83.34583691574538, 34.034807534276084], [-83.34688091531072, 34.035197534507965], [-83.34690991562303, 34.035208534181194], [-83.34957191666065, 34.03619853466311], [-83.34987791698241, 34.03631253426103], [-83.35018491712907, 34.036427534202986], [-83.35288591852476, 34.03743353418162], [-83.35415091892135, 34.03790453444727], [-83.35708191867417, 34.038996534778896], [-83.35812691986104, 34.03956153469839], [-83.35888091989644, 34.039964534628545], [-83.36003191959188, 34.04057853444838], [-83.36815792154854, 34.03633853307696], [-83.37268092373272, 34.03406153289585], [-83.37270992314673, 34.034046533205974], [-83.37488292446281, 34.032952532841854], [-83.37710892458404, 34.03224253185758], [-83.37740992488291, 34.03214653218489], [-83.37770992535688, 34.032051532207994], [-83.37804492419431, 34.03184553279388], [-83.37845992519433, 34.03289953258772], [-83.37859492491356, 34.03324153231057], [-83.37861892520299, 34.03329853225441], [-83.37864292549243, 34.03335653194901], [-83.37874092540171, 34.03358853256418], [-83.37883892531102, 34.03382153232841], [-83.37905192574635, 34.034530532978515], [-83.37938792620533, 34.03514853249479], [-83.37986092513502, 34.0350345328215], [-83.38041292550406, 34.03491953247995], [-83.38096492587312, 34.034804532726945], [-83.3809989262083, 34.03479753208964], [-83.3819699259787, 34.034594532711], [-83.38297492698258, 34.034385532696525], [-83.38305092715058, 34.035576532578354], [-83.38405792690597, 34.03659053246843], [-83.38450092659676, 34.03733053325508], [-83.38486692719297, 34.03781153369164], [-83.38496792657699, 34.03778353287592], [-83.3897469279559, 34.03626153263799], [-83.38984692841332, 34.03622953303437], [-83.38992792860418, 34.03620053268531], [-83.39007992804183, 34.03615453275304], [-83.39019192909313, 34.03611753283793], [-83.3899019277666, 34.035400533188046], [-83.39341192944927, 34.03426353228266], [-83.38927992797566, 34.032014531992296], [-83.38896292868158, 34.03191453134872], [-83.3857149269397, 34.03019753138638], [-83.38485092640113, 34.02974053213214], [-83.38694092697823, 34.02901353155481], [-83.38739992746085, 34.02885453075609], [-83.38775092798844, 34.02873253057806], [-83.38793392738823, 34.02869453056001], [-83.39291292878369, 34.02694553082575], [-83.3930269285865, 34.02690553027736], [-83.39727392968783, 34.0254145307823], [-83.3982409301586, 34.02507553044019], [-83.39865293078554, 34.0249305296344], [-83.39884493040617, 34.024857529566276], [-83.4000789308406, 34.02438852961974], [-83.40032493088789, 34.02429552968277], [-83.4204409355879, 34.0174435270894], [-83.42059193699727, 34.017392527527], [-83.4207909371889, 34.017349527755336]]]}, "properties": {}}]}