{
"type": "FeatureCollection",
"name": "park_athens",
"crs": { "type": "name", "properties": { "name": "urn:ogc:def:crs:OGC:1.3:CRS84" } },
"features": [
{ "type": "Feature", "properties": { "Park_Name": "Dudley Park", "Park_Type": "Community Park", "ACRES": 27.65968538 }, "geometry": { "type": "MultiPolygon", "coordinates": [ [ [ [ -83.364584597843859, 33.954125278315978 ], [ -83.365015355249326, 33.953625620267715 ], [ -83.365441108830353, 33.953890365069427 ], [ -83.365694429696845, 33.953627155805528 ], [ -83.366266223474923, 33.953830164594955 ], [ -83.36619234455101, 33.954275145947776 ], [ -83.365073751784493, 33.954678815237912 ], [ -83.364584597843859, 33.954125278315978 ] ] ], [ [ [ -83.366987398145483, 33.954242004894994 ], [ -83.367363417022645, 33.95428256298819 ], [ -83.367759020754249, 33.954598906077351 ], [ -83.367595711390891, 33.95484654555694 ], [ -83.367546704229113, 33.955167834381108 ], [ -83.367672806646013, 33.955647914606757 ], [ -83.367633494973859, 33.955842305600662 ], [ -83.367551426311366, 33.956161867774199 ], [ -83.367320258088171, 33.956467226287359 ], [ -83.365902156643159, 33.955583437823535 ], [ -83.365454322971985, 33.95519853602957 ], [ -83.36551644870157, 33.955153375611474 ], [ -83.36513161529713, 33.954744917388808 ], [ -83.365741931400436, 33.954635620038822 ], [ -83.366987398145483, 33.954242004894994 ] ] ], [ [ [ -83.366607094912112, 33.959070586045669 ], [ -83.366350353401955, 33.958703370996254 ], [ -83.365890707840734, 33.958333285664459 ], [ -83.364509298963156, 33.957947337752088 ], [ -83.364589356308116, 33.95731984503697 ], [ -83.364051198227415, 33.957385340536455 ], [ -83.363978257875914, 33.956875456062697 ], [ -83.364515379830664, 33.956811081092347 ], [ -83.364432378617309, 33.956360874504234 ], [ -83.364857615475188, 33.956316327796195 ], [ -83.364480966814384, 33.956086593479753 ], [ -83.363866235821718, 33.956172677475244 ], [ -83.363510756665562, 33.955335304506129 ], [ -83.364158463482397, 33.954571270453236 ], [ -83.365019435664024, 33.955514653499584 ], [ -83.365081561843624, 33.955469494211471 ], [ -83.365916380992431, 33.95613834909129 ], [ -83.366938113823153, 33.956747741905787 ], [ -83.366532236681536, 33.957238938076685 ], [ -83.366354394538092, 33.957773463240592 ], [ -83.366374548413589, 33.958009167340101 ], [ -83.366502186574735, 33.958372880734068 ], [ -83.366880641027322, 33.958825565948082 ], [ -83.367554237337799, 33.958646428315603 ], [ -83.36768598149348, 33.958890045487443 ], [ -83.367598794533421, 33.958923741879879 ], [ -83.367499361082096, 33.958805923323496 ], [ -83.366607094912112, 33.959070586045669 ] ] ] ] } },
{ "type": "Feature", "properties": { "Park_Name": "Newton Bridge River Access", "Park_Type": "Natural Resource Area", "ACRES": 4.65535375 }, "geometry": { "type": "Polygon", "coordinates": [ [ [ -83.405552742836534, 34.0100609871104 ], [ -83.403839962373596, 34.009630197611017 ], [ -83.405317936503863, 34.00888394436965 ], [ -83.406162421930915, 34.009665273734122 ], [ -83.406690237249705, 34.010586934494278 ], [ -83.406091473793396, 34.010376002901296 ], [ -83.405552742836534, 34.0100609871104 ] ] ] } },
{ "type": "Feature", "properties": { "Park_Name": "Chicopee Gun Emplacement", "Park_Type": "Natural Resource Area", "ACRES": 6.80690924 }, "geometry": { "type": "Polygon", "coordinates": [ [ [ -83.365435209858035, 33.961369755869427 ], [ -83.365555920308935, 33.961164360658806 ], [ -83.365301648761246, 33.961030661568223 ], [ -83.365460505468391, 33.960594972758983 ], [ -83.365755333190592, 33.960901899895489 ], [ -83.366272369366712, 33.960343860607018 ], [ -83.366421223308109, 33.960429991266871 ], [ -83.366848928522273, 33.959788954811579 ], [ -83.367286054329966, 33.960671615094235 ], [ -83.368077153213875, 33.96181274537556 ], [ -83.367587058169917, 33.961295868735256 ], [ -83.366652180766224, 33.961715360501955 ], [ -83.366038518164004, 33.9620996324606 ], [ -83.365435209858035, 33.961369755869427 ] ] ] } },
{ "type": "Feature", "properties": { "Park_Name": "Erwin Tract", "Park_Type": "Natural Resource Area", "ACRES": 25.3259179 }, "geometry": { "type": "MultiPolygon", "coordinates": [ [ [ [ -83.403049180575564, 33.993948217495948 ], [ -83.402678295616184, 33.993349476515945 ], [ -83.403709269058709, 33.993360188673961 ], [ -83.404734164461928, 33.99435507136991 ], [ -83.404478011657446, 33.994598721306268 ], [ -83.403049180575564, 33.993948217495948 ] ] ], [ [ [ -83.410838411066351, 33.99732787346634 ], [ -83.410017102766858, 33.997256788376482 ], [ -83.410573201874314, 33.996855665795401 ], [ -83.41075008535968, 33.996434101685011 ], [ -83.410753900860371, 33.996048049767289 ], [ -83.415658812453543, 33.995900704112252 ], [ -83.415335963852158, 33.995999338820731 ], [ -83.413937333390351, 33.996150809021671 ], [ -83.412775899723229, 33.996483768714931 ], [ -83.412617543391804, 33.997117325383321 ], [ -83.41088082395359, 33.996878963504138 ], [ -83.410838411066351, 33.99732787346634 ] ], [ [ -83.412568475156121, 33.996229291469739 ], [ -83.411278316195407, 33.996384748353833 ], [ -83.411087377950736, 33.996664922167788 ], [ -83.411213279509312, 33.996732225682521 ], [ -83.41153645481684, 33.996716787481795 ], [ -83.412735552783843, 33.996360189014567 ], [ -83.412568475156121, 33.996229291469739 ] ] ], [ [ [ -83.409060634446647, 33.997648738216427 ], [ -83.409107899685822, 33.997598355311503 ], [ -83.409008718869003, 33.997520496101572 ], [ -83.40882311905132, 33.997725952672354 ], [ -83.406786408854373, 33.997266499459883 ], [ -83.406573148617895, 33.99677635778346 ], [ -83.40526332971568, 33.994946954686952 ], [ -83.404677268677247, 33.994641451416115 ], [ -83.405066287319755, 33.994382383286926 ], [ -83.405264547456369, 33.994695789481092 ], [ -83.405811110595963, 33.994739512745618 ], [ -83.406590584155438, 33.994407281616681 ], [ -83.40736124711259, 33.994838676773085 ], [ -83.407628761727111, 33.995646333028446 ], [ -83.407628003946499, 33.995994919942589 ], [ -83.408254199801206, 33.996423549087204 ], [ -83.408724326565405, 33.997110273452016 ], [ -83.409080790868927, 33.996749587372314 ], [ -83.409232065187254, 33.997013590825482 ], [ -83.409459186057816, 33.997207765632517 ], [ -83.410130516251328, 33.997441276352383 ], [ -83.409904870385461, 33.997731649979066 ], [ -83.40978372099103, 33.997649397123638 ], [ -83.409397397245883, 33.997861203614775 ], [ -83.409060634446647, 33.997648738216427 ] ] ] ] } },
{ "type": "Feature", "properties": { "Park_Name": "Beech Haven", "Park_Type": "Natural Resource Area", "ACRES": 124.01269133 }, "geometry": { "type": "Polygon", "coordinates": [ [ [ -83.418218968468523, 33.955502522615369 ], [ -83.416716828384537, 33.950894225828314 ], [ -83.416577938303604, 33.950647416079882 ], [ -83.415921998531999, 33.950297633366304 ], [ -83.417092031230681, 33.949988115394113 ], [ -83.41788257705862, 33.949669736500731 ], [ -83.418010553270733, 33.949993770786506 ], [ -83.418306254371259, 33.949816866335617 ], [ -83.418264553529113, 33.950663720602059 ], [ -83.419269430183192, 33.95069829201659 ], [ -83.419256481766027, 33.950429315829865 ], [ -83.419443644797468, 33.950431813479362 ], [ -83.419628881351116, 33.950749127821311 ], [ -83.420850948862594, 33.950616926167022 ], [ -83.420863497608394, 33.950761647637357 ], [ -83.420974840075601, 33.950751126096741 ], [ -83.421934296917215, 33.950483841640263 ], [ -83.422460221755216, 33.949970891502012 ], [ -83.423329390750993, 33.949870140996836 ], [ -83.423528671788389, 33.949726895236189 ], [ -83.423826679754683, 33.949236510400063 ], [ -83.424393525173031, 33.948827218538717 ], [ -83.423817976945443, 33.948389962589843 ], [ -83.423558095576425, 33.948595915422857 ], [ -83.423201414224138, 33.948283911568765 ], [ -83.422895674397097, 33.948525164979145 ], [ -83.422746759712183, 33.948412275608334 ], [ -83.422303654032689, 33.948325996224362 ], [ -83.422144641758564, 33.948420547443078 ], [ -83.421201038972939, 33.947322881097222 ], [ -83.423055765854087, 33.947122619083203 ], [ -83.42337856076351, 33.947374285643548 ], [ -83.424416274131715, 33.947915421257122 ], [ -83.426809064999077, 33.948492395990556 ], [ -83.427331045606365, 33.948694755075323 ], [ -83.428027901904457, 33.949073325216197 ], [ -83.429855293403918, 33.950460629086884 ], [ -83.430442954083787, 33.950657150724211 ], [ -83.42981395063785, 33.951001504140976 ], [ -83.42987264461452, 33.951183563992316 ], [ -83.429786711679384, 33.951342203711363 ], [ -83.430002014454914, 33.951518895981934 ], [ -83.429338160962871, 33.951989256913436 ], [ -83.429410213097597, 33.952259718617398 ], [ -83.420752009168524, 33.952409390944375 ], [ -83.420464110114068, 33.952773799991903 ], [ -83.420449503199151, 33.952973854779131 ], [ -83.42085799142356, 33.953309397427702 ], [ -83.42020749682149, 33.953928251273425 ], [ -83.419926448377979, 33.95458347518337 ], [ -83.419435638393765, 33.954577061615339 ], [ -83.419043821161793, 33.954756001239453 ], [ -83.418901483040955, 33.955148991116857 ], [ -83.419074995542545, 33.955482562846065 ], [ -83.419093230901439, 33.956364916878023 ], [ -83.419207215266113, 33.956518100100993 ], [ -83.418962670928877, 33.957115173592697 ], [ -83.419181811124545, 33.957940955166542 ], [ -83.419068047054267, 33.958524093430846 ], [ -83.418659283997741, 33.958673770960083 ], [ -83.418671878483977, 33.958783523332833 ], [ -83.418311297137606, 33.958880345062113 ], [ -83.41856133181075, 33.959126498392216 ], [ -83.418090664228373, 33.959554892859238 ], [ -83.417898372105753, 33.956598852571091 ], [ -83.418361532390136, 33.956442004163343 ], [ -83.418218968468523, 33.955502522615369 ] ] ] } },
{ "type": "Feature", "properties": { "Park_Name": "Bishop Park", "Park_Type": "Community Park", "ACRES": 32.62078588 }, "geometry": { "type": "Polygon", "coordinates": [ [ [ -83.413369167475651, 33.968170244878884 ], [ -83.412603491421351, 33.966614433645525 ], [ -83.411907589866871, 33.965421736177476 ], [ -83.411326983046308, 33.965686935688687 ], [ -83.411318830213631, 33.965344393365804 ], [ -83.410570301496961, 33.962498673863202 ], [ -83.411399750906341, 33.962458121375846 ], [ -83.411640910462495, 33.963252200531315 ], [ -83.412132542760958, 33.963245652257314 ], [ -83.412350668861109, 33.963963878962822 ], [ -83.413454212474647, 33.963727433429376 ], [ -83.413638431453222, 33.963455566951183 ], [ -83.413981634995011, 33.963379868380258 ], [ -83.414922543494058, 33.966014645778586 ], [ -83.415030872540058, 33.966732416920387 ], [ -83.414995543184446, 33.967486684457469 ], [ -83.414899759766499, 33.967918096798435 ], [ -83.414441552449446, 33.967807655361675 ], [ -83.41352738526561, 33.968020507738728 ], [ -83.413369167475651, 33.968170244878884 ] ] ] } },
{ "type": "Feature", "properties": { "Park_Name": "Boulevard Woods", "Park_Type": "Neighborhood Park", "ACRES": 2.35367229 }, "geometry": { "type": "Polygon", "coordinates": [ [ [ -83.383863864396602, 33.965299493104567 ], [ -83.385202153147844, 33.964964589527035 ], [ -83.385360945124631, 33.965362277751794 ], [ -83.384725814880412, 33.965525655824017 ], [ -83.384785333107786, 33.965654849297259 ], [ -83.384062232384906, 33.965871225129682 ], [ -83.383863864396602, 33.965299493104567 ] ] ] } },
{ "type": "Feature", "properties": { "Park_Name": "Matthews Motors", "Park_Type": "Natural Resource Area", "ACRES": 24.61928145 }, "geometry": { "type": "Polygon", "coordinates": [ [ [ -83.428389765000048, 33.948858469872256 ], [ -83.429604867314026, 33.947675803189263 ], [ -83.429910762419368, 33.947876018024068 ], [ -83.430359738932438, 33.947960981631695 ], [ -83.432239846891619, 33.947566677802179 ], [ -83.432042910968718, 33.947207317397286 ], [ -83.431848566555132, 33.946132178361992 ], [ -83.432119718330313, 33.946089140238314 ], [ -83.432274741906213, 33.9471395315826 ], [ -83.433169570301061, 33.948903504191939 ], [ -83.433082921313442, 33.949179115760977 ], [ -83.433124881746537, 33.949273377526431 ], [ -83.431381664521595, 33.950329701056326 ], [ -83.431041594571241, 33.950470652349786 ], [ -83.430596925811969, 33.95053100713362 ], [ -83.43004039809432, 33.950350757085843 ], [ -83.42897665328276, 33.949557994952698 ], [ -83.428899499934332, 33.949251230943332 ], [ -83.428389765000048, 33.948858469872256 ] ] ] } },
{ "type": "Feature", "properties": { "Park_Name": "Cook's Trail", "Park_Type": "Natural Resource Area", "ACRES": 430.88215642 }, "geometry": { "type": "MultiPolygon", "coordinates": [ [ [ [ -83.37727800788393, 33.986282351762959 ], [ -83.377378727339192, 33.986606828700978 ], [ -83.377297940779059, 33.986620573592525 ], [ -83.377942593751527, 33.989252482870242 ], [ -83.376819094640837, 33.988928134466299 ], [ -83.376654601654849, 33.988318126849883 ], [ -83.376727029740621, 33.988035592473068 ], [ -83.376465119583912, 33.987508400365705 ], [ -83.376511748441686, 33.987114710933085 ], [ -83.37727800788393, 33.986282351762959 ] ] ], [ [ [ -83.369290780842945, 34.018195847008087 ], [ -83.369017284186739, 34.017412251530686 ], [ -83.370442132315944, 34.018581847380915 ], [ -83.370665777361296, 34.018914983167463 ], [ -83.370715528078335, 34.019277469492422 ], [ -83.370611873625151, 34.019591449303491 ], [ -83.370375997296918, 34.019871678583989 ], [ -83.369344380730666, 34.020369149449557 ], [ -83.369092372000495, 34.020609151035032 ], [ -83.368929964035047, 34.020969243900375 ], [ -83.368670301588509, 34.020975308354892 ], [ -83.369301548164216, 34.0188052995573 ], [ -83.369290780842945, 34.018195847008087 ] ] ], [ [ [ -83.378319578623163, 34.022638909390807 ], [ -83.380488118875377, 34.019823437483126 ], [ -83.380188241907192, 34.01888083801235 ], [ -83.378947113589206, 34.017368726196445 ], [ -83.378618971912601, 34.01708750535051 ], [ -83.378221326806383, 34.017042582128887 ], [ -83.377862405917838, 34.016753549853185 ], [ -83.377086463710071, 34.015836247782495 ], [ -83.376085871427819, 34.015153609005971 ], [ -83.376089054381509, 34.015572101881808 ], [ -83.375937537532522, 34.016217494260097 ], [ -83.375825178793121, 34.016344638427711 ], [ -83.374875399309218, 34.016971483423028 ], [ -83.374197137655031, 34.01720111072423 ], [ -83.374106238581561, 34.017412041632014 ], [ -83.373764946443799, 34.017705778401073 ], [ -83.373178971819812, 34.017769600911024 ], [ -83.373055410451272, 34.018145944338457 ], [ -83.372714581569696, 34.018463644352437 ], [ -83.371393288239773, 34.018729278542693 ], [ -83.373732043963955, 34.017166263481649 ], [ -83.375412401976263, 34.016408761236768 ], [ -83.375293121506516, 34.014109366781582 ], [ -83.37545230748303, 34.01275126384536 ], [ -83.37533136997564, 34.010344439621356 ], [ -83.375555320213437, 34.010140553647183 ], [ -83.376536063792912, 34.010354889313952 ], [ -83.3774613038361, 34.009717926393293 ], [ -83.377235762443732, 34.009453292924057 ], [ -83.377062087367548, 34.008946782261042 ], [ -83.377664702386099, 34.008942627941245 ], [ -83.377903308747989, 34.008683438026942 ], [ -83.37834399560117, 34.008465654615364 ], [ -83.378423852346899, 34.008179377573072 ], [ -83.378397524496521, 34.007898433593965 ], [ -83.379027011133346, 34.007593613638178 ], [ -83.379337727597587, 34.007354938392318 ], [ -83.37939533954156, 34.00685793336735 ], [ -83.3792043528031, 34.006641446684917 ], [ -83.378882066104623, 34.006567183781705 ], [ -83.378600864752244, 34.006741869268197 ], [ -83.378706941993514, 34.006217097786248 ], [ -83.378617767336237, 34.005955806983167 ], [ -83.378373050777569, 34.005833906611137 ], [ -83.37775493105967, 34.005721853178933 ], [ -83.375433112228222, 34.006947707004407 ], [ -83.375030095285766, 34.006713001833646 ], [ -83.374734109110932, 34.006382635399802 ], [ -83.374414100723726, 34.005602513214839 ], [ -83.373908581523779, 34.005059644003168 ], [ -83.373164499125181, 34.004763102196272 ], [ -83.372339619524737, 34.00476602497811 ], [ -83.371563198482434, 34.005016955037242 ], [ -83.370799874096505, 34.004053531385985 ], [ -83.370944037504188, 34.002837029819524 ], [ -83.371507479017538, 34.002789889590112 ], [ -83.371693230261641, 34.002611152111925 ], [ -83.372108586564906, 34.000298689977747 ], [ -83.370773137897785, 33.998769404089451 ], [ -83.369849751275524, 33.997265282486588 ], [ -83.371485760168014, 33.993353330141211 ], [ -83.371480198996707, 33.992898436820752 ], [ -83.372128615501737, 33.993289029520582 ], [ -83.371985087941255, 33.99295718211124 ], [ -83.371035269316465, 33.991737723344762 ], [ -83.371053740812187, 33.989501121651607 ], [ -83.372519898674781, 33.987870556275077 ], [ -83.373019938360315, 33.987475424998763 ], [ -83.373473281943276, 33.987486345605291 ], [ -83.374607675740052, 33.986930796920333 ], [ -83.375567498610735, 33.987045685086564 ], [ -83.37572621042861, 33.986956843915458 ], [ -83.375219341146945, 33.985823474503917 ], [ -83.375587945766299, 33.985842938287668 ], [ -83.376931886182973, 33.985618756727789 ], [ -83.377071474210354, 33.985696048036807 ], [ -83.37726565246254, 33.986145117044522 ], [ -83.37658859095913, 33.98682490023937 ], [ -83.376320074415233, 33.987214910597501 ], [ -83.376350929109037, 33.987609453814073 ], [ -83.376601143233373, 33.988070892864293 ], [ -83.376364475914372, 33.988590843924911 ], [ -83.376343424479614, 33.989464259846109 ], [ -83.375862386037241, 33.989913360637921 ], [ -83.37486308517974, 33.991607566083154 ], [ -83.373960965215261, 33.992616941653203 ], [ -83.37362810537654, 33.993125329812976 ], [ -83.374647251515327, 33.991988596141461 ], [ -83.376898192023546, 33.992409777527847 ], [ -83.376979911151551, 33.992559659524701 ], [ -83.376562946591307, 33.993135172102811 ], [ -83.376255989500166, 33.993160103796058 ], [ -83.375938831789796, 33.99341355196799 ], [ -83.375236607467997, 33.993415769562894 ], [ -83.375040832000977, 33.993636360573461 ], [ -83.374998115560928, 33.993891571910616 ], [ -83.374785395912625, 33.994199467981481 ], [ -83.374728856453061, 33.995073121292165 ], [ -83.375128646987918, 33.995551491935288 ], [ -83.374007957216335, 33.995720563905145 ], [ -83.374050581012426, 33.996239532849714 ], [ -83.374273196398221, 33.996640038367417 ], [ -83.374556118366527, 33.996813641129279 ], [ -83.374640881315202, 33.997435548712012 ], [ -83.374760451259945, 33.997741214329324 ], [ -83.375010311332389, 33.99799033941477 ], [ -83.374979420049897, 33.998531946120252 ], [ -83.375836795070455, 33.998169717082341 ], [ -83.376024078769191, 33.998489117012447 ], [ -83.376007452989199, 34.00052921698105 ], [ -83.37628700664925, 34.001883133509303 ], [ -83.376685157383577, 34.002253311227975 ], [ -83.37623445171819, 34.002530468292512 ], [ -83.37624216065322, 34.003218254130097 ], [ -83.376701508303626, 34.003720766161791 ], [ -83.376543755146287, 34.003974341707149 ], [ -83.377184487020628, 34.00437021036327 ], [ -83.376993904244827, 34.004466023168824 ], [ -83.37698161607905, 34.004612231511757 ], [ -83.376376200872301, 34.00489464178132 ], [ -83.376748379122887, 34.005199541450757 ], [ -83.37743793753441, 34.005142856311913 ], [ -83.37858733864536, 34.004404212682502 ], [ -83.379014669759343, 34.004375111086375 ], [ -83.380380029798857, 34.003684279338685 ], [ -83.381535981371528, 34.003503887261026 ], [ -83.381806236978008, 34.003296331507499 ], [ -83.382735129348134, 34.003859206994292 ], [ -83.383058683624938, 34.003901041303514 ], [ -83.383485053689, 34.004239321860332 ], [ -83.383646463708089, 34.004153539053355 ], [ -83.384341474811663, 34.004205051315886 ], [ -83.383883391119966, 34.004784314685821 ], [ -83.384199387829753, 34.004987740203639 ], [ -83.384397129280444, 34.005440230574479 ], [ -83.384269148221435, 34.00583837957808 ], [ -83.383748178917401, 34.006780719483999 ], [ -83.383088901874075, 34.007012189397294 ], [ -83.382239837337949, 34.007447020463729 ], [ -83.382561475310027, 34.007985237790713 ], [ -83.386564433974357, 34.005872105919885 ], [ -83.386631646951088, 34.006121313039131 ], [ -83.383235910350521, 34.007912178178131 ], [ -83.383828430504892, 34.008860042750115 ], [ -83.379726968097117, 34.010927440981675 ], [ -83.37979510726872, 34.011249810462189 ], [ -83.379715524728852, 34.011620589520938 ], [ -83.379255785640439, 34.01205612520004 ], [ -83.379274107103171, 34.012348524545303 ], [ -83.378924315994794, 34.012537631302891 ], [ -83.378796148826069, 34.01276242358032 ], [ -83.37890090644953, 34.013082032942549 ], [ -83.378719808042547, 34.01334957653674 ], [ -83.378848499650275, 34.013779123728035 ], [ -83.378544088985947, 34.014202625215241 ], [ -83.378606703187913, 34.014504733560813 ], [ -83.378464021969904, 34.014735617278184 ], [ -83.378500675458142, 34.014922334644318 ], [ -83.379224364343273, 34.015030626645689 ], [ -83.379445971046437, 34.015215641804431 ], [ -83.379185716712854, 34.015549236238144 ], [ -83.379217560098965, 34.015642434320213 ], [ -83.379717086817195, 34.015735904848356 ], [ -83.380183339908143, 34.016109625374767 ], [ -83.380752286338634, 34.016351902602452 ], [ -83.380712396873633, 34.016637417414962 ], [ -83.380339369663787, 34.016689196695395 ], [ -83.380262687466796, 34.016770240502019 ], [ -83.380325542320307, 34.016900322157724 ], [ -83.380564562654101, 34.017038631739133 ], [ -83.381526462324487, 34.016644892746328 ], [ -83.381944014103453, 34.017708294668182 ], [ -83.38164406438375, 34.01782973011084 ], [ -83.381756229805745, 34.017980951540622 ], [ -83.381721502203575, 34.018118241727002 ], [ -83.381433263240211, 34.018064765995938 ], [ -83.381377236563097, 34.018124590079843 ], [ -83.381376533949449, 34.018455312880093 ], [ -83.381700377802872, 34.018681565301563 ], [ -83.38170621969914, 34.018871464140211 ], [ -83.384034230920278, 34.017966586978972 ], [ -83.384148286062256, 34.020620492733414 ], [ -83.383343420198784, 34.02061668769602 ], [ -83.383331130782864, 34.020970034973551 ], [ -83.382900151504415, 34.021163526507856 ], [ -83.382215767826793, 34.021131710430062 ], [ -83.381783990812835, 34.021328930008274 ], [ -83.381607450017512, 34.021648856235785 ], [ -83.378661327993271, 34.0231210725482 ], [ -83.378319578623163, 34.022638909390807 ] ] ] ] } },
{ "type": "Feature", "properties": { "Park_Name": "Lyndon House Arts Center", "Park_Type": "Special Use Facility / Park", "ACRES": 3.4710731 }, "geometry": { "type": "Polygon", "coordinates": [ [ [ -83.375911177383642, 33.963823873236763 ], [ -83.376565976769001, 33.963574189601857 ], [ -83.377229676393583, 33.965358515569427 ], [ -83.376484598255175, 33.965523383441734 ], [ -83.376185659773824, 33.964642603403945 ], [ -83.376102484492506, 33.964658767582243 ], [ -83.376024424495839, 33.964431646854159 ], [ -83.376104757629804, 33.964413078852047 ], [ -83.375911177383642, 33.963823873236763 ] ] ] } },
{ "type": "Feature", "properties": { "Park_Name": "East Athens Educational Dance Center", "Park_Type": "Special Use Facility / Park", "ACRES": 10.80859093 }, "geometry": { "type": "Polygon", "coordinates": [ [ [ -83.356757477978235, 33.959040181671867 ], [ -83.356374763977044, 33.959137086856636 ], [ -83.355474705029636, 33.959919055048715 ], [ -83.354899488496812, 33.959453396360928 ], [ -83.354409090775789, 33.959925493523677 ], [ -83.355872463432092, 33.961059510628935 ], [ -83.355464620384012, 33.961419292459226 ], [ -83.353802024330079, 33.959754238506264 ], [ -83.354671572262404, 33.959238148697239 ], [ -83.353810249265848, 33.958632946411981 ], [ -83.355017166076976, 33.957618879333602 ], [ -83.355234759716964, 33.957788715402053 ], [ -83.355167715210428, 33.957847823638801 ], [ -83.356757477978235, 33.959040181671867 ] ] ] } },
{ "type": "Feature", "properties": { "Park_Name": "Heard Park", "Park_Type": "Community Center and Park", "ACRES": 7.09220614 }, "geometry": { "type": "Polygon", "coordinates": [ [ [ -83.356757477978235, 33.959040181671867 ], [ -83.357382701316283, 33.959502093487714 ], [ -83.357373153645199, 33.959643115632495 ], [ -83.355872463432092, 33.961059510628935 ], [ -83.354409090775789, 33.959925493523677 ], [ -83.354899488496812, 33.959453396360928 ], [ -83.355474705029636, 33.959919055048715 ], [ -83.356374763977044, 33.959137086856636 ], [ -83.356757477978235, 33.959040181671867 ] ] ] } },
{ "type": "Feature", "properties": { "Park_Name": "Morton Theatre", "Park_Type": "Special Use Facility / Park", "ACRES": 0.19491127 }, "geometry": { "type": "Polygon", "coordinates": [ [ [ -83.378469351651859, 33.958324946033308 ], [ -83.378639557731745, 33.958285144007959 ], [ -83.378741108925112, 33.958609571392863 ], [ -83.378509432976983, 33.958660649298892 ], [ -83.378420020364203, 33.958405414855186 ], [ -83.378491237117345, 33.958390599692819 ], [ -83.378469351651859, 33.958324946033308 ] ] ] } },
{ "type": "Feature", "properties": { "Park_Name": "Firefly Trail", "Park_Type": "Multi-use Trail", "ACRES": 13.69313234 }, "geometry": { "type": "MultiPolygon", "coordinates": [ [ [ [ -83.356955170085541, 33.948231666690262 ], [ -83.357641628317538, 33.948205028984596 ], [ -83.35834245737442, 33.948483685233114 ], [ -83.359918293257095, 33.949318109268063 ], [ -83.360433044418997, 33.949960521343911 ], [ -83.361992917899826, 33.951600383155323 ], [ -83.36184040092337, 33.951766268557698 ], [ -83.359526287641501, 33.949383529779276 ], [ -83.357760011005084, 33.948463782996079 ], [ -83.356955170085541, 33.948231666690262 ] ] ], [ [ [ -83.363576978931903, 33.953850187419818 ], [ -83.361887667452592, 33.951958418920043 ], [ -83.362097942301261, 33.951733559005355 ], [ -83.363789341857498, 33.953631700861472 ], [ -83.363576978931903, 33.953850187419818 ] ] ], [ [ [ -83.363898924092055, 33.954135501769372 ], [ -83.364012869160078, 33.954009929619787 ], [ -83.363808363502727, 33.953780927949232 ], [ -83.363847119219287, 33.95373928181592 ], [ -83.364287860691917, 33.954232819613637 ], [ -83.36420492128731, 33.954322211202104 ], [ -83.363898924092055, 33.954135501769372 ] ] ], [ [ [ -83.363898924092055, 33.954135501769372 ], [ -83.363615363815427, 33.954457016254821 ], [ -83.363347995194999, 33.954276174403226 ], [ -83.36369296508586, 33.953904925265135 ], [ -83.363898924092055, 33.954135501769372 ] ] ], [ [ [ -83.368930917304652, 33.958145350486461 ], [ -83.36879205418272, 33.957950079272727 ], [ -83.368651217068305, 33.957937670016989 ], [ -83.368120793213066, 33.95744948585947 ], [ -83.365916380992431, 33.95613834909129 ], [ -83.365081561843624, 33.955469494211471 ], [ -83.365019435664024, 33.955514653499584 ], [ -83.364158463482397, 33.954571270453236 ], [ -83.364584597843859, 33.954125278315978 ], [ -83.36551644870157, 33.955153375611474 ], [ -83.365454322971985, 33.95519853602957 ], [ -83.365902156643159, 33.955583437823535 ], [ -83.368070502668061, 33.956868649917467 ], [ -83.368785646480674, 33.957399357336939 ], [ -83.369451439983763, 33.958154393104259 ], [ -83.369382478444535, 33.958146872515464 ], [ -83.369490670837948, 33.958486059796698 ], [ -83.368999419915951, 33.958505076217023 ], [ -83.368930917304652, 33.958145350486461 ] ] ] ] } },
{ "type": "Feature", "properties": { "Park_Name": "Memorial Park", "Park_Type": "Community Park", "ACRES": 71.37918891 }, "geometry": { "type": "MultiPolygon", "coordinates": [ [ [ [ -83.387013698640402, 33.928292489920892 ], [ -83.387924386161174, 33.928179425318064 ], [ -83.387939884077014, 33.928240531015589 ], [ -83.386953075970425, 33.92837171736894 ], [ -83.387013698640402, 33.928292489920892 ] ] ], [ [ [ -83.383187952826503, 33.928633921680344 ], [ -83.382743938901655, 33.926256917880934 ], [ -83.382583298443436, 33.924942195933305 ], [ -83.386134054369123, 33.925403380184804 ], [ -83.389114749662156, 33.925023792647984 ], [ -83.391109365675732, 33.924922820581848 ], [ -83.38993781437793, 33.925371315753551 ], [ -83.389031396014772, 33.925997792182002 ], [ -83.38864712840217, 33.926601290167525 ], [ -83.388633604348669, 33.926855979014071 ], [ -83.388730688278557, 33.927175315388489 ], [ -83.388690385560366, 33.927347557684129 ], [ -83.388115091884941, 33.927774463865411 ], [ -83.387802585739024, 33.928116493236907 ], [ -83.38711239285999, 33.928155957930947 ], [ -83.386140813120804, 33.928392101096527 ], [ -83.385226261804306, 33.928487540434155 ], [ -83.384944992747677, 33.928605873518869 ], [ -83.38364593857392, 33.928636834841377 ], [ -83.383670160953145, 33.928562131731816 ], [ -83.383541513486634, 33.928537954977223 ], [ -83.383507089263077, 33.928635951827012 ], [ -83.383187952826503, 33.928633921680344 ] ] ], [ [ [ -83.391660960972928, 33.931239933891881 ], [ -83.390063335810012, 33.93061047768618 ], [ -83.390120582958332, 33.930528945487147 ], [ -83.390448921653615, 33.930491278601195 ], [ -83.390727496937899, 33.930019017153043 ], [ -83.390480591365261, 33.929816714304046 ], [ -83.389811856201277, 33.929775370089317 ], [ -83.389751717601456, 33.929391220901266 ], [ -83.38883419451399, 33.929471800836545 ], [ -83.389584177021007, 33.928334982034023 ], [ -83.389529158117782, 33.928033390268169 ], [ -83.388137895128708, 33.928213917324854 ], [ -83.388084141647113, 33.927991230192767 ], [ -83.388813080664576, 33.927388289925617 ], [ -83.388862829485731, 33.927177634157182 ], [ -83.388771626458023, 33.926642857901072 ], [ -83.389100952450463, 33.926099553298954 ], [ -83.389933479488548, 33.925503938243551 ], [ -83.390901337027344, 33.925120773081943 ], [ -83.389712719670925, 33.926243209734757 ], [ -83.389566182053002, 33.926581151700475 ], [ -83.389590869145806, 33.926933776548431 ], [ -83.389799372981514, 33.9272687646138 ], [ -83.391317662686973, 33.928642537714303 ], [ -83.392682168197581, 33.930742084057812 ], [ -83.392280481897103, 33.930877319423594 ], [ -83.392136863966741, 33.930765586007425 ], [ -83.391722115505914, 33.930781471895422 ], [ -83.391739421932172, 33.931127371549863 ], [ -83.391660960972928, 33.931239933891881 ] ] ] ] } },
{ "type": "Feature", "properties": { "Park_Name": "Holland Youth Sports Complex", "Park_Type": "Special Use Facility / Park", "ACRES": 61.52607335 }, "geometry": { "type": "Polygon", "coordinates": [ [ [ -83.403061712001389, 34.001112349806199 ], [ -83.403328812902402, 33.997519083525169 ], [ -83.405475000770636, 33.997802736083784 ], [ -83.4061572535349, 33.998883314649142 ], [ -83.406389235919136, 33.99879073783314 ], [ -83.406563530800156, 33.999088549445403 ], [ -83.406343613328872, 33.999178563996239 ], [ -83.408217219616191, 34.00214607613438 ], [ -83.401647377087031, 34.004762760620352 ], [ -83.401148986641303, 34.003064990804795 ], [ -83.403379900455874, 34.002641198586488 ], [ -83.403140380290466, 34.001771464761326 ], [ -83.403061712001389, 34.001112349806199 ] ] ] } },
{ "type": "Feature", "properties": { "Park_Name": "Tillman Tract", "Park_Type": "Natural Resource Area", "ACRES": 8.47157925 }, "geometry": { "type": "Polygon", "coordinates": [ [ [ -83.358592106923993, 33.915113701903586 ], [ -83.358510217903643, 33.914853031411226 ], [ -83.358290397189577, 33.914643531111281 ], [ -83.357967001239871, 33.913712886421919 ], [ -83.358387678573607, 33.913371532461134 ], [ -83.358940079932026, 33.913706272676606 ], [ -83.359725044756644, 33.914423968880236 ], [ -83.360030978847306, 33.915195216219786 ], [ -83.359382714202169, 33.916093933479083 ], [ -83.358203356745847, 33.915982649494914 ], [ -83.35855904071596, 33.91538309933425 ], [ -83.358592106923993, 33.915113701903586 ] ] ] } },
{ "type": "Feature", "properties": { "Park_Name": "Satterfield Park", "Park_Type": "Special Use Facility / Park", "ACRES": 16.10264582 }, "geometry": { "type": "Polygon", "coordinates": [ [ [ -83.319726424490042, 33.943903082061084 ], [ -83.31960919568256, 33.9436017062866 ], [ -83.31902117456579, 33.943697090190554 ], [ -83.319060084465036, 33.941474700190184 ], [ -83.32011491921827, 33.941088326210192 ], [ -83.320943030664111, 33.941962459724245 ], [ -83.321742538555654, 33.941441695978398 ], [ -83.322609855581675, 33.942334162592495 ], [ -83.321315458394693, 33.942983671171113 ], [ -83.321670413541014, 33.943558620159756 ], [ -83.319726424490042, 33.943903082061084 ] ] ] } },
{ "type": "Feature", "properties": { "Park_Name": "Southeast Clarke Park", "Park_Type": "Community Park", "ACRES": 137.51904137 }, "geometry": { "type": "Polygon", "coordinates": [ [ [ -83.309871475616816, 33.929936055396325 ], [ -83.307063953723429, 33.9289874753525 ], [ -83.306608092347631, 33.9302765555314 ], [ -83.302285909527171, 33.929221288076278 ], [ -83.30344377394978, 33.926224800095483 ], [ -83.301710118459781, 33.92575627618411 ], [ -83.302544815403564, 33.923609945263252 ], [ -83.304325857380164, 33.923941847819599 ], [ -83.304787074767205, 33.922962174421613 ], [ -83.310978474049421, 33.924139067976178 ], [ -83.311369474618459, 33.928156019275043 ], [ -83.311610312806351, 33.929879765598272 ], [ -83.311477257273907, 33.930840642569002 ], [ -83.309720182088043, 33.930247037713663 ], [ -83.309871475616816, 33.929936055396325 ] ] ] } },
{ "type": "Feature", "properties": { "Park_Name": "Rock and Shoals Natural Area", "Park_Type": "Natural Resource Area", "ACRES": 131.72136436 }, "geometry": { "type": "Polygon", "coordinates": [ [ [ -83.332919146647313, 33.890419206396466 ], [ -83.33186398149509, 33.890044009668436 ], [ -83.332089886149546, 33.889845920260179 ], [ -83.331406799329955, 33.889493575161652 ], [ -83.332078052945334, 33.888558609623544 ], [ -83.33199683897061, 33.88842272639539 ], [ -83.331260477565763, 33.888170172156016 ], [ -83.331035954573252, 33.886580149636615 ], [ -83.331962382476192, 33.88603037201095 ], [ -83.331715740297881, 33.884602412878088 ], [ -83.329426019122451, 33.885170252967185 ], [ -83.329341855674144, 33.885018120008198 ], [ -83.328915107911726, 33.884885080193236 ], [ -83.330534920995888, 33.88311505796586 ], [ -83.33373778863718, 33.883050799332956 ], [ -83.33827955658947, 33.88231893329727 ], [ -83.3383629400264, 33.882980137827474 ], [ -83.338259019370298, 33.883618273314305 ], [ -83.338441204821891, 33.884534722884929 ], [ -83.338766001122323, 33.885264291491197 ], [ -83.338693267038536, 33.885757800571859 ], [ -83.336594016577052, 33.886636721575066 ], [ -83.336606599064638, 33.886694422316538 ], [ -83.336698960999982, 33.886656874304784 ], [ -83.337564257442182, 33.888481521533386 ], [ -83.337213985524556, 33.889012347729086 ], [ -83.337194050476114, 33.889291419719406 ], [ -83.33707237050038, 33.88938216620884 ], [ -83.336147376187355, 33.888614164789644 ], [ -83.335230277264515, 33.889363840515557 ], [ -83.336266951126461, 33.890297872267091 ], [ -83.336583722832657, 33.890236498133184 ], [ -83.335622233658398, 33.89199213644045 ], [ -83.335111045993898, 33.892430721411209 ], [ -83.333167312828806, 33.890957559107939 ], [ -83.332919146647313, 33.890419206396466 ] ] ] } },
{ "type": "Feature", "properties": { "Park_Name": "Sandy Creek Park", "Park_Type": "Natural Resource Area", "ACRES": 731.62987204000001 }, "geometry": { "type": "Polygon", "coordinates": [ [ [ -83.384862998922401, 34.037805000379969 ], [ -83.384053998935968, 34.036583999389023 ], [ -83.383046999527849, 34.035569999679495 ], [ -83.382970999445263, 34.034379000050457 ], [ -83.379383999672626, 34.035141999552934 ], [ -83.379047999344365, 34.034524000156921 ], [ -83.378040998228357, 34.031839000511518 ], [ -83.377705999477598, 34.032044999869086 ], [ -83.374878999359439, 34.032946000205506 ], [ -83.371169549464042, 34.034813922775726 ], [ -83.369287674553391, 34.031220341358818 ], [ -83.37075960409328, 34.028047550315705 ], [ -83.372357135409715, 34.030107665935134 ], [ -83.373328075014015, 34.029420924965954 ], [ -83.373747455118959, 34.029748256375449 ], [ -83.373318425995848, 34.025808332292264 ], [ -83.381624004639008, 34.021660724012058 ], [ -83.382991991607, 34.023596763077357 ], [ -83.383141251921955, 34.023633787549905 ], [ -83.383790281555193, 34.023689244850843 ], [ -83.38522085237669, 34.023314864975113 ], [ -83.385358474375437, 34.023190353102109 ], [ -83.386408679679988, 34.023394548743774 ], [ -83.386959495692921, 34.023296923164494 ], [ -83.387108607637217, 34.023083625396545 ], [ -83.387561452493316, 34.023269144972637 ], [ -83.387949197003152, 34.023064895972148 ], [ -83.387948812440385, 34.022981692415115 ], [ -83.388327969397608, 34.022918930617337 ], [ -83.388388354433374, 34.022674463479341 ], [ -83.388664920862709, 34.022686479864248 ], [ -83.388208327839592, 34.024534296109657 ], [ -83.387674434168886, 34.02768939611947 ], [ -83.387648117891004, 34.028255628219036 ], [ -83.387733237623252, 34.028730782627989 ], [ -83.384846998563887, 34.029734000552139 ], [ -83.389206933848044, 34.031986212955076 ], [ -83.389392461591967, 34.033993493477894 ], [ -83.387813524208909, 34.034218212451968 ], [ -83.38665815217054, 34.034788424706022 ], [ -83.385557104092598, 34.034312735132872 ], [ -83.385130290470684, 34.034656207128855 ], [ -83.384105558145791, 34.034699335074144 ], [ -83.383918657100565, 34.035104650940802 ], [ -83.384776389481502, 34.035537034941775 ], [ -83.384656533092524, 34.036105704467538 ], [ -83.385437524754451, 34.036220854697653 ], [ -83.385332114913055, 34.036445501674137 ], [ -83.385258992641411, 34.036990604667032 ], [ -83.384990676423058, 34.037404016488523 ], [ -83.385097592158544, 34.037581463513419 ], [ -83.386442373089196, 34.03715769499221 ], [ -83.386945861289618, 34.037085192001264 ], [ -83.386804810868171, 34.037190772463788 ], [ -83.384862998922401, 34.037805000379969 ] ] ] } },
{ "type": "Feature", "properties": { "Park_Name": "Lay Park", "Park_Type": "Community Center and Park", "ACRES": 8.96645854 }, "geometry": { "type": "Polygon", "coordinates": [ [ [ -83.375911177383642, 33.963823873236763 ], [ -83.376104757629804, 33.964413078852047 ], [ -83.376024424495839, 33.964431646854159 ], [ -83.376102484492506, 33.964658767582243 ], [ -83.376185659773824, 33.964642603403945 ], [ -83.376484598255175, 33.965523383441734 ], [ -83.376315541391989, 33.965561740838879 ], [ -83.376356065228777, 33.965705450081664 ], [ -83.375810769899331, 33.965792551132843 ], [ -83.375105154275914, 33.965743963886077 ], [ -83.374609757207637, 33.965546569735345 ], [ -83.374225056630834, 33.96522006951011 ], [ -83.374187505268409, 33.965172313722448 ], [ -83.375615479045663, 33.963036031695253 ], [ -83.375880129795746, 33.963126851388232 ], [ -83.376046383500224, 33.963650931618041 ], [ -83.3757869085767, 33.963748909613436 ], [ -83.375819867768897, 33.963858191762178 ], [ -83.375911177383642, 33.963823873236763 ] ] ] } },
{ "type": "Feature", "properties": { "Park_Name": "Reese and Pope Park", "Park_Type": "Neighborhood Park", "ACRES": 0.82848113 }, "geometry": { "type": "Polygon", "coordinates": [ [ [ -83.383892964527419, 33.95656457324084 ], [ -83.384334044491382, 33.9564527828257 ], [ -83.384518848077377, 33.956986560644445 ], [ -83.383906217602274, 33.957133865647499 ], [ -83.383742362222264, 33.956790578640131 ], [ -83.383959856566861, 33.956739611598437 ], [ -83.383892964527419, 33.95656457324084 ] ] ] } },
{ "type": "Feature", "properties": { "Park_Name": "Virginia Walker Park", "Park_Type": "Community Park", "ACRES": 125.90968076 }, "geometry": { "type": "Polygon", "coordinates": [ [ [ -83.355436530144758, 33.971405249030852 ], [ -83.353662167585114, 33.9644471104369 ], [ -83.353927430514759, 33.964007029900756 ], [ -83.354804059659656, 33.963760103847306 ], [ -83.355926420615205, 33.963318349659787 ], [ -83.356063347315825, 33.96361263971334 ], [ -83.356569985878494, 33.963677769761119 ], [ -83.356675234025388, 33.963579647918387 ], [ -83.356487361691663, 33.963222523870527 ], [ -83.357129034040568, 33.963853078991953 ], [ -83.357520819600438, 33.963583982051105 ], [ -83.357941575682446, 33.963644209652145 ], [ -83.359033403469297, 33.963263050501673 ], [ -83.35908013436682, 33.963497052720761 ], [ -83.35942781364848, 33.963409883859946 ], [ -83.359926298010777, 33.963250769139428 ], [ -83.360250527901457, 33.963020160361474 ], [ -83.360586424865289, 33.96253499198292 ], [ -83.36064193288702, 33.962587156545581 ], [ -83.360863127786502, 33.962339053867282 ], [ -83.36119418158161, 33.962237563792002 ], [ -83.361615717513843, 33.961924020310789 ], [ -83.361772506401138, 33.961895806186106 ], [ -83.362136946679612, 33.961502110883877 ], [ -83.362169634628515, 33.961284376062032 ], [ -83.362558929324265, 33.960842392959826 ], [ -83.363318652693536, 33.961213285610604 ], [ -83.362065213953912, 33.962332380885904 ], [ -83.361306189288086, 33.963209599297372 ], [ -83.3619405922841, 33.963879247245124 ], [ -83.362268494206873, 33.96408859400443 ], [ -83.361955994430261, 33.964558585571915 ], [ -83.362836499099444, 33.96491480045141 ], [ -83.362327216038665, 33.96557458025179 ], [ -83.362660645670644, 33.966168496833255 ], [ -83.361120373755099, 33.966578988939212 ], [ -83.361419922985689, 33.967179806861047 ], [ -83.360176515577919, 33.967512703080928 ], [ -83.360194046126821, 33.967580141665302 ], [ -83.360598733104055, 33.967474188904063 ], [ -83.360951829886076, 33.968234058675627 ], [ -83.361125271707593, 33.967871461046549 ], [ -83.360937451478051, 33.967446893320393 ], [ -83.36138293915397, 33.967362970423359 ], [ -83.361592525321683, 33.96770051121559 ], [ -83.361284315114389, 33.967804652621822 ], [ -83.361488929869552, 33.968106354296268 ], [ -83.360549517118486, 33.968565588464919 ], [ -83.356636111343846, 33.970862275724564 ], [ -83.355436530144758, 33.971405249030852 ] ] ] } },
{ "type": "Feature", "properties": { "Park_Name": "Sandy Creek Nature Center", "Park_Type": "Natural Resource Area", "ACRES": 218.67258477 }, "geometry": { "type": "MultiPolygon", "coordinates": [ [ [ [ -83.386078265312079, 33.981982441614967 ], [ -83.385346562014846, 33.981265335779661 ], [ -83.385314572434083, 33.980882355242905 ], [ -83.38508185131677, 33.980708903866898 ], [ -83.384762812971815, 33.980656944945522 ], [ -83.384499576931859, 33.980710755023445 ], [ -83.384062006717357, 33.981196165209937 ], [ -83.383769282096935, 33.981371827486782 ], [ -83.383492453227873, 33.981364514702094 ], [ -83.383033344964559, 33.981100855679813 ], [ -83.382779727212977, 33.980882858070913 ], [ -83.382712154808985, 33.980510752442029 ], [ -83.382848237114814, 33.980121422802718 ], [ -83.383163658570723, 33.979794269247684 ], [ -83.383209531904313, 33.979439512393036 ], [ -83.382229690433533, 33.978922871965409 ], [ -83.382151098213342, 33.978799230505352 ], [ -83.383642805494446, 33.978292646777128 ], [ -83.383874633639138, 33.978105440045567 ], [ -83.383940852643192, 33.977931031613934 ], [ -83.384250427624266, 33.97779416593707 ], [ -83.384474835918951, 33.97745508080672 ], [ -83.384873998592397, 33.977243802887727 ], [ -83.386184774065569, 33.978229734540889 ], [ -83.387276622008969, 33.979302792327701 ], [ -83.388122667019587, 33.980702788904182 ], [ -83.387629518168936, 33.981008961738702 ], [ -83.386896588957484, 33.981679270333458 ], [ -83.386471062906296, 33.981890729087048 ], [ -83.386078265312079, 33.981982441614967 ] ] ], [ [ [ -83.381623997737123, 33.990173979511958 ], [ -83.383313187988591, 33.98304496557224 ], [ -83.383318315419416, 33.982457271069833 ], [ -83.383197686458786, 33.982096974232881 ], [ -83.383008076432745, 33.981913269185895 ], [ -83.382225007789557, 33.981756091557131 ], [ -83.380922797751509, 33.981102785574976 ], [ -83.380845789646955, 33.981208506755223 ], [ -83.382101994249325, 33.981842639974737 ], [ -83.382948743991022, 33.982030507594253 ], [ -83.383094944516671, 33.98221759225278 ], [ -83.38319377970808, 33.982644967710037 ], [ -83.383162989635665, 33.983041783208748 ], [ -83.381495734804687, 33.99007659431927 ], [ -83.378288518268221, 33.989274592711823 ], [ -83.377621151530562, 33.986565623872785 ], [ -83.37754036505369, 33.986579368023165 ], [ -83.37742852863515, 33.986122803520452 ], [ -83.37802675010812, 33.985791322343516 ], [ -83.378376959260905, 33.985466602716485 ], [ -83.379348697204264, 33.985021511453994 ], [ -83.379182107955145, 33.983876456457622 ], [ -83.379428629463831, 33.983547332885173 ], [ -83.37949145727859, 33.982911999095812 ], [ -83.379817297013147, 33.982559391622345 ], [ -83.379893636768387, 33.982172101515722 ], [ -83.37968410973707, 33.981558769090348 ], [ -83.379677896829435, 33.98129873546997 ], [ -83.379968092779947, 33.980875659139741 ], [ -83.380707211362889, 33.980254896593785 ], [ -83.381217270741928, 33.979310046220071 ], [ -83.38181961646977, 33.978939246418371 ], [ -83.382317806007961, 33.979123162561905 ], [ -83.382995226694518, 33.979578710499368 ], [ -83.382471330316861, 33.980444474523459 ], [ -83.382492536148746, 33.980710923816254 ], [ -83.382777537440703, 33.981121403639172 ], [ -83.38313680087029, 33.981434359840833 ], [ -83.383710701700309, 33.981565605435691 ], [ -83.384467449245165, 33.98112108280047 ], [ -83.384753909949112, 33.980851066149214 ], [ -83.385066162224078, 33.980869675361973 ], [ -83.385245366835747, 33.981458870933515 ], [ -83.386055704402139, 33.98214083359548 ], [ -83.386024818931574, 33.98241247586563 ], [ -83.385731802095734, 33.982490365039702 ], [ -83.38554885451569, 33.982742299658732 ], [ -83.385570420172968, 33.983107516507999 ], [ -83.385700576029265, 33.983181331090584 ], [ -83.386814365954095, 33.983324671093314 ], [ -83.387107598353936, 33.98396416237626 ], [ -83.387542814750532, 33.984054526752729 ], [ -83.387172976904893, 33.984329628559138 ], [ -83.387202488085876, 33.984508164872196 ], [ -83.387393582348523, 33.984733286625435 ], [ -83.387379113832182, 33.984952215154856 ], [ -83.387195956386719, 33.985223635097675 ], [ -83.386878513584819, 33.985197275244573 ], [ -83.386780249188476, 33.985040892491284 ], [ -83.386470655007358, 33.984834501854969 ], [ -83.38615923706719, 33.984827662665722 ], [ -83.38560826693238, 33.985125930957594 ], [ -83.38539735673379, 33.985686129474239 ], [ -83.3853883049225, 33.985997592704237 ], [ -83.385473296444601, 33.986241499934479 ], [ -83.386841246964664, 33.987890465301206 ], [ -83.387208635177004, 33.988593685271105 ], [ -83.387147426859229, 33.988833367865631 ], [ -83.386741201406579, 33.989268421389824 ], [ -83.386164274740182, 33.989678482312144 ], [ -83.386148412537082, 33.990053161462527 ], [ -83.386363098673513, 33.990419574860915 ], [ -83.385998342604864, 33.990792041528607 ], [ -83.385997023252784, 33.990936305770695 ], [ -83.381623997737123, 33.990173979511958 ] ] ] ] } },
{ "type": "Feature", "properties": { "Park_Name": "Rocksprings Park", "Park_Type": "Community Center and Park", "ACRES": 4.69935369 }, "geometry": { "type": "Polygon", "coordinates": [ [ [ -83.395464852980908, 33.948151977843921 ], [ -83.396880983202976, 33.947847946156003 ], [ -83.397228335565458, 33.949079222293413 ], [ -83.395903068999786, 33.949404822234435 ], [ -83.395464852980908, 33.948151977843921 ] ] ] } },
{ "type": "Feature", "properties": { "Park_Name": "Tallassee Forest", "Park_Type": "Natural Resource Area", "ACRES": 310.10290354 }, "geometry": { "type": "Polygon", "coordinates": [ [ [ -83.471012464156018, 33.985987126138518 ], [ -83.477072870025538, 33.982714216385887 ], [ -83.476674433721115, 33.98120394963852 ], [ -83.482213783385959, 33.980808363535722 ], [ -83.482698747903527, 33.980315096343887 ], [ -83.48271307999822, 33.980049869377829 ], [ -83.482866242963581, 33.979912409755379 ], [ -83.482795415228495, 33.979819383941859 ], [ -83.482826042875416, 33.979711138546911 ], [ -83.482996477000654, 33.979815621752529 ], [ -83.483247340831468, 33.97953231702602 ], [ -83.483547967294513, 33.979059667074495 ], [ -83.483421158673423, 33.978976750612638 ], [ -83.48363238498861, 33.978601414080678 ], [ -83.484572036047084, 33.977914443274791 ], [ -83.48450952835141, 33.977780753665797 ], [ -83.48462698356478, 33.977512963990485 ], [ -83.484406199152374, 33.977246079859754 ], [ -83.484613979995359, 33.976802802095349 ], [ -83.484917319363319, 33.976696906737047 ], [ -83.484603735000093, 33.975599223717765 ], [ -83.484350336688905, 33.975125654201257 ], [ -83.484387361638071, 33.974877742523908 ], [ -83.484274158868914, 33.974743403812937 ], [ -83.484342769539353, 33.97459913500748 ], [ -83.484270087342935, 33.974549335072695 ], [ -83.48446671064373, 33.974342582775392 ], [ -83.4844643309536, 33.974105051809588 ], [ -83.484399733545786, 33.973852630374999 ], [ -83.484245677572503, 33.973733356275773 ], [ -83.483782699512432, 33.971910448912737 ], [ -83.483850407756535, 33.971623552785267 ], [ -83.483794056643902, 33.971482405469892 ], [ -83.483900756018713, 33.971203800385766 ], [ -83.483835624662532, 33.971110299083854 ], [ -83.483606463889927, 33.971382443395726 ], [ -83.483468603088156, 33.971268754364516 ], [ -83.48363512226878, 33.971179709687988 ], [ -83.483567356331847, 33.97110365042996 ], [ -83.483450146044206, 33.971189057626432 ], [ -83.48329245624015, 33.97113520488714 ], [ -83.484950879950986, 33.969986320866383 ], [ -83.485263837440286, 33.969855183214634 ], [ -83.486176734410208, 33.969839572378284 ], [ -83.486595175506835, 33.969687031681474 ], [ -83.487335016514407, 33.969137910206882 ], [ -83.487836001887786, 33.969054617589499 ], [ -83.488504838379598, 33.969081372474385 ], [ -83.489152523412827, 33.969452641070781 ], [ -83.490876955311862, 33.970675414558841 ], [ -83.49155538313056, 33.971439060569899 ], [ -83.491996946030298, 33.972749730761457 ], [ -83.49270074594105, 33.973948809076681 ], [ -83.493077353446651, 33.974779526799743 ], [ -83.493500911894728, 33.97719931105955 ], [ -83.49380524614908, 33.977798112321921 ], [ -83.494360008092613, 33.979408094289127 ], [ -83.493175697315522, 33.980751712825743 ], [ -83.487444109539766, 33.980994885238523 ], [ -83.48160583537981, 33.981470321336076 ], [ -83.481253768027813, 33.981980750643721 ], [ -83.47919184137821, 33.982408085003456 ], [ -83.479055284321916, 33.983001974558157 ], [ -83.476979138535782, 33.983842305681392 ], [ -83.477209479061926, 33.984236853368266 ], [ -83.475729671418833, 33.984889463257609 ], [ -83.475303332178768, 33.985226934195886 ], [ -83.473473267909441, 33.987322274782109 ], [ -83.473896619813701, 33.987576165500869 ], [ -83.472955384219802, 33.988647789657442 ], [ -83.470586264776927, 33.98722101425426 ], [ -83.47105759925995, 33.986609790702815 ], [ -83.471012464156018, 33.985987126138518 ] ] ] } },
{ "type": "Feature", "properties": { "Park_Name": "North Oconee River Park", "Park_Type": "Natural Resource Area", "ACRES": 27.34630346 }, "geometry": { "type": "Polygon", "coordinates": [ [ [ -83.367500863465878, 33.958877472599461 ], [ -83.36768598149348, 33.958890045487443 ], [ -83.367929230505283, 33.959348489101551 ], [ -83.369573196966613, 33.960794525970172 ], [ -83.370374394694622, 33.962406400483069 ], [ -83.371315516564351, 33.963383726966356 ], [ -83.371675375277192, 33.96471268684919 ], [ -83.372142218429886, 33.96556671491561 ], [ -83.371799892441189, 33.965842680357767 ], [ -83.371392709852955, 33.96636074987974 ], [ -83.370510888026615, 33.965488352089906 ], [ -83.370475047316916, 33.964260651023224 ], [ -83.370341194715621, 33.963900181678781 ], [ -83.370091596465102, 33.963651056449123 ], [ -83.368985908596414, 33.96297964334628 ], [ -83.369491798660036, 33.96271617911696 ], [ -83.369405132214169, 33.962631691982452 ], [ -83.368908989078648, 33.962890079954128 ], [ -83.367324426616221, 33.960387479028313 ], [ -83.366762450906975, 33.95918872548058 ], [ -83.367500863465878, 33.958877472599461 ] ] ] } },
{ "type": "Feature", "properties": { "Park_Name": "North Oconee River Greenway", "Park_Type": "Multi-use Trail", "ACRES": 61.1852911 }, "geometry": { "type": "MultiPolygon", "coordinates": [ [ [ [ -83.366750236250027, 33.958372484282101 ], [ -83.367211531601328, 33.958356683990921 ], [ -83.367227073467404, 33.95862429877188 ], [ -83.366937209481435, 33.958635987447657 ], [ -83.366750236250027, 33.958372484282101 ] ] ], [ [ [ -83.371660485300225, 33.966632230383127 ], [ -83.372319714200529, 33.966546508940873 ], [ -83.375305833417073, 33.967576804262222 ], [ -83.375658001206972, 33.968163025941884 ], [ -83.375750489063932, 33.968555873059856 ], [ -83.375173280560958, 33.969182412934593 ], [ -83.373639781820827, 33.968320398961943 ], [ -83.371660485300225, 33.966632230383127 ] ] ], [ [ [ -83.376768238219171, 33.968562482635946 ], [ -83.376976018992679, 33.969094881747779 ], [ -83.376493486424152, 33.96922047795271 ], [ -83.376244019603078, 33.968719160538647 ], [ -83.376768238219171, 33.968562482635946 ] ] ], [ [ [ -83.379683852897926, 33.980265860996013 ], [ -83.379374331376226, 33.979564864842779 ], [ -83.379637528257604, 33.979195607346625 ], [ -83.380245055886803, 33.979037212213619 ], [ -83.380612973660178, 33.979052893107024 ], [ -83.382390091218326, 33.978289573518929 ], [ -83.379706643834638, 33.975787074761783 ], [ -83.379677172983378, 33.974789402707458 ], [ -83.381136492222026, 33.97482572509481 ], [ -83.381401868242662, 33.974272891281352 ], [ -83.38098515067766, 33.973880630448193 ], [ -83.379727308533106, 33.973829243673244 ], [ -83.379583162638227, 33.973025254768423 ], [ -83.379303002071595, 33.972776820023768 ], [ -83.377363705790827, 33.970385065210372 ], [ -83.377442398258367, 33.970143604767806 ], [ -83.377123382159184, 33.97022960718742 ], [ -83.375529094739051, 33.969373487259254 ], [ -83.375975040556852, 33.968984318773806 ], [ -83.376200093225137, 33.969234167935909 ], [ -83.376690863512863, 33.96951380187577 ], [ -83.377434348455097, 33.969720278458261 ], [ -83.377889509237406, 33.969712836400561 ], [ -83.378869050202539, 33.970117351874272 ], [ -83.379204415135618, 33.970377061890609 ], [ -83.380390337561778, 33.972419624076565 ], [ -83.381887255016622, 33.974180105977254 ], [ -83.382046498317379, 33.974685312162791 ], [ -83.38196231663575, 33.975085940142158 ], [ -83.38159067147437, 33.975426038887697 ], [ -83.381210321910245, 33.975449178201906 ], [ -83.381001551796118, 33.975184101565439 ], [ -83.380674826742748, 33.97524519965657 ], [ -83.38056567045335, 33.975413643035111 ], [ -83.380695154282421, 33.975784544266787 ], [ -83.38124157764085, 33.976289430584757 ], [ -83.383088857509946, 33.977239049831866 ], [ -83.383578973063678, 33.977806687772429 ], [ -83.383558193383166, 33.978050998978105 ], [ -83.382978835766977, 33.978222279928836 ], [ -83.381985800547227, 33.978754232903462 ], [ -83.381192251922769, 33.979076446205319 ], [ -83.381029154708614, 33.979286932086282 ], [ -83.380921200962277, 33.979763965016041 ], [ -83.380490618534225, 33.98025480490805 ], [ -83.380015873362382, 33.980634108025754 ], [ -83.379683852897926, 33.980265860996013 ] ] ], [ [ [ -83.379029992202703, 33.980615599986777 ], [ -83.37967544107299, 33.980545065440253 ], [ -83.379900126363168, 33.980733836904861 ], [ -83.379653547174328, 33.981030864601657 ], [ -83.379543285041208, 33.981376468908991 ], [ -83.37957481415107, 33.98174578955625 ], [ -83.379741884701588, 33.98215508274771 ], [ -83.379726416072259, 33.982466255702263 ], [ -83.379648990478159, 33.98262402141291 ], [ -83.379487381311478, 33.982692238876652 ], [ -83.379361952506187, 33.98331213990231 ], [ -83.379098587924318, 33.98380422552021 ], [ -83.379206260934254, 33.985049097434477 ], [ -83.378274196905153, 33.985431070738251 ], [ -83.377981906707447, 33.985788945914031 ], [ -83.377669407839889, 33.9858311032053 ], [ -83.377460898506001, 33.985968625395593 ], [ -83.377351686956999, 33.985538734070161 ], [ -83.377621757571134, 33.985496991602645 ], [ -83.378019659817454, 33.984926710363155 ], [ -83.378215043023161, 33.983077366681719 ], [ -83.378599985564648, 33.982946261972145 ], [ -83.378948598303126, 33.981542552921809 ], [ -83.379484842177519, 33.98098993326321 ], [ -83.379029992202703, 33.980615599986777 ] ] ] ] } },
{ "type": "Feature", "properties": { "Park_Name": "Pulaski Heights Trailhead", "Park_Type": "Multi-use Trail", "ACRES": 0.92372767 }, "geometry": { "type": "Polygon", "coordinates": [ [ [ -83.380180715476911, 33.965892059129288 ], [ -83.380223058363285, 33.965631016132846 ], [ -83.380577579344333, 33.965490793970865 ], [ -83.381079534677923, 33.965493037027173 ], [ -83.381086535588835, 33.96566063130939 ], [ -83.381285930032163, 33.965661766852925 ], [ -83.381296821907, 33.965876157060769 ], [ -83.380180715476911, 33.965892059129288 ] ] ] } },
{ "type": "Feature", "properties": { "Park_Name": "Ben Burton Park", "Park_Type": "Natural Resource Area", "ACRES": 34.00111145 }, "geometry": { "type": "Polygon", "coordinates": [ [ [ -83.4367015270102, 33.958469389266966 ], [ -83.436719792609821, 33.95791771127989 ], [ -83.437719190354926, 33.95715406067697 ], [ -83.437813497235922, 33.957213454855264 ], [ -83.43792790250582, 33.957530106990852 ], [ -83.438452119121393, 33.95786006655085 ], [ -83.438984841623579, 33.958066794799912 ], [ -83.439353012136692, 33.958384917647052 ], [ -83.439898974773271, 33.959354451223014 ], [ -83.440232004144548, 33.96018408406244 ], [ -83.440523166519171, 33.96062030203111 ], [ -83.441202981488473, 33.961349941760837 ], [ -83.441550325849974, 33.961493624492157 ], [ -83.441868318663737, 33.961863081505889 ], [ -83.442083953919081, 33.961993977750367 ], [ -83.443873984047571, 33.962711364223665 ], [ -83.444124229791854, 33.963547150463604 ], [ -83.443948313351498, 33.963628780756416 ], [ -83.44124394860529, 33.963116979420768 ], [ -83.441541860480257, 33.96270894084283 ], [ -83.436097932910357, 33.958876427321947 ], [ -83.4367015270102, 33.958469389266966 ] ] ] } },
{ "type": "Feature", "properties": { "Park_Name": "Whitehall Shoals Natural Area", "Park_Type": "Natural Resource Area", "ACRES": 31.22710486 }, "geometry": { "type": "Polygon", "coordinates": [ [ [ -83.355697428380495, 33.910890027571149 ], [ -83.35496203965576, 33.910338617136773 ], [ -83.354678231923643, 33.910198490580271 ], [ -83.354383064415572, 33.910172003676323 ], [ -83.354222920332887, 33.909889736552223 ], [ -83.354928187848159, 33.909382748302349 ], [ -83.355575129533165, 33.909085874792602 ], [ -83.355719168949193, 33.909234890352707 ], [ -83.356215822892921, 33.909003005686735 ], [ -83.356091451222639, 33.908834032473308 ], [ -83.35659679305445, 33.908669304121005 ], [ -83.35739533624124, 33.908881629402053 ], [ -83.358697503813318, 33.909506077808956 ], [ -83.359063708703616, 33.90879068004692 ], [ -83.359225368521436, 33.908836754127542 ], [ -83.359319912279588, 33.908691697729417 ], [ -83.35900088053279, 33.908606338827539 ], [ -83.358502729130564, 33.907901348231739 ], [ -83.359235300340487, 33.90771364912689 ], [ -83.359849032445524, 33.90740892384671 ], [ -83.360050412886523, 33.907842626260425 ], [ -83.36046338716713, 33.908056465111827 ], [ -83.361098703617344, 33.908680397657903 ], [ -83.361359189269791, 33.908567340746224 ], [ -83.361494350179683, 33.90869062391112 ], [ -83.361513361882444, 33.909220469374134 ], [ -83.361415108569588, 33.909465946057296 ], [ -83.361004909745517, 33.909716388916337 ], [ -83.359343133758713, 33.910399316545302 ], [ -83.358726745331197, 33.91089218374875 ], [ -83.358366521023399, 33.910927331339217 ], [ -83.357720011707244, 33.910801182362015 ], [ -83.356991266699467, 33.910487014274345 ], [ -83.356715465035236, 33.910475802630074 ], [ -83.356292928035018, 33.910763688394695 ], [ -83.35620835430926, 33.911045634806996 ], [ -83.355697428380495, 33.910890027571149 ] ] ] } },
{ "type": "Feature", "properties": { "Park_Name": "Five Acre Woods", "Park_Type": "Natural Resource Area", "ACRES": 5.01014056 }, "geometry": { "type": "Polygon", "coordinates": [ [ [ -83.365730815898445, 33.974645586687544 ], [ -83.36577767614888, 33.974544845773416 ], [ -83.368631656614184, 33.975551778136349 ], [ -83.368283492528079, 33.976247960396826 ], [ -83.366242822847809, 33.975506229116093 ], [ -83.36599275646077, 33.974866448428408 ], [ -83.365730815898445, 33.974645586687544 ] ] ] } },
{ "type": "Feature", "properties": { "Park_Name": "Decker Park", "Park_Type": "Neighborhood Park", "ACRES": 0.133051 }, "geometry": { "type": "Polygon", "coordinates": [ [ [ -83.389621018487588, 33.937287530654885 ], [ -83.389823055519869, 33.936892422006203 ], [ -83.390037067938962, 33.937059316571933 ], [ -83.389817847231868, 33.937160986365718 ], [ -83.389621018487588, 33.937287530654885 ] ] ] } },
{ "type": "Feature", "properties": { "Park_Name": "Pound Street Complex", "Park_Type": "Special Use Facility / Park", "ACRES": 6.26645662 }, "geometry": { "type": "Polygon", "coordinates": [ [ [ -83.403574561939706, 33.970130301267695 ], [ -83.402650298366879, 33.970162969264415 ], [ -83.402607282722386, 33.970039093468181 ], [ -83.403661859232059, 33.969761337121703 ], [ -83.403770311630367, 33.969639754011673 ], [ -83.403720237910136, 33.969476038398774 ], [ -83.403564719193085, 33.969417822844463 ], [ -83.403308770374409, 33.969464541199379 ], [ -83.403207002822725, 33.969238482156634 ], [ -83.402697507733123, 33.969223393180719 ], [ -83.40277375812002, 33.969072301065552 ], [ -83.403550635113305, 33.968370564550007 ], [ -83.404701585906665, 33.969218083304916 ], [ -83.405251803169108, 33.970261934703217 ], [ -83.403574561939706, 33.970130301267695 ] ] ] } },
{ "type": "Feature", "properties": { "Park_Name": "Barber Creek Battle Site", "Park_Type": "Natural Resource Area", "ACRES": 11.39197225 }, "geometry": { "type": "Polygon", "coordinates": [ [ [ -83.401659374194026, 33.915349253783219 ], [ -83.401233700793526, 33.914475655683766 ], [ -83.400084625625553, 33.914990756345354 ], [ -83.400115322893512, 33.915037500788301 ], [ -83.399540977144667, 33.915495576176809 ], [ -83.399430873043784, 33.915423220090304 ], [ -83.401767779320835, 33.913265581336624 ], [ -83.403652938503868, 33.913963748369184 ], [ -83.403973697098579, 33.914684058930163 ], [ -83.402924556592325, 33.914950113148308 ], [ -83.402127906944941, 33.915373927878512 ], [ -83.401667001615479, 33.915521084532223 ], [ -83.401659374194026, 33.915349253783219 ] ] ] } },
{ "type": "Feature", "properties": { "Park_Name": "North Oconee River Greenway", "Park_Type": null, "ACRES": 4.24439756 }, "geometry": { "type": "Polygon", "coordinates": [ [ [ -83.367905543186751, 33.954330425257147 ], [ -83.36663406006906, 33.9536821545179 ], [ -83.366479319997694, 33.953762343630828 ], [ -83.366089574118092, 33.953669600327906 ], [ -83.365455168983857, 33.953358044116307 ], [ -83.365090857558755, 33.953674754799366 ], [ -83.365015355249326, 33.953625620267715 ], [ -83.364343060827636, 33.954378071838647 ], [ -83.364237275989055, 33.954287244719659 ], [ -83.364499434494064, 33.953946957734964 ], [ -83.364642834892592, 33.953953383774028 ], [ -83.36516444893121, 33.953373840776983 ], [ -83.36542788008019, 33.953192851864145 ], [ -83.366148357845219, 33.953541100548648 ], [ -83.36647990421109, 33.953624692823155 ], [ -83.366636307683834, 33.953531706459415 ], [ -83.367056618667746, 33.953704247502031 ], [ -83.367151590940438, 33.953836467510882 ], [ -83.367523489436437, 33.953548687041248 ], [ -83.367762614269225, 33.953699157499209 ], [ -83.367884176277755, 33.953606347320957 ], [ -83.368079188201904, 33.953730164655944 ], [ -83.368129209989817, 33.953679015308111 ], [ -83.368122010943011, 33.953095766427907 ], [ -83.367830876484987, 33.952334735210258 ], [ -83.367789853517621, 33.951616917279061 ], [ -83.367457062611379, 33.950854391248022 ], [ -83.367393493435898, 33.950464342338812 ], [ -83.367098673121191, 33.950211694947328 ], [ -83.367083761140961, 33.950154153836429 ], [ -83.367244842773431, 33.950124836095085 ], [ -83.367578371669978, 33.950486721082179 ], [ -83.367615410012846, 33.950815746309978 ], [ -83.367952269102432, 33.951592735569754 ], [ -83.367993530597317, 33.952311223089907 ], [ -83.368285308209963, 33.953075591305101 ], [ -83.368292904670298, 33.953710007380742 ], [ -83.367795865811303, 33.954079906788095 ], [ -83.368660438045836, 33.954824065174229 ], [ -83.368797171136563, 33.95504373004632 ], [ -83.36867501466034, 33.955136011613106 ], [ -83.367905543186751, 33.954330425257147 ] ] ] } },
{ "type": "Feature", "properties": { "Park_Name": "North Oconee River Greenway", "Park_Type": "Multi-use Trail", "ACRES": 4.57830531 }, "geometry": { "type": "Polygon", "coordinates": [ [ [ -83.363707572444497, 33.933472888520761 ], [ -83.362795696805321, 33.933689603317184 ], [ -83.362794094816479, 33.933876773502782 ], [ -83.362558773209102, 33.934280684350803 ], [ -83.36242878229838, 33.934806387351074 ], [ -83.361822139713894, 33.934665741873083 ], [ -83.361743910435507, 33.934493276955223 ], [ -83.361741235684462, 33.934062172450183 ], [ -83.360437369807585, 33.934884644689184 ], [ -83.359875140907604, 33.935003981221364 ], [ -83.358841997162543, 33.935453489062404 ], [ -83.358651779513963, 33.935464244379396 ], [ -83.358661603155781, 33.93532708707729 ], [ -83.359810455178305, 33.934877551045709 ], [ -83.360388465151004, 33.934750155082568 ], [ -83.362028601074371, 33.933651948603206 ], [ -83.36277411058326, 33.933555001744843 ], [ -83.363400512144977, 33.933363701974692 ], [ -83.364074343903027, 33.933352905972676 ], [ -83.364321852311534, 33.933603491643971 ], [ -83.364263827441661, 33.933733969588928 ], [ -83.364460468384948, 33.934444515151732 ], [ -83.364370785612138, 33.936449227532769 ], [ -83.364283519635123, 33.936740784902497 ], [ -83.364119423637689, 33.936727699801253 ], [ -83.364206162929875, 33.936441493704507 ], [ -83.364280135380298, 33.934299982488206 ], [ -83.364147994233775, 33.933836768556176 ], [ -83.363707572444497, 33.933472888520761 ] ], [ [ -83.361864417869057, 33.933966016292203 ], [ -83.361939145540447, 33.93456380932053 ], [ -83.362343748845745, 33.934635839088557 ], [ -83.362391320645401, 33.934268723694487 ], [ -83.362620367362979, 33.933876996053407 ], [ -83.362629407879794, 33.933699076151242 ], [ -83.362100690767647, 33.933775642806474 ], [ -83.361864417869057, 33.933966016292203 ] ] ] } },
{ "type": "Feature", "properties": { "Park_Name": "North Oconee River Greenway", "Park_Type": "Multi-use Trail", "ACRES": 3.05172352 }, "geometry": { "type": "Polygon", "coordinates": [ [ [ -83.3561729657428, 33.936472840458237 ], [ -83.355678431140888, 33.936417874772275 ], [ -83.354989610648019, 33.936513359708051 ], [ -83.354718832547292, 33.936427236293994 ], [ -83.354803686466127, 33.936309439679363 ], [ -83.354992102923617, 33.93637576457801 ], [ -83.355675348188612, 33.936280411492795 ], [ -83.356233265475481, 33.936332099664511 ], [ -83.356490488295421, 33.936154038507183 ], [ -83.356898278325403, 33.936184069305057 ], [ -83.357370290540629, 33.935722842376563 ], [ -83.357650038934054, 33.935714906640975 ], [ -83.358136311949892, 33.935866826456895 ], [ -83.358342640187715, 33.935680454327887 ], [ -83.358701029185141, 33.935637208413446 ], [ -83.358729504639314, 33.935467923916278 ], [ -83.358889905299478, 33.935432131794443 ], [ -83.3588254882375, 33.935729213481672 ], [ -83.358410293813279, 33.935805825517853 ], [ -83.358223192518352, 33.935986002908457 ], [ -83.3574606006746, 33.935840108878665 ], [ -83.357046261884861, 33.936279843568819 ], [ -83.35653808395395, 33.93628569086512 ], [ -83.35634730797122, 33.936438870813681 ], [ -83.356125266953484, 33.936859981225936 ], [ -83.35601320010359, 33.937367860082098 ], [ -83.356704654538959, 33.939569655881577 ], [ -83.356546318459124, 33.939607898465077 ], [ -83.35584954116014, 33.937384687212095 ], [ -83.355968177748849, 33.936818188500013 ], [ -83.3561729657428, 33.936472840458237 ] ] ] } },
{ "type": "Feature", "properties": { "Park_Name": "North Oconee River Greenway", "Park_Type": "Multi-use Trail", "ACRES": 4.09455908 }, "geometry": { "type": "Polygon", "coordinates": [ [ [ -83.35799366956266, 33.947865250802181 ], [ -83.359122414134134, 33.946415019908684 ], [ -83.359742035901419, 33.944900705988204 ], [ -83.360268290217505, 33.944258161851643 ], [ -83.360808165877785, 33.943830516922517 ], [ -83.361700221703657, 33.943562478761216 ], [ -83.362461033108588, 33.942853256221802 ], [ -83.36328256473135, 33.942542865676899 ], [ -83.36347562890532, 33.941972412370092 ], [ -83.363876524457055, 33.941561022216348 ], [ -83.364168876113411, 33.941518185716816 ], [ -83.364509090171481, 33.941689307821974 ], [ -83.364643419079229, 33.941623973341741 ], [ -83.364768878327737, 33.941438324196902 ], [ -83.364720480379901, 33.941065844328783 ], [ -83.364788183158396, 33.940984600565514 ], [ -83.364907782762728, 33.941083083952662 ], [ -83.364929021613065, 33.941477997883553 ], [ -83.364751061267498, 33.941728178704246 ], [ -83.364503215580584, 33.941826963156451 ], [ -83.364125843202544, 33.941651427898847 ], [ -83.363976138330628, 33.941670713504024 ], [ -83.363623868809285, 33.942032596245177 ], [ -83.363388996489903, 33.942648042544384 ], [ -83.362556244924534, 33.942965474099474 ], [ -83.361800542902827, 33.943671900507482 ], [ -83.360892075651691, 33.943948880385754 ], [ -83.360392983335174, 33.944348058924461 ], [ -83.359894016683612, 33.944954028873248 ], [ -83.359265943883287, 33.94648266137014 ], [ -83.358180557019608, 33.947893139405686 ], [ -83.358125817276346, 33.947947125329414 ], [ -83.35799366956266, 33.947865250802181 ] ] ] } },
{ "type": "Feature", "properties": { "Park_Name": "North Oconee River Greenway", "Park_Type": "Multi-use Trail", "ACRES": 3.70353983 }, "geometry": { "type": "Polygon", "coordinates": [ [ [ -83.377498233196988, 33.96971595305493 ], [ -83.377636932221236, 33.969281387063035 ], [ -83.377790164805162, 33.969082935100865 ], [ -83.377483280277033, 33.968436200069952 ], [ -83.376532724029218, 33.968640699693871 ], [ -83.376181794056535, 33.968537105998053 ], [ -83.375928267428961, 33.968287420954773 ], [ -83.37584910339497, 33.968311270636299 ], [ -83.375639180681773, 33.967758608769167 ], [ -83.375296118302771, 33.967352634465271 ], [ -83.373516081175765, 33.966842722268609 ], [ -83.372698422323452, 33.9664974257133 ], [ -83.372996946565493, 33.966458443216105 ], [ -83.372011567303034, 33.965657621633198 ], [ -83.372142218429886, 33.96556671491561 ], [ -83.373328140062227, 33.966491758407678 ], [ -83.375398221239124, 33.967244719260073 ], [ -83.375718880290378, 33.967583232717622 ], [ -83.376121399598858, 33.968299745911075 ], [ -83.376328014474737, 33.968449544686429 ], [ -83.376643479992055, 33.968502999800357 ], [ -83.377479873945759, 33.968294794813033 ], [ -83.377604995932501, 33.968333024066887 ], [ -83.377963565094376, 33.969118072645195 ], [ -83.377788953422325, 33.969334825371227 ], [ -83.377670505445209, 33.969709437305369 ], [ -83.377498233196988, 33.96971595305493 ] ] ] } },
{ "type": "Feature", "properties": { "Park_Name": "Firefly Trail", "Park_Type": "Multi-use Trail", "ACRES": 8.60929673 }, "geometry": { "type": "Polygon", "coordinates": [ [ [ -83.288023420147994, 33.974023280370247 ], [ -83.286964398507635, 33.973841763274002 ], [ -83.287057853909857, 33.973359384600968 ], [ -83.2869751948584, 33.973173609046377 ], [ -83.283372594023859, 33.969873741687884 ], [ -83.282549398703352, 33.969248242982992 ], [ -83.2801502730306, 33.967145426059396 ], [ -83.280036070460653, 33.967115462308882 ], [ -83.280025888410492, 33.967038488228425 ], [ -83.279910707719665, 33.967016667647599 ], [ -83.279954930679992, 33.966977482419168 ], [ -83.279839993113839, 33.966878665428339 ], [ -83.279760641703803, 33.966942778743167 ], [ -83.279645699150322, 33.966844259961469 ], [ -83.279725233850883, 33.966780001082299 ], [ -83.279194380716589, 33.96632201402852 ], [ -83.279053260627336, 33.96610295148357 ], [ -83.275523810399861, 33.963051522290684 ], [ -83.274579426981148, 33.962368707969532 ], [ -83.273555490019945, 33.961770507233659 ], [ -83.270642514968429, 33.960503492492016 ], [ -83.270767479360686, 33.960320265967432 ], [ -83.270850704210872, 33.960231115292892 ], [ -83.270980460844115, 33.960315892664951 ], [ -83.270876053412408, 33.960444324607003 ], [ -83.27380752651203, 33.961741505264101 ], [ -83.27563818183441, 33.962952549349261 ], [ -83.282625072101183, 33.969115852365476 ], [ -83.283498917877324, 33.969785002792442 ], [ -83.287098744888752, 33.973082602636694 ], [ -83.28722258150286, 33.973343377744385 ], [ -83.28712179119043, 33.973742712339572 ], [ -83.288057132068673, 33.973888784587345 ], [ -83.288023420147994, 33.974023280370247 ] ] ] } },
{ "type": "Feature", "properties": { "Park_Name": "Firefly Trail", "Park_Type": "Multi-use Trail", "ACRES": 12.60717962 }, "geometry": { "type": "MultiPolygon", "coordinates": [ [ [ [ -83.340387849435004, 33.957793434863547 ], [ -83.34597772957774, 33.951948499678686 ], [ -83.347481470440371, 33.950855764295063 ], [ -83.347905011710395, 33.950174374339063 ], [ -83.349012268133563, 33.949453059452921 ], [ -83.349862871582431, 33.949031239879091 ], [ -83.351043972563161, 33.948576179078799 ], [ -83.352916535238776, 33.948086949761247 ], [ -83.354275783584924, 33.947911448471032 ], [ -83.35523418104566, 33.947889257450733 ], [ -83.3560997649803, 33.947943434152926 ], [ -83.357072120821542, 33.948120904088462 ], [ -83.357538215140664, 33.948017440567519 ], [ -83.357799572822017, 33.947881394427192 ], [ -83.357945170778791, 33.947704853565853 ], [ -83.358092923928922, 33.947755521394448 ], [ -83.357935417777355, 33.947972680857703 ], [ -83.357369095128249, 33.948197171723429 ], [ -83.356955170085541, 33.948231666690262 ], [ -83.355892194196798, 33.948060008457382 ], [ -83.354751747305428, 33.948026050926408 ], [ -83.352495727293103, 33.948312444770053 ], [ -83.35052315976273, 33.948917864767601 ], [ -83.34910507961682, 33.949566624884511 ], [ -83.348021200905109, 33.950271855649277 ], [ -83.347603583029027, 33.95094808141247 ], [ -83.346111807492065, 33.952029345916749 ], [ -83.340555510860383, 33.957782372547733 ], [ -83.340473666844886, 33.95786466329303 ], [ -83.340387849435004, 33.957793434863547 ] ] ], [ [ [ -83.340387849435004, 33.957793434863547 ], [ -83.340459452735104, 33.957854070645318 ], [ -83.340473666844886, 33.95786466329303 ], [ -83.339687702640987, 33.95854862511591 ], [ -83.339499109402809, 33.958552593392383 ], [ -83.339400266253605, 33.958883104522066 ], [ -83.337459479391796, 33.959564562506571 ], [ -83.336375767803958, 33.959761843183294 ], [ -83.33453365928257, 33.959828147807414 ], [ -83.331077851740474, 33.960235970670453 ], [ -83.331055420038595, 33.960099849451694 ], [ -83.334515187363877, 33.959691609452825 ], [ -83.336355731201934, 33.959625462220465 ], [ -83.337410462863872, 33.959433376170615 ], [ -83.339295472633637, 33.958775489379626 ], [ -83.339310517243945, 33.958556560485356 ], [ -83.338925682259628, 33.958176060915498 ], [ -83.338924354743099, 33.958057747801881 ], [ -83.339020724376937, 33.957978729380606 ], [ -83.339695191932165, 33.957951852211039 ], [ -83.340387849435004, 33.957793434863547 ] ] ] ] } },
{ "type": "Feature", "properties": { "Park_Name": "North Oconee River Greenway", "Park_Type": null, "ACRES": 2.258548 }, "geometry": { "type": "Polygon", "coordinates": [ [ [ -83.357519667570173, 33.935113583786027 ], [ -83.355639791668438, 33.935200849898543 ], [ -83.354381597520955, 33.935013678050815 ], [ -83.35421628157485, 33.934881401407551 ], [ -83.353993131130423, 33.934305904729101 ], [ -83.353309145874562, 33.933508819263444 ], [ -83.353422666508095, 33.93340502696023 ], [ -83.354113683894283, 33.934206925165043 ], [ -83.354444364362024, 33.934886481045559 ], [ -83.355645105886111, 33.935063493295488 ], [ -83.357543036609954, 33.934977442968496 ], [ -83.358009786467946, 33.935202589788211 ], [ -83.358660673311348, 33.935327044911304 ], [ -83.358652709348874, 33.935464286256234 ], [ -83.357948908178386, 33.935330554785175 ], [ -83.357519667570173, 33.935113583786027 ] ] ] } },
{ "type": "Feature", "properties": { "Park_Name": "North Oconee River Greenway", "Park_Type": "Nature Park", "ACRES": 10.6996991 }, "geometry": { "type": "Polygon", "coordinates": [ [ [ -83.35074360190481, 33.935021995408597 ], [ -83.350840347805871, 33.935015418305298 ], [ -83.351853164484751, 33.932326185536311 ], [ -83.351654435035456, 33.932048803164349 ], [ -83.352370654450738, 33.931504312457193 ], [ -83.352576226349314, 33.931591071040415 ], [ -83.353132344015251, 33.932163906690917 ], [ -83.35365491972486, 33.933200653179426 ], [ -83.353094241496095, 33.933700349050667 ], [ -83.352189803842492, 33.932762706526063 ], [ -83.351821055094874, 33.933106781907618 ], [ -83.351777715322896, 33.933726349031858 ], [ -83.351510424370232, 33.934701597410935 ], [ -83.351639333076761, 33.934920963481709 ], [ -83.351621036271581, 33.935411538854652 ], [ -83.351491624787116, 33.935558593493546 ], [ -83.351593072525304, 33.935862801003346 ], [ -83.351915421426895, 33.936165263426666 ], [ -83.350862285544281, 33.936087411853663 ], [ -83.35074360190481, 33.935021995408597 ] ] ] } },
{ "type": "Feature", "properties": { "Park_Name": "North Oconee River Greenway", "Park_Type": null, "ACRES": 4.09228564 }, "geometry": { "type": "Polygon", "coordinates": [ [ [ -83.367118972779025, 33.943105765782498 ], [ -83.367229135701336, 33.943005998259864 ], [ -83.367400044039854, 33.943114250974673 ], [ -83.368164095560047, 33.943914213341749 ], [ -83.368654711927164, 33.944978027138042 ], [ -83.368578307481229, 33.945993957185941 ], [ -83.368294614484526, 33.946662408416657 ], [ -83.369630896739295, 33.947388160810931 ], [ -83.369812579091402, 33.947673179249186 ], [ -83.36972718205682, 33.948287308431809 ], [ -83.369147559210262, 33.948673718513149 ], [ -83.368287958775696, 33.94874741485733 ], [ -83.367726453836937, 33.948661708679843 ], [ -83.367266854748138, 33.949204610489453 ], [ -83.367170817627525, 33.949812777470662 ], [ -83.367244333479732, 33.950122956567505 ], [ -83.367083761140961, 33.950154153836429 ], [ -83.367005925319759, 33.949811426939434 ], [ -83.367080245193208, 33.949246081868615 ], [ -83.367253905703478, 33.948937602706629 ], [ -83.367601821237784, 33.948571710287162 ], [ -83.367776015799222, 33.948493670852613 ], [ -83.368203501884736, 33.948607850032197 ], [ -83.369065762340099, 33.948554213976095 ], [ -83.369581607865641, 33.948222594245628 ], [ -83.369647624676972, 33.947673702698651 ], [ -83.36952707337727, 33.947494917337842 ], [ -83.368143745938028, 33.946719381787091 ], [ -83.368161335872628, 33.946473849729273 ], [ -83.368416161374256, 33.945968880165019 ], [ -83.36850543102814, 33.945048142132386 ], [ -83.368023844378342, 33.943987031626584 ], [ -83.367118972779025, 33.943105765782498 ] ] ] } },
{ "type": "Feature", "properties": { "Park_Name": "North Oconee River Greenway", "Park_Type": null, "ACRES": 4.3343791 }, "geometry": { "type": "Polygon", "coordinates": [ [ [ -83.366706177925209, 33.942570067572809 ], [ -83.364623844270483, 33.940840806535874 ], [ -83.364432076270674, 33.940547895113362 ], [ -83.363725108952437, 33.940080776382771 ], [ -83.363368609527924, 33.939695371463849 ], [ -83.363295931699554, 33.93949734569803 ], [ -83.36375921834798, 33.938357173816144 ], [ -83.364090453514166, 33.937160836106912 ], [ -83.364119423637689, 33.936727699801253 ], [ -83.364283519635123, 33.936740784902497 ], [ -83.364252925366173, 33.937184325916881 ], [ -83.36389427855363, 33.93846616590114 ], [ -83.363467844337208, 33.939396595037643 ], [ -83.363498701765536, 33.93960474420642 ], [ -83.363886360008919, 33.940021815849782 ], [ -83.364553121613767, 33.94045443539482 ], [ -83.364922631420129, 33.940902111058776 ], [ -83.365205414171299, 33.940897079386545 ], [ -83.366153235615499, 33.941744805232105 ], [ -83.366309209780496, 33.941751669773431 ], [ -83.367139009343092, 33.941428599885107 ], [ -83.367658632875063, 33.941426396948046 ], [ -83.367526403185622, 33.941566495243947 ], [ -83.367182813351491, 33.94156115940379 ], [ -83.366362169830055, 33.941882141488279 ], [ -83.366102766709247, 33.941877173141826 ], [ -83.366878781277833, 33.942527453450559 ], [ -83.367229135701336, 33.943005998259864 ], [ -83.367118972779025, 33.943105765782498 ], [ -83.366706177925209, 33.942570067572809 ] ], [ [ -83.365082070429423, 33.940998937573902 ], [ -83.365644371669021, 33.941560124858967 ], [ -83.365838778527149, 33.941683622636972 ], [ -83.365526266974783, 33.941324963804512 ], [ -83.365082070429423, 33.940998937573902 ] ] ] } },
{ "type": "Feature", "properties": { "Park_Name": "Matthews Motors", "Park_Type": "Natural Resource Area", "ACRES": 24.61928145 }, "geometry": { "type": "Polygon", "coordinates": [ [ [ -83.428389765000048, 33.948858469872256 ], [ -83.429604867314026, 33.947675803189263 ], [ -83.429910762419368, 33.947876018024068 ], [ -83.430359738932438, 33.947960981631695 ], [ -83.432239846891619, 33.947566677802179 ], [ -83.432042910968718, 33.947207317397286 ], [ -83.431848566555132, 33.946132178361992 ], [ -83.432119718330313, 33.946089140238314 ], [ -83.432274741906213, 33.9471395315826 ], [ -83.433169570301061, 33.948903504191939 ], [ -83.433082921313442, 33.949179115760977 ], [ -83.433124881746537, 33.949273377526431 ], [ -83.431381664521595, 33.950329701056326 ], [ -83.431041594571241, 33.950470652349786 ], [ -83.430596925811969, 33.95053100713362 ], [ -83.43004039809432, 33.950350757085843 ], [ -83.42897665328276, 33.949557994952698 ], [ -83.428899499934332, 33.949251230943332 ], [ -83.428389765000048, 33.948858469872256 ] ] ] } }
]
}
