{
"type": "FeatureCollection",
"name": "waterways_athens",
"crs": { "type": "name", "properties": { "name": "urn:ogc:def:crs:OGC:1.3:CRS84" } },
"features": [
{ "type": "Feature", "properties": { "fclass": "river", "name": "McNutt Creek" }, "geometry": { "type": "LineString", "coordinates": [ [ -83.4019927, 33.911056 ], [ -83.401895899999985, 33.9109247 ], [ -83.4017759, 33.910799699999956 ], [ -83.401548500000018, 33.910697 ], [ -83.401368200000022, 33.91066019999996 ], [ -83.401148599999971, 33.910639400000015 ], [ -83.400759800000046, 33.9106532 ], [ -83.400559, 33.9106521 ], [ -83.400446300000041, 33.910638699999957 ], [ -83.400337199999981, 33.910590699999986 ], [ -83.400211399999961, 33.910531599999977 ], [ -83.40006889999998, 33.910432599999957 ], [ -83.399872800000011, 33.9102816 ], [ -83.399696800000015, 33.910168 ], [ -83.399548600000017, 33.9101056 ], [ -83.399359199999978, 33.910081799999979 ], [ -83.399131400000044, 33.91008709999997 ], [ -83.3988798, 33.9100885 ], [ -83.39859970000002, 33.910041800000045 ], [ -83.39834, 33.909903399999962 ], [ -83.398121399999965, 33.909707199999978 ], [ -83.397978899999984, 33.909498400000025 ], [ -83.397888200000025, 33.909320200000025 ], [ -83.3977001, 33.909069399999964 ], [ -83.3976184, 33.908963299999982 ], [ -83.397514, 33.908867400000041 ], [ -83.3972975, 33.908770600000025 ], [ -83.397035, 33.908764200000029 ], [ -83.396623099999985, 33.908817700000014 ], [ -83.396438900000021, 33.908799600000023 ], [ -83.396301500000021, 33.908746900000018 ], [ -83.3961552, 33.908644900000013 ], [ -83.396007400000016, 33.908505700000042 ], [ -83.395889300000022, 33.908342300000022 ], [ -83.3958097, 33.908211400000027 ], [ -83.395733199999981, 33.908131900000022 ], [ -83.39563339999998, 33.9080802 ], [ -83.395494300000024, 33.9080275 ], [ -83.395349400000029, 33.9079943 ], [ -83.395157300000022, 33.90797630000003 ], [ -83.395002, 33.907986 ], [ -83.394905900000012, 33.907950400000018 ], [ -83.3948165, 33.90790369999997 ], [ -83.394601, 33.907852 ], [ -83.394359800000032, 33.9077882 ], [ -83.394223200000013, 33.907708100000043 ], [ -83.394117100000031, 33.9075798 ], [ -83.394026299999979, 33.907337099999985 ], [ -83.394021099999989, 33.90713810000004 ], [ -83.393982399999985, 33.906982100000015 ], [ -83.3939119, 33.906833 ], [ -83.393828, 33.9067061 ], [ -83.393785200000011, 33.906562099999988 ], [ -83.393794299999968, 33.906447900000046 ], [ -83.393829500000038, 33.906316700000026 ], [ -83.3938774, 33.906220300000044 ], [ -83.3939118, 33.906125700000032 ], [ -83.393916699999963, 33.906027499999986 ], [ -83.393904799999959, 33.905918799999966 ], [ -83.39382940000003, 33.905761900000037 ], [ -83.393639799999974, 33.905572099999965 ], [ -83.393541099999979, 33.905376799999971 ], [ -83.393547499999968, 33.90511689999996 ], [ -83.393504100000015, 33.904909699999962 ], [ -83.393467099999981, 33.904573699999958 ], [ -83.393337900000034, 33.904468599999966 ] ] } },
{ "type": "Feature", "properties": { "fclass": "river", "name": "Bear Creek" }, "geometry": { "type": "LineString", "coordinates": [ [ -83.496698, 33.972724 ], [ -83.496465, 33.972911 ], [ -83.496, 33.973379 ], [ -83.495841, 33.9735 ], [ -83.495739, 33.97353 ], [ -83.495307, 33.97352 ], [ -83.49489, 33.973428 ], [ -83.494782, 33.973429 ], [ -83.494675, 33.973443 ], [ -83.494523, 33.973486 ], [ -83.494286, 33.973577 ] ] } },
{ "type": "Feature", "properties": { "fclass": "river", "name": "McNutt Creek" }, "geometry": { "type": "LineString", "coordinates": [ [ -83.402685, 33.911914199999977 ], [ -83.402396600000017, 33.911613699999982 ], [ -83.4019927, 33.911056 ] ] } },
{ "type": "Feature", "properties": { "fclass": "river", "name": "Bear Creek" }, "geometry": { "type": "LineString", "coordinates": [ [ -83.494286, 33.973577 ], [ -83.49407, 33.973661 ], [ -83.493943, 33.973806 ], [ -83.493897, 33.973888 ], [ -83.493721, 33.97449 ], [ -83.493669, 33.974569 ], [ -83.493531, 33.974707 ], [ -83.493388, 33.974795 ], [ -83.493291100000022, 33.9748069 ], [ -83.49302, 33.974507299999985 ] ] } },
{ "type": "Feature", "properties": { "fclass": "river", "name": "Bear Creek" }, "geometry": { "type": "LineString", "coordinates": [ [ -83.501591300000044, 33.9737991 ], [ -83.50147950000003, 33.9737581 ], [ -83.501176, 33.973611 ], [ -83.50091, 33.973458 ], [ -83.500714, 33.973381 ], [ -83.500422, 33.973183 ], [ -83.500369, 33.973169 ], [ -83.500269, 33.973202 ], [ -83.500161, 33.973202 ], [ -83.499773, 33.973047 ], [ -83.499649, 33.972942 ], [ -83.499562, 33.972889 ], [ -83.49946, 33.972859 ], [ -83.499354, 33.97284 ], [ -83.499031, 33.972823 ], [ -83.498715, 33.972765 ], [ -83.498393, 33.972735 ], [ -83.498083, 33.972656 ], [ -83.497785, 33.972549 ], [ -83.497575, 33.972507 ], [ -83.497359, 33.972504 ], [ -83.497147, 33.972539 ], [ -83.496698, 33.972724 ] ] } },
{ "type": "Feature", "properties": { "fclass": "river", "name": "Barber Creek" }, "geometry": { "type": "LineString", "coordinates": [ [ -83.402970942962455, 33.912014269880096 ], [ -83.402839900000018, 33.912007399999965 ], [ -83.402685, 33.911914199999977 ] ] } },
{ "type": "Feature", "properties": { "fclass": "river", "name": "Middle Oconee River" }, "geometry": { "type": "MultiLineString", "coordinates": [ [ [ -83.503478991106846, 33.999436355249856 ], [ -83.50357710000003, 33.999202500000024 ], [ -83.503663, 33.998099599999982 ], [ -83.503233799999961, 33.9966764 ], [ -83.502890499999978, 33.994826200000034 ], [ -83.502955389898503, 33.993722920465991 ] ], [ [ -83.502564918175452, 33.992059879950119 ], [ -83.50253450000001, 33.991963200000029 ], [ -83.5024613, 33.991730699999977 ], [ -83.502315099999976, 33.9914883 ], [ -83.501860500000021, 33.990734399999965 ], [ -83.500830599999986, 33.989951600000033 ], [ -83.499757700000032, 33.9891687 ], [ -83.498985199999964, 33.98874170000002 ], [ -83.4982556, 33.987816600000038 ], [ -83.497869400000013, 33.9869981 ], [ -83.497826500000016, 33.986215299999976 ], [ -83.4978307, 33.985982100000044 ], [ -83.497735400000039, 33.985756400000021 ], [ -83.497603699999971, 33.9855232 ], [ -83.497417799999951, 33.98532 ], [ -83.497246099999956, 33.9852023 ], [ -83.497065400000025, 33.985129700000037 ], [ -83.496880199999978, 33.985057099999977 ], [ -83.496685899999974, 33.985014600000014 ], [ -83.496355, 33.98491910000002 ], [ -83.4960831, 33.984873200000038 ], [ -83.4959562, 33.984850300000012 ], [ -83.495829299999968, 33.984812299999973 ], [ -83.4958082, 33.984791500000028 ], [ -83.495643100000024, 33.984628 ], [ -83.495529400000024, 33.984451300000039 ], [ -83.495351100000022, 33.984144499999964 ], [ -83.4950642, 33.983435900000046 ], [ -83.495022899999952, 33.983278800000015 ], [ -83.494954499999977, 33.983144199999977 ], [ -83.494772400000016, 33.982905 ], [ -83.494712600000042, 33.9826207 ], [ -83.4946799, 33.982336500000031 ], [ -83.494684600000028, 33.981805499999972 ], [ -83.494657600000011, 33.981297 ], [ -83.494564899999986, 33.9803437 ], [ -83.4943074, 33.97913369999997 ], [ -83.493921200000017, 33.97820849999998 ], [ -83.493406200000038, 33.976927300000021 ], [ -83.493277500000048, 33.975397 ], [ -83.49302, 33.974507299999985 ], [ -83.4925479, 33.9736531 ], [ -83.4922689, 33.973289400000027 ], [ -83.492006100000012, 33.972793400000022 ], [ -83.491711, 33.971756799999959 ], [ -83.491507200000029, 33.971294100000044 ], [ -83.491249699999955, 33.97096269999998 ], [ -83.490420900000032, 33.9702887 ], [ -83.489543800000021, 33.969667 ], [ -83.488862499999968, 33.969187600000012 ], [ -83.48833710000001, 33.9689653 ], [ -83.487854, 33.9689652 ], [ -83.487483900000029, 33.969031900000012 ], [ -83.487154, 33.969152 ], [ -83.486700699999972, 33.9694568 ], [ -83.4865022, 33.969630299999963 ], [ -83.486225899999951, 33.969772600000013 ], [ -83.485898699999964, 33.969812700000041 ], [ -83.485399799999982, 33.969806 ], [ -83.485107400000047, 33.969814900000046 ], [ -83.484394, 33.9702009 ], [ -83.483951399999967, 33.970564499999988 ], [ -83.483111899999955, 33.971080599999965 ], [ -83.482331300000027, 33.971534400000031 ], [ -83.481550800000022, 33.971965900000029 ], [ -83.481001, 33.972208400000021 ], [ -83.480362600000035, 33.972393 ], [ -83.479858299999961, 33.972461900000035 ], [ -83.479431900000023, 33.97243749999997 ], [ -83.479002699999953, 33.972344099999972 ], [ -83.478581600000012, 33.972190599999969 ], [ -83.478034400000041, 33.9717991 ], [ -83.477567699999966, 33.971441 ], [ -83.477152, 33.971022799999979 ], [ -83.4767577, 33.97045110000002 ], [ -83.476317800000032, 33.9698305 ], [ -83.47586189999997, 33.969378900000031 ], [ -83.475424700000033, 33.969097600000026 ], [ -83.474829199999959, 33.969011900000041 ], [ -83.474333, 33.9690297 ], [ -83.473611500000018, 33.969051899999975 ], [ -83.473227899999983, 33.968971800000013 ], [ -83.472509100000025, 33.968607 ], [ -83.472004799999951, 33.968335600000039 ], [ -83.471505899999968, 33.96822 ], [ -83.4706423, 33.968148800000037 ], [ -83.470234600000026, 33.967984200000011 ], [ -83.470119199999985, 33.967855099999987 ], [ -83.47013, 33.967688300000042 ], [ -83.470180900000031, 33.967510299999965 ], [ -83.470704, 33.9665349 ], [ -83.471221699999987, 33.96562510000004 ], [ -83.471847900000029, 33.964527299999979 ], [ -83.4718627, 33.964359400000028 ], [ -83.4718627, 33.964339299999963 ], [ -83.4718788, 33.964159099999975 ], [ -83.471754700000034, 33.964022300000025 ], [ -83.471473799999984, 33.963933300000036 ], [ -83.470903799999974, 33.963824299999985 ], [ -83.469848299999953, 33.9636441 ], [ -83.469226099999986, 33.963439400000027 ], [ -83.4689471, 33.9634305 ], [ -83.468767399999962, 33.963466100000012 ], [ -83.468603800000011, 33.963570699999963 ], [ -83.468276600000024, 33.963931 ], [ -83.467651600000011, 33.965012200000039 ], [ -83.467555, 33.965283600000028 ], [ -83.467498699999965, 33.965563900000035 ], [ -83.467557699999972, 33.965897600000027 ], [ -83.467815200000047, 33.966509300000013 ], [ -83.4678984, 33.966885300000037 ], [ -83.4678823, 33.967296799999978 ], [ -83.467828700000013, 33.967709500000019 ], [ -83.467657, 33.968492499999968 ], [ -83.467587200000011, 33.968860599999957 ], [ -83.467195600000025, 33.9697059 ], [ -83.466798699999956, 33.970307699999964 ], [ -83.466600199999974, 33.970613500000042 ], [ -83.46629710000002, 33.9709093 ], [ -83.465527300000019, 33.971392 ], [ -83.464454399999966, 33.9719526 ], [ -83.46331720000002, 33.972504199999982 ], [ -83.4627888, 33.9726955 ], [ -83.462415899999968, 33.9727889 ], [ -83.462153099999981, 33.972840099999978 ], [ -83.461903600000042, 33.972822300000011 ], [ -83.4617347, 33.97276 ], [ -83.461565699999966, 33.97257980000002 ], [ -83.46158709999996, 33.972277300000037 ], [ -83.461764199999962, 33.971932500000023 ], [ -83.46221749999998, 33.971685600000022 ], [ -83.463124, 33.971289700000035 ], [ -83.463427099999976, 33.971100600000021 ], [ -83.46360150000001, 33.970956 ], [ -83.463706099999968, 33.970787 ], [ -83.4637088, 33.970586799999964 ], [ -83.46364709999996, 33.9704177 ], [ -83.4634244, 33.970179700000031 ], [ -83.463236700000024, 33.9700173 ], [ -83.462303299999974, 33.969436700000017 ], [ -83.461305500000023, 33.968682699999981 ], [ -83.460251400000018, 33.967986400000015 ], [ -83.459165100000021, 33.967254500000031 ], [ -83.457976900000034, 33.966364700000035 ], [ -83.457113199999981, 33.965955400000013 ], [ -83.456638499999968, 33.965659500000044 ], [ -83.456426600000015, 33.9654571 ], [ -83.45630850000002, 33.965208 ], [ -83.456292500000018, 33.9649633 ], [ -83.456348799999972, 33.9646585 ], [ -83.456472199999965, 33.964498299999974 ], [ -83.456751100000048, 33.964420500000024 ], [ -83.457070299999984, 33.9644449 ], [ -83.4575772, 33.964578400000029 ], [ -83.458105600000025, 33.9646585 ], [ -83.458660800000047, 33.964642900000037 ], [ -83.459438700000021, 33.964340399999969 ], [ -83.460704699999965, 33.963687500000034 ], [ -83.46130279999997, 33.963288100000028 ], [ -83.4616649, 33.962952200000039 ], [ -83.461898300000044, 33.962636300000014 ], [ -83.4619761, 33.9623827 ], [ -83.4619492, 33.96200010000004 ], [ -83.461791, 33.961472800000024 ], [ -83.461667599999956, 33.96097670000001 ], [ -83.461673, 33.96046280000003 ], [ -83.461533499999973, 33.959791 ], [ -83.461351099999973, 33.959268199999954 ], [ -83.461112400000033, 33.959034599999988 ], [ -83.460828099999958, 33.958821 ], [ -83.460506199999969, 33.958687500000046 ], [ -83.460058300000028, 33.9586119 ], [ -83.459360899999979, 33.95856290000004 ], [ -83.4588137, 33.9585518 ], [ -83.458137800000031, 33.958636299999988 ], [ -83.4575719, 33.958811 ], [ -83.456794, 33.959241499999969 ], [ -83.456501700000018, 33.959308199999981 ], [ -83.456241499999976, 33.959286 ], [ -83.455992, 33.959128 ], [ -83.4557265, 33.958732 ], [ -83.45539930000001, 33.9584272 ], [ -83.454991600000028, 33.958287099999957 ], [ -83.454315699999981, 33.9582092 ], [ -83.453374199999971, 33.958198099999969 ], [ -83.452191399999975, 33.9582403 ], [ -83.451376, 33.958340500000027 ], [ -83.450909300000035, 33.95852290000002 ], [ -83.450587399999961, 33.9588877 ], [ -83.450101900000021, 33.9594105 ], [ -83.44949840000001, 33.9598021 ], [ -83.448645499999955, 33.9602349 ], [ -83.447623599999957, 33.960887700000015 ], [ -83.447014700000025, 33.961373900000012 ], [ -83.445858700000031, 33.962149100000026 ], [ -83.445316899999966, 33.962425 ], [ -83.4448609, 33.962518400000029 ], [ -83.4445015, 33.962534 ], [ -83.443868500000036, 33.962440599999987 ], [ -83.442859300000023, 33.96205089999998 ], [ -83.441902099999965, 33.961550499999966 ], [ -83.441293499999958, 33.961079100000042 ], [ -83.440738300000035, 33.9605429 ], [ -83.4402421, 33.959828799999976 ], [ -83.440003399999981, 33.959194800000013 ], [ -83.439912199999981, 33.9589189 ], [ -83.439324799999966, 33.958131300000034 ], [ -83.439013699999975, 33.957871 ], [ -83.438415500000048, 33.957604100000026 ], [ -83.438120499999968, 33.957392700000028 ], [ -83.4377021, 33.95689440000001 ], [ -83.4374768, 33.956422699999976 ], [ -83.437318499999961, 33.955679600000039 ], [ -83.437334599999957, 33.955354799999988 ], [ -83.437479400000043, 33.95499880000002 ], [ -83.437873699999983, 33.954397099999973 ], [ -83.43815, 33.953957600000024 ], [ -83.4383056, 33.9535171 ], [ -83.438356499999955, 33.953127700000017 ], [ -83.438302899999968, 33.9529097 ], [ -83.4382412, 33.952758400000015 ], [ -83.438056099999969, 33.952667200000015 ], [ -83.437745, 33.952642700000034 ], [ -83.43723, 33.952687199999986 ], [ -83.436766, 33.952636 ], [ -83.436371699999967, 33.9524748 ], [ -83.436023, 33.952171 ], [ -83.435666299999951, 33.951692700000031 ], [ -83.4354007, 33.9510964 ], [ -83.435049399999983, 33.95018420000001 ], [ -83.434893799999983, 33.949948300000031 ], [ -83.434612200000046, 33.9496625 ], [ -83.434169600000018, 33.949483300000011 ], [ -83.433711, 33.949377699999978 ], [ -83.4333998, 33.949354199999988 ], [ -83.433153100000013, 33.949377699999978 ], [ -83.432675600000039, 33.949688 ], [ -83.4314793, 33.950437800000032 ], [ -83.431028700000013, 33.950626900000046 ], [ -83.430763199999987, 33.950680300000023 ], [ -83.4305111, 33.95064690000001 ], [ -83.430073899999968, 33.950555700000017 ], [ -83.429609800000037, 33.950268699999981 ], [ -83.428998299999975, 33.949846 ], [ -83.428550400000034, 33.9492986 ], [ -83.428196299999968, 33.949033900000046 ], [ -83.427756399999978, 33.9488937 ], [ -83.426967900000022, 33.9485332 ], [ -83.426144400000013, 33.948364099999957 ], [ -83.425070100000028, 33.948026299999988 ], [ -83.424081799999968, 33.947696599999972 ], [ -83.423392500000048, 33.947416299999965 ], [ -83.423172500000049, 33.947209299999976 ], [ -83.423054499999964, 33.9470914 ], [ -83.422774399999966, 33.946431700000034 ], [ -83.4227005, 33.946183600000019 ], [ -83.422687100000033, 33.945783100000014 ], [ -83.422751400000024, 33.945607300000034 ], [ -83.422984799999966, 33.945525 ], [ -83.4235293, 33.945511600000017 ], [ -83.4241188, 33.945451899999966 ], [ -83.4245029, 33.9453514 ], [ -83.424789900000022, 33.945224599999989 ], [ -83.425079600000018, 33.945028800000038 ], [ -83.4252566, 33.944856399999985 ], [ -83.425388, 33.9445259 ], [ -83.425500700000043, 33.944196600000019 ], [ -83.425498, 33.943907299999971 ], [ -83.425355899999957, 33.943538 ], [ -83.4249991, 33.94279150000002 ], [ -83.424574100000015, 33.9420934 ], [ -83.424407900000034, 33.941682199999988 ], [ -83.4242197, 33.941271700000037 ], [ -83.42408, 33.94116720000001 ], [ -83.423905, 33.9411252 ], [ -83.423548499999981, 33.941276900000027 ], [ -83.4231967, 33.94150980000002 ], [ -83.42263880000003, 33.941937 ], [ -83.4222176, 33.942519199999964 ], [ -83.421702199999984, 33.942958100000041 ], [ -83.4213943, 33.943110599999955 ], [ -83.421036699999988, 33.943175 ], [ -83.420313899999954, 33.943192599999989 ], [ -83.419598, 33.943189700000019 ], [ -83.419251299999971, 33.9430885 ], [ -83.419037599999967, 33.942890799999979 ], [ -83.418809800000034, 33.942646099999983 ], [ -83.418557400000026, 33.9422116 ], [ -83.418218200000027, 33.941499100000023 ], [ -83.418102500000046, 33.94114839999996 ], [ -83.4181192, 33.940928599999985 ], [ -83.418192400000024, 33.940741200000019 ], [ -83.418342900000042, 33.940444100000043 ], [ -83.418454300000022, 33.940067699999986 ], [ -83.41846449999997, 33.939853899999967 ], [ -83.418430700000016, 33.939682399999988 ], [ -83.418335899999988, 33.939555499999969 ], [ -83.418170299999971, 33.939411 ], [ -83.417663699999977, 33.939115599999987 ], [ -83.4172259, 33.9388999 ], [ -83.416795199999967, 33.938649 ], [ -83.416437799999969, 33.938358100000016 ], [ -83.416115699999963, 33.937985 ], [ -83.415709, 33.93723029999996 ], [ -83.415330099999977, 33.936702499999988 ], [ -83.414613600000024, 33.936098 ], [ -83.41371239999998, 33.935670699999974 ], [ -83.4131116, 33.935457099999972 ], [ -83.412599700000015, 33.9350452 ], [ -83.41191, 33.934424499999977 ], [ -83.4112233, 33.9340328 ], [ -83.410064599999956, 33.9338548 ], [ -83.409378, 33.933890400000017 ], [ -83.409133199999985, 33.934063500000043 ], [ -83.408816399999978, 33.934212600000031 ], [ -83.408573599999968, 33.9342391 ], [ -83.408248100000037, 33.934159100000045 ], [ -83.408065400000012, 33.9340533 ], [ -83.407589499999986, 33.933448100000014 ], [ -83.406563600000013, 33.932075200000021 ], [ -83.405951, 33.931306900000045 ], [ -83.405793, 33.9309628 ], [ -83.405789399999989, 33.930601899999978 ], [ -83.4060976, 33.930058699999975 ], [ -83.406717200000017, 33.929403899999976 ], [ -83.406979, 33.9290392 ], [ -83.407037499999959, 33.9285261 ], [ -83.406980100000013, 33.928146400000024 ], [ -83.406808899999973, 33.9278038 ], [ -83.40635540000001, 33.9273141 ], [ -83.405914, 33.926983 ], [ -83.404766099999961, 33.9261923 ], [ -83.404154900000023, 33.925772599999988 ], [ -83.40245819999997, 33.925033600000042 ], [ -83.400587900000033, 33.9244942 ], [ -83.399378699999986, 33.924454299999979 ], [ -83.39863430000004, 33.924379 ], [ -83.398354200000043, 33.924350700000026 ], [ -83.3974896, 33.924103700000018 ], [ -83.396269300000014, 33.923402399999986 ], [ -83.3951978, 33.922922399999976 ], [ -83.394711700000016, 33.922402799999972 ], [ -83.394640199999969, 33.921876699999963 ], [ -83.3947621, 33.921633099999966 ], [ -83.394789100000025, 33.921288499999967 ], [ -83.394657, 33.9206911 ], [ -83.394530699999962, 33.920378399999983 ], [ -83.393972200000022, 33.919922700000022 ], [ -83.393506, 33.919528299999989 ], [ -83.3929843, 33.91893449999997 ], [ -83.39274180000001, 33.918700200000039 ], [ -83.392522900000017, 33.918571300000032 ], [ -83.392365200000029, 33.918540699999987 ], [ -83.392212900000033, 33.91857269999997 ], [ -83.391729099999978, 33.918688599999967 ], [ -83.3910294, 33.918847699999986 ], [ -83.390542699999955, 33.918753199999983 ], [ -83.3902652, 33.918637900000036 ], [ -83.389870700000046, 33.918384600000039 ], [ -83.3897629, 33.918209400000016 ], [ -83.3897199, 33.918008600000014 ], [ -83.389793599999962, 33.917650799999983 ], [ -83.390037, 33.917359200000014 ], [ -83.390323500000022, 33.91704710000004 ], [ -83.390645400000011, 33.916717300000016 ], [ -83.390936500000024, 33.916551100000035 ], [ -83.391208, 33.9164143 ], [ -83.391443499999966, 33.91633090000002 ], [ -83.391589499999967, 33.9163113 ], [ -83.3920666, 33.916311 ], [ -83.39250250000002, 33.916307300000021 ], [ -83.392911799999951, 33.9162683 ], [ -83.393286799999984, 33.9161353 ], [ -83.393406500000026, 33.9160183 ], [ -83.39369630000003, 33.915581700000025 ], [ -83.393830400000013, 33.915291900000028 ], [ -83.39417659999998, 33.914485 ], [ -83.394336100000032, 33.9137877 ], [ -83.394434199999978, 33.913110500000016 ], [ -83.394529300000031, 33.912452799999954 ], [ -83.3944657, 33.912203600000034 ], [ -83.394317, 33.911955899999967 ], [ -83.394100100000045, 33.9117405 ], [ -83.393724100000014, 33.911364100000029 ], [ -83.3933944, 33.910977600000024 ], [ -83.392602400000015, 33.909655799999989 ], [ -83.391911399999955, 33.908392600000013 ], [ -83.391396399999977, 33.907609100000023 ], [ -83.3912271, 33.9071408 ], [ -83.391138899999987, 33.906896699999962 ], [ -83.39111480000004, 33.906618500000036 ], [ -83.391224799999989, 33.9063625 ], [ -83.391385699999987, 33.906108699999955 ], [ -83.391600299999979, 33.905908299999986 ], [ -83.392383500000022, 33.905391899999977 ], [ -83.3929199, 33.904937799999978 ], [ -83.393337900000034, 33.904468599999966 ], [ -83.393453800000032, 33.904116100000024 ], [ -83.3935512, 33.903406099999984 ], [ -83.393456399999977, 33.9026581 ], [ -83.393352099999973, 33.902470500000021 ], [ -83.393198899999987, 33.902195099999972 ], [ -83.3926839, 33.901767699999958 ], [ -83.391997200000034, 33.901269 ], [ -83.391101299999988, 33.900473800000015 ], [ -83.39055740000002, 33.899864499999964 ], [ -83.38939160000001, 33.8995247 ], [ -83.38843940000001, 33.899602300000026 ], [ -83.3879273, 33.899598200000042 ], [ -83.3869761, 33.899452399999973 ], [ -83.386375300000026, 33.899381100000021 ], [ -83.385345399999977, 33.899274299999981 ], [ -83.384861, 33.8992123 ], [ -83.384306299999977, 33.899157700000011 ], [ -83.383585799999963, 33.899060499999962 ], [ -83.3831492, 33.8989494 ], [ -83.382717299999953, 33.8987647 ], [ -83.382302700000025, 33.8984395 ], [ -83.3821232, 33.89818980000004 ], [ -83.382083800000032, 33.897920699999979 ], [ -83.382384200000018, 33.897350699999983 ], [ -83.3828563, 33.8969945 ], [ -83.383167, 33.896763499999977 ], [ -83.3837172, 33.896651400000032 ], [ -83.384289800000033, 33.896528299999972 ], [ -83.3846587, 33.896388899999984 ], [ -83.3849162, 33.8960327 ], [ -83.3847446, 33.8956409 ], [ -83.384229600000026, 33.895177799999963 ], [ -83.383542899999966, 33.894785900000045 ], [ -83.382985, 33.894536600000023 ], [ -83.382555900000014, 33.894358500000031 ], [ -83.382284799999965, 33.8941627 ], [ -83.381910199999965, 33.8938944 ], [ -83.381568799999968, 33.893752900000017 ], [ -83.3808822, 33.893681599999979 ], [ -83.38041010000002, 33.893681599999979 ], [ -83.379766399999966, 33.893467899999969 ], [ -83.3789081, 33.893004800000021 ], [ -83.378436, 33.892541699999988 ], [ -83.378350200000028, 33.89207860000004 ], [ -83.378350200000028, 33.8916155 ], [ -83.378249300000022, 33.891323 ], [ -83.3780826, 33.891152200000036 ], [ -83.377663499999954, 33.890903 ], [ -83.377191499999981, 33.890867400000012 ], [ -83.3766765, 33.890760499999956 ], [ -83.376290200000014, 33.8904399 ], [ -83.376161500000023, 33.890226199999979 ], [ -83.375947900000028, 33.889549 ], [ -83.375603599999963, 33.889014900000035 ], [ -83.375078, 33.888489299999975 ], [ -83.3748321, 33.888060799999963 ], [ -83.3746165, 33.887554299999977 ], [ -83.374391, 33.8871596 ], [ -83.374059900000049, 33.8866411 ], [ -83.373612499999979, 33.886142100000015 ], [ -83.3732329, 33.885672 ], [ -83.3728432, 33.885505800000033 ], [ -83.372356100000033, 33.8856749 ], [ -83.3720928, 33.885874100000045 ], [ -83.3717879, 33.886160600000032 ], [ -83.371397899999977, 33.886556800000044 ], [ -83.3710975, 33.88687740000001 ], [ -83.370239200000029, 33.887091200000029 ], [ -83.368865899999989, 33.887434700000028 ], [ -83.367861500000018, 33.8876769 ], [ -83.366923500000041, 33.887905 ], [ -83.3663005, 33.887945600000023 ], [ -83.366005600000037, 33.887784500000016 ], [ -83.365862600000014, 33.887648400000032 ], [ -83.365719199999958, 33.887311100000012 ], [ -83.3655275, 33.8868193 ], [ -83.365310599999987, 33.886131400000018 ], [ -83.3646602, 33.8855236 ], [ -83.363930600000032, 33.884846700000033 ], [ -83.363844800000038, 33.884062900000018 ], [ -83.363844800000038, 33.88317220000004 ], [ -83.363286899999977, 33.882602200000044 ], [ -83.3625573, 33.88203220000004 ], [ -83.361699, 33.881284 ], [ -83.361153300000012, 33.880447600000025 ], [ -83.360797799999986, 33.879609400000042 ], [ -83.360797799999986, 33.878825600000027 ], [ -83.361055299999975, 33.877756699999956 ], [ -83.360969499999982, 33.8771154 ], [ -83.3606594, 33.876362399999969 ], [ -83.359896600000027, 33.87576139999998 ], [ -83.358585299999987, 33.875194699999987 ], [ -83.357493299999959, 33.874977599999966 ], [ -83.3564204, 33.8748493 ], [ -83.354789599999989, 33.8748493 ], [ -83.35387980000003, 33.8748493 ], [ -83.35336489999996, 33.8748707 ], [ -83.352832699999979, 33.874941900000032 ], [ -83.352558, 33.875155700000043 ], [ -83.3524207, 33.875326799999989 ], [ -83.3524465, 33.875611800000037 ], [ -83.3526439, 33.875918199999987 ], [ -83.352789799999982, 33.876295899999974 ], [ -83.352987199999973, 33.876844599999984 ], [ -83.352901399999979, 33.877307800000033 ], [ -83.352564, 33.87750290000001 ], [ -83.352189, 33.8776498 ], [ -83.351559900000012, 33.877634499999971 ], [ -83.350662600000021, 33.877550899999981 ], [ -83.349636600000039, 33.877583500000014 ] ] ] } },
{ "type": "Feature", "properties": { "fclass": "river", "name": "Bear Creek" }, "geometry": { "type": "LineString", "coordinates": [ [ -83.510001860995331, 33.981227748958737 ], [ -83.509999, 33.981202 ], [ -83.509901, 33.981131 ], [ -83.509847, 33.981053 ], [ -83.509817, 33.980967 ], [ -83.509816, 33.980787 ], [ -83.509843, 33.980608 ], [ -83.509785, 33.980079 ], [ -83.509561, 33.979609 ], [ -83.509225, 33.979339 ], [ -83.508747, 33.979169 ], [ -83.508733, 33.97918 ], [ -83.508279, 33.978918 ], [ -83.507796, 33.978579 ], [ -83.507635, 33.978399 ], [ -83.507394, 33.978175 ], [ -83.507048, 33.977959 ], [ -83.506766, 33.977826 ], [ -83.50645, 33.97758 ], [ -83.506119, 33.977349 ], [ -83.506064, 33.977272 ], [ -83.505954, 33.976925 ], [ -83.505831, 33.976776 ], [ -83.505624, 33.976568 ], [ -83.505434, 33.976246 ], [ -83.505372, 33.976172 ], [ -83.505219, 33.976055 ], [ -83.504665, 33.975776 ], [ -83.504451, 33.975573 ], [ -83.504259, 33.975491 ], [ -83.504173, 33.975436 ], [ -83.503941, 33.975247 ], [ -83.503679, 33.975088 ], [ -83.503434, 33.974911 ], [ -83.503155, 33.974636 ], [ -83.502755, 33.974333 ], [ -83.50215, 33.974044100000029 ], [ -83.501948700000028, 33.973941900000014 ], [ -83.501886600000049, 33.973926499999983 ], [ -83.50182, 33.973923900000031 ], [ -83.501769499999952, 33.973910099999955 ], [ -83.501737799999987, 33.973876099999984 ], [ -83.50169139999997, 33.9738398 ], [ -83.501591300000044, 33.9737991 ] ] } },
{ "type": "Feature", "properties": { "fclass": "river", "name": "Oconee River" }, "geometry": { "type": "LineString", "coordinates": [ [ -83.349636600000039, 33.877583500000014 ], [ -83.348867299999981, 33.8777496 ], [ -83.348431299999959, 33.8780063 ], [ -83.347897400000022, 33.878305399999974 ], [ -83.346893199999982, 33.878604699999954 ], [ -83.346266700000015, 33.878839899999967 ], [ -83.34570880000004, 33.878818499999973 ], [ -83.345299, 33.878589600000041 ], [ -83.345279599999955, 33.878390900000028 ], [ -83.345262399999953, 33.878056 ], [ -83.345262399999953, 33.877721100000031 ], [ -83.345262399999953, 33.8774147 ], [ -83.345193799999961, 33.877094 ], [ -83.345065, 33.8768232 ], [ -83.344807499999973, 33.8761534 ], [ -83.344524299999989, 33.8755619 ], [ -83.343923500000017, 33.875113 ], [ -83.342833399999975, 33.87517 ], [ -83.341760500000021, 33.8748493 ], [ -83.341159699999963, 33.874350500000034 ], [ -83.340644699999984, 33.874044 ], [ -83.340026800000018, 33.874044 ], [ -83.339383, 33.8741011 ], [ -83.3386106, 33.87400130000001 ], [ -83.338155700000016, 33.873816 ], [ -83.337537700000041, 33.873516699999968 ], [ -83.336748, 33.872982199999974 ], [ -83.3362674, 33.87259029999997 ], [ -83.335692300000019, 33.872005900000019 ], [ -83.334962799999971, 33.871720899999978 ], [ -83.3344049, 33.871521299999984 ], [ -83.333572300000029, 33.871393 ], [ -83.332885599999969, 33.87145010000004 ], [ -83.3322591, 33.871364499999977 ], [ -83.331340700000041, 33.8709868 ], [ -83.32979570000002, 33.870181499999973 ], [ -83.3281993, 33.869369099999986 ], [ -83.327195099999955, 33.868670700000024 ], [ -83.3261651, 33.867473399999987 ], [ -83.3243197, 33.865335400000014 ], [ -83.3239936, 33.864879200000018 ], [ -83.3241481, 33.864166500000024 ], [ -83.324560099999985, 33.862384700000035 ], [ -83.32485189999997, 33.861686299999981 ], [ -83.325349700000032, 33.861244400000011 ], [ -83.3260535, 33.860959299999955 ], [ -83.326851799999972, 33.860973599999987 ], [ -83.327452600000029, 33.860745500000029 ], [ -83.327684300000016, 33.860403399999967 ], [ -83.327624200000017, 33.85989019999996 ], [ -83.32739250000003, 33.859533799999959 ], [ -83.326980499999962, 33.859298600000038 ], [ -83.3262939, 33.858999299999965 ], [ -83.325778900000017, 33.858500299999982 ], [ -83.325547100000023, 33.8581012 ], [ -83.325392600000029, 33.857573799999969 ], [ -83.325650100000018, 33.856804 ], [ -83.3261222, 33.8563621 ], [ -83.326864704714069, 33.85541942627691 ] ] } },
{ "type": "Feature", "properties": { "fclass": "river", "name": "North Oconee River" }, "geometry": { "type": "LineString", "coordinates": [ [ -83.422047807482443, 34.01714965345176 ], [ -83.422065700000047, 34.016997300000035 ], [ -83.4219987, 34.016794899999987 ], [ -83.421792099999962, 34.016730499999987 ], [ -83.421526600000021, 34.0168616 ], [ -83.4212396, 34.017130599999966 ], [ -83.4210465, 34.0172663 ], [ -83.420716599999977, 34.0173641 ], [ -83.420284700000025, 34.01739520000001 ], [ -83.419941399999956, 34.017321799999976 ], [ -83.41962220000002, 34.017152900000035 ], [ -83.4193728, 34.016886099999986 ], [ -83.419182300000031, 34.016268 ], [ -83.419053599999955, 34.016027900000033 ], [ -83.4188417, 34.015832300000014 ], [ -83.418589600000018, 34.015772300000023 ], [ -83.417543499999979, 34.015647800000025 ], [ -83.416301599999983, 34.015274200000022 ], [ -83.415987799999954, 34.01505190000001 ], [ -83.415757199999973, 34.0147629 ], [ -83.415733, 34.014682900000032 ], [ -83.415676699999963, 34.014465 ], [ -83.415789299999958, 34.014182600000026 ], [ -83.4159154, 34.013915799999978 ], [ -83.415918099999956, 34.013629 ], [ -83.415162599999974, 34.012094800000035 ], [ -83.414896199999959, 34.011554700000019 ], [ -83.414378500000026, 34.0107632 ], [ -83.414161199999981, 34.010634199999977 ], [ -83.4139145, 34.010634199999977 ], [ -83.413396799999973, 34.011076599999988 ], [ -83.413024, 34.011374600000039 ], [ -83.412417799999972, 34.011697 ], [ -83.411894799999956, 34.0119215 ], [ -83.411551499999973, 34.012028200000032 ], [ -83.4109292, 34.012034899999961 ], [ -83.410467800000021, 34.0118615 ], [ -83.409577299999967, 34.0114835 ], [ -83.408185299999985, 34.011127799999961 ], [ -83.4069112, 34.010794299999986 ], [ -83.405945600000038, 34.010505199999962 ], [ -83.40544669999997, 34.010220600000039 ], [ -83.404921, 34.010036099999958 ], [ -83.404459700000018, 34.009936100000033 ], [ -83.404089500000026, 34.009871600000025 ], [ -83.40378650000001, 34.009762599999981 ], [ -83.403494099999975, 34.009515799999988 ], [ -83.403376099999974, 34.009182300000013 ], [ -83.403292900000025, 34.008764299999982 ], [ -83.403005899999982, 34.0084286 ], [ -83.402244200000027, 34.007877200000031 ], [ -83.402053699999982, 34.007777100000013 ], [ -83.4018499, 34.007777100000013 ], [ -83.401579, 34.007888299999976 ], [ -83.400114500000029, 34.008806600000014 ], [ -83.39984629999995, 34.0089555 ], [ -83.399567299999958, 34.008973300000044 ], [ -83.399272299999978, 34.008859899999983 ], [ -83.398642, 34.008308500000012 ], [ -83.398534699999971, 34.008186200000019 ], [ -83.39850789999997, 34.008008399999966 ], [ -83.398491799999974, 34.0075192 ], [ -83.39839790000002, 34.0072724 ], [ -83.398379099999971, 34.0070545 ], [ -83.398494500000012, 34.006703199999976 ], [ -83.398376400000018, 34.0063986 ], [ -83.39839790000002, 34.0060873 ], [ -83.398583, 34.005831599999979 ], [ -83.3986661, 34.005575899999961 ], [ -83.3986876, 34.005266799999966 ], [ -83.3987949, 34.005006600000016 ], [ -83.399017500000028, 34.004739799999967 ], [ -83.399194500000021, 34.004635300000025 ], [ -83.399304499999971, 34.00444190000001 ], [ -83.399261599999974, 34.004270699999971 ], [ -83.399052399999988, 34.0041261 ], [ -83.3988163, 34.004075 ], [ -83.398534699999971, 34.004206199999963 ], [ -83.398183300000028, 34.00429959999996 ], [ -83.3979071, 34.004301799999965 ], [ -83.397673699999956, 34.004239499999962 ], [ -83.397435, 34.0039994 ], [ -83.397196299999976, 34.003694800000012 ], [ -83.396944099999985, 34.003419 ], [ -83.3966813, 34.003016600000031 ], [ -83.396364800000015, 34.002623 ], [ -83.396080500000025, 34.002454 ], [ -83.395667399999951, 34.002342799999973 ], [ -83.395281199999971, 34.002118200000041 ], [ -83.395176600000028, 34.001964800000046 ], [ -83.395165800000015, 34.00164460000002 ], [ -83.395139, 34.001328900000011 ], [ -83.394964699999989, 34.001057600000038 ], [ -83.394511399999971, 34.000850799999981 ], [ -83.393985699999988, 34.0007685 ], [ -83.3934868, 34.00080190000002 ], [ -83.393264199999976, 34.000775200000028 ], [ -83.393124699999987, 34.000655100000039 ], [ -83.393089800000027, 34.0005172 ], [ -83.39324, 34.000343800000039 ], [ -83.3935082, 34.000246 ], [ -83.3937335, 34.00024370000002 ], [ -83.3938462, 34.00013029999996 ], [ -83.3938891, 33.999908 ], [ -83.393832800000041, 33.9996723 ], [ -83.3935672, 33.9993365 ], [ -83.393481400000013, 33.999163 ], [ -83.393462599999964, 33.999031800000019 ], [ -83.3936262, 33.998753900000033 ], [ -83.3936584, 33.998616 ], [ -83.3935726, 33.99845369999997 ], [ -83.393409, 33.9984025 ], [ -83.393223900000024, 33.998451499999966 ], [ -83.39248090000001, 33.998894 ], [ -83.392175200000025, 33.998978499999964 ], [ -83.391979399999983, 33.998902900000012 ], [ -83.391874800000039, 33.998767199999975 ], [ -83.391907, 33.9985893 ], [ -83.392413899999966, 33.998175699999976 ], [ -83.392735799999954, 33.997815500000016 ], [ -83.392832300000038, 33.9975598 ], [ -83.3927814, 33.997337399999978 ], [ -83.392639200000048, 33.997090499999977 ], [ -83.392413899999966, 33.996628 ], [ -83.392183199999977, 33.996407899999987 ], [ -83.392033, 33.995989800000032 ], [ -83.39201420000002, 33.995709600000033 ], [ -83.392033, 33.995402700000042 ], [ -83.391974, 33.995158099999962 ], [ -83.391746, 33.994942399999971 ], [ -83.39137860000001, 33.99477780000003 ], [ -83.391078200000024, 33.994757799999974 ], [ -83.390606099999957, 33.994906800000045 ], [ -83.390096499999984, 33.995080300000012 ], [ -83.389793400000045, 33.9950758 ], [ -83.389283799999973, 33.994904600000041 ], [ -83.389047699999978, 33.994771200000017 ], [ -83.388905600000029, 33.994377600000043 ], [ -83.3887849, 33.993968400000028 ], [ -83.3886078, 33.993794899999969 ], [ -83.388237700000019, 33.993657 ], [ -83.38794, 33.993528100000013 ], [ -83.3877737, 33.993281200000013 ], [ -83.387690500000033, 33.993049899999967 ], [ -83.38768520000005, 33.992818700000022 ], [ -83.3878434, 33.992402799999986 ], [ -83.388023100000026, 33.992089199999974 ], [ -83.388135800000029, 33.9918824 ], [ -83.388151900000025, 33.9916978 ], [ -83.388049900000027, 33.991555499999954 ], [ -83.387781700000033, 33.991499899999972 ], [ -83.387449099999955, 33.991593299999977 ], [ -83.387135300000025, 33.991675600000036 ], [ -83.3866927, 33.99166670000001 ], [ -83.3865264, 33.991595499999981 ], [ -83.386271599999972, 33.991366500000041 ], [ -83.386113400000028, 33.991068499999983 ], [ -83.386094599999979, 33.990855 ], [ -83.386175099999974, 33.990663699999978 ], [ -83.38638429999996, 33.990517 ], [ -83.3864084, 33.990254499999956 ], [ -83.386295800000013, 33.989943199999956 ], [ -83.386287699999968, 33.989763 ], [ -83.38633870000001, 33.989576199999966 ], [ -83.3865157, 33.989422799999979 ], [ -83.3866755, 33.989304799999985 ], [ -83.3868343, 33.989222800000036 ], [ -83.386978, 33.9891268 ], [ -83.387118599999965, 33.988999600000042 ], [ -83.387215099999963, 33.988863100000032 ], [ -83.387267600000044, 33.988656100000043 ], [ -83.3872809, 33.988501500000041 ], [ -83.3872423, 33.988433 ], [ -83.387079600000035, 33.988181899999979 ], [ -83.386830700000047, 33.98787589999997 ], [ -83.3865619, 33.987521400000041 ], [ -83.386339399999983, 33.987226399999969 ], [ -83.3861645, 33.9869562 ], [ -83.385974199999964, 33.986708800000038 ], [ -83.3857278, 33.986397799999978 ], [ -83.385585899999981, 33.9862091 ], [ -83.385512400000039, 33.985841 ], [ -83.3855495, 33.985489699999981 ], [ -83.385654200000047, 33.985257599999962 ], [ -83.385763400000016, 33.985157300000012 ], [ -83.385972399999986, 33.985071899999959 ], [ -83.386191299999979, 33.98498160000004 ], [ -83.386351899999951, 33.984927900000038 ], [ -83.386450600000032, 33.9849242 ], [ -83.386547, 33.984991599999979 ], [ -83.386667, 33.985135499999984 ], [ -83.386719399999976, 33.985236 ], [ -83.3867797, 33.985305500000017 ], [ -83.386857500000033, 33.98535050000001 ], [ -83.386960300000013, 33.985359300000027 ], [ -83.387081099999975, 33.985321900000038 ], [ -83.387193, 33.985250199999967 ], [ -83.3873123, 33.985145600000017 ], [ -83.387431600000028, 33.985024899999978 ], [ -83.387507900000031, 33.9849049 ], [ -83.387516700000049, 33.984812900000023 ], [ -83.3874989, 33.984724199999967 ], [ -83.3874313, 33.984634 ], [ -83.387347, 33.984577099999967 ], [ -83.387301600000015, 33.984506499999988 ], [ -83.3872876, 33.984435300000044 ], [ -83.387295300000019, 33.984360199999962 ], [ -83.387348099999954, 33.984292100000012 ], [ -83.3874303, 33.9842254 ], [ -83.387498499999964, 33.984158699999988 ], [ -83.387494800000013, 33.98408610000002 ], [ -83.387458600000031, 33.9840237 ], [ -83.387358500000019, 33.9839527 ], [ -83.387254500000026, 33.983948 ], [ -83.3871835, 33.983929 ], [ -83.387127900000024, 33.983866499999969 ], [ -83.387035400000016, 33.983697800000044 ], [ -83.387021500000017, 33.983548300000017 ], [ -83.386986, 33.9833936 ], [ -83.386886599999954, 33.983273 ], [ -83.386714600000033, 33.983204900000025 ], [ -83.386492, 33.983167 ], [ -83.386263199999988, 33.983154699999957 ], [ -83.3860841, 33.983158199999984 ], [ -83.385868, 33.983165599999971 ], [ -83.3856462, 33.983107599999968 ], [ -83.3855967, 33.983040099999982 ], [ -83.3855689, 33.982936799999962 ], [ -83.385628, 33.982789500000031 ], [ -83.385803400000043, 33.982632600000017 ], [ -83.38598949999998, 33.982467 ], [ -83.386109699999977, 33.9823532 ], [ -83.38613490000003, 33.98217130000004 ], [ -83.385944399999985, 33.981914099999983 ], [ -83.38545459999996, 33.98146270000003 ], [ -83.385255099999966, 33.981182799999964 ], [ -83.385077600000031, 33.980960799999977 ], [ -83.3848807, 33.98082380000001 ], [ -83.3846694, 33.980860799999967 ], [ -83.384226200000015, 33.981236200000026 ], [ -83.383998800000029, 33.9813626 ], [ -83.3837579, 33.981442200000018 ], [ -83.3834575, 33.9814279 ], [ -83.383011200000027, 33.981171700000019 ], [ -83.382633499999955, 33.980815799999974 ], [ -83.382575599999953, 33.980505799999989 ], [ -83.382822399999952, 33.979968899999974 ], [ -83.383105600000022, 33.979662799999964 ], [ -83.3830429, 33.979504900000045 ], [ -83.382302, 33.9791104 ], [ -83.382195799999977, 33.978965299999984 ], [ -83.3822413, 33.978863900000029 ], [ -83.382275399999983, 33.978787899999958 ], [ -83.382684199999971, 33.978527700000015 ], [ -83.383044699999957, 33.978385300000042 ], [ -83.383388, 33.978243 ], [ -83.383576800000014, 33.978200300000012 ], [ -83.38367980000001, 33.97807930000004 ], [ -83.383688400000011, 33.977851500000021 ], [ -83.383456700000025, 33.977602400000016 ], [ -83.383276400000028, 33.97738169999996 ], [ -83.383087599999953, 33.977237600000031 ], [ -83.382752899999971, 33.977082800000012 ], [ -83.382388600000027, 33.976911100000017 ], [ -83.38163710000002, 33.976577400000025 ], [ -83.381396700000025, 33.976428 ], [ -83.381087699999952, 33.976186 ], [ -83.380813099999969, 33.975944 ], [ -83.380707899999962, 33.975822600000015 ], [ -83.380648400000013, 33.975700600000046 ], [ -83.38063870000002, 33.975558700000029 ], [ -83.380648500000021, 33.975429 ], [ -83.380678600000024, 33.975318200000025 ], [ -83.380746100000025, 33.97525 ], [ -83.380884099999975, 33.975215699999978 ], [ -83.380984699999956, 33.975262699999959 ], [ -83.381156799999985, 33.9753865 ], [ -83.3813803, 33.9754423 ], [ -83.381601299999986, 33.975439500000022 ], [ -83.3818087, 33.975374599999981 ], [ -83.3819761, 33.975233600000038 ], [ -83.3820576, 33.9750044 ], [ -83.3820748, 33.974719699999973 ], [ -83.3819546, 33.9743852 ], [ -83.381619900000018, 33.973886899999989 ], [ -83.381336700000034, 33.973495400000019 ], [ -83.381027699999962, 33.973146700000029 ], [ -83.38068429999997, 33.972762300000021 ], [ -83.380383899999984, 33.9724776 ], [ -83.3801264, 33.972079 ], [ -83.379869, 33.971723100000013 ], [ -83.37964580000002, 33.971274600000029 ], [ -83.379457, 33.97086179999998 ], [ -83.37925960000004, 33.9705486 ], [ -83.378984900000049, 33.970263899999985 ], [ -83.378607199999976, 33.970014699999972 ], [ -83.3781867, 33.969865200000037 ], [ -83.377783300000019, 33.969786900000038 ], [ -83.377624600000033, 33.969765 ], [ -83.377371300000036, 33.96973 ], [ -83.377028, 33.969665899999974 ], [ -83.376598799999968, 33.9695449 ], [ -83.376204, 33.96930289999996 ], [ -83.3759551, 33.96898969999998 ], [ -83.3757436, 33.96852330000003 ], [ -83.375627100000045, 33.968154 ], [ -83.375524199999973, 33.967930800000033 ], [ -83.375435299999978, 33.967765799999967 ], [ -83.375182600000031, 33.967544699999969 ], [ -83.37481779999996, 33.967377800000015 ], [ -83.3741752, 33.967191 ], [ -83.373586100000011, 33.966975200000014 ], [ -83.373011099999957, 33.9668044 ], [ -83.372453199999981, 33.966562300000042 ], [ -83.3719811, 33.966291800000043 ], [ -83.371480200000036, 33.9660552 ], [ -83.3711438, 33.965862200000025 ], [ -83.370789399999978, 33.965585100000013 ], [ -83.370672900000031, 33.965396 ], [ -83.370633599999977, 33.965252500000027 ], [ -83.370676499999973, 33.964690100000034 ], [ -83.370728, 33.964305700000025 ], [ -83.37078809999997, 33.9639071 ], [ -83.370728, 33.963643699999963 ], [ -83.370479099999983, 33.9633447 ], [ -83.3700757, 33.962974500000016 ], [ -83.3697838, 33.96273249999998 ], [ -83.369389, 33.9623054 ], [ -83.368925500000046, 33.9615294 ], [ -83.368547899999967, 33.960867300000018 ], [ -83.3678441, 33.9601199 ], [ -83.367423500000015, 33.959628600000023 ], [ -83.367097300000026, 33.959144500000022 ], [ -83.3668414, 33.958818 ], [ -83.366687, 33.958655900000011 ], [ -83.3664936, 33.9583895 ], [ -83.366393499999973, 33.958098 ], [ -83.366393499999973, 33.957877299999979 ], [ -83.366409100000027, 33.957661599999987 ], [ -83.366491099999962, 33.957431500000041 ], [ -83.366625299999967, 33.957222399999971 ], [ -83.3667384, 33.9570284 ], [ -83.366994399999953, 33.9568308 ], [ -83.367183200000028, 33.956716899999982 ], [ -83.367475, 33.956567399999955 ], [ -83.367609300000026, 33.956467699999969 ], [ -83.3677325, 33.956360900000014 ], [ -83.3678784, 33.9561545 ], [ -83.3679042, 33.955969400000036 ], [ -83.3678784, 33.955834100000033 ], [ -83.3678269, 33.9556276 ], [ -83.3677582, 33.955485200000034 ], [ -83.3677239, 33.955307299999966 ], [ -83.3677239, 33.955172 ], [ -83.3677497, 33.955058100000045 ], [ -83.3678355, 33.954922800000041 ], [ -83.3679814, 33.954773300000014 ], [ -83.368050400000016, 33.954729400000026 ], [ -83.368350499999977, 33.954538400000033 ], [ -83.368487799999969, 33.954403100000029 ], [ -83.36862509999996, 33.954168100000032 ], [ -83.368676599999958, 33.953968799999977 ], [ -83.368702399999961, 33.953776599999969 ], [ -83.368728099999956, 33.953506 ], [ -83.368676599999958, 33.953207 ], [ -83.368676599999958, 33.953043200000039 ], [ -83.368633699999961, 33.95259469999997 ], [ -83.368608, 33.952352600000012 ], [ -83.368462099999974, 33.952053599999964 ], [ -83.368324699999974, 33.951783099999965 ], [ -83.368110099999981, 33.951384400000016 ], [ -83.36799, 33.951128 ], [ -83.3678698, 33.950800500000021 ], [ -83.3677239, 33.950352 ], [ -83.3676037, 33.950045800000012 ], [ -83.367492200000015, 33.949704099999984 ], [ -83.367423500000015, 33.9494478 ], [ -83.367440700000017, 33.9492555 ], [ -83.367535100000012, 33.949049 ], [ -83.3677668, 33.948856800000044 ], [ -83.3680587, 33.948835399999965 ], [ -83.36842769999997, 33.948899500000024 ], [ -83.36876249999996, 33.9489636 ], [ -83.369123, 33.949013400000034 ], [ -83.36941480000003, 33.949013400000034 ], [ -83.369629400000022, 33.948992099999963 ], [ -83.369740900000011, 33.948807 ], [ -83.369878300000011, 33.9486147 ], [ -83.3699727, 33.948365499999987 ], [ -83.3700499, 33.948166200000017 ], [ -83.3701014, 33.947867100000046 ], [ -83.370076100000034, 33.947703 ], [ -83.3700585, 33.947589399999984 ], [ -83.3699727, 33.947326 ], [ -83.369809600000011, 33.947169399999964 ], [ -83.369509200000024, 33.9469486 ], [ -83.369140100000038, 33.946792 ], [ -83.368917, 33.9466923 ], [ -83.368736699999957, 33.946542799999989 ], [ -83.368659499999964, 33.946400400000016 ], [ -83.3687469, 33.9460933 ], [ -83.36889119999995, 33.945796499999965 ], [ -83.3689507, 33.945522400000023 ], [ -83.3689486, 33.945297200000041 ], [ -83.368899799999951, 33.9449123 ], [ -83.368848299999954, 33.9446559 ], [ -83.368831099999952, 33.9444423 ], [ -83.368822499999951, 33.944235699999965 ], [ -83.368797500000014, 33.944083299999967 ], [ -83.3687468, 33.943965800000015 ], [ -83.368513599999972, 33.9437659 ], [ -83.36818030000002, 33.943567099999981 ], [ -83.3679159, 33.943389899999971 ], [ -83.36765840000001, 33.94319830000002 ], [ -83.367475, 33.942961300000036 ], [ -83.367286200000024, 33.942605199999974 ], [ -83.367020100000033, 33.942128200000028 ], [ -83.36677119999996, 33.941722300000016 ], [ -83.36658239999997, 33.941387600000034 ], [ -83.366367799999978, 33.941166899999985 ], [ -83.3659815, 33.940974599999969 ], [ -83.365631299999976, 33.940789099999989 ], [ -83.365016800000021, 33.9405283 ], [ -83.364907599999952, 33.940482 ], [ -83.364638299999967, 33.940370199999968 ], [ -83.3641019, 33.93998489999997 ], [ -83.363982, 33.939829399999986 ], [ -83.363870899999981, 33.939607900000041 ], [ -83.363819900000024, 33.939287099999966 ], [ -83.3638959, 33.938960300000019 ], [ -83.3640246, 33.938703099999962 ], [ -83.364196299999989, 33.938361300000018 ], [ -83.364299299999985, 33.938048 ], [ -83.364376499999977, 33.937699100000025 ], [ -83.364479499999973, 33.937150799999955 ], [ -83.364625399999966, 33.936417300000016 ], [ -83.364668299999963, 33.93596159999997 ], [ -83.3646956, 33.93552980000004 ], [ -83.364704899999964, 33.9351666 ], [ -83.364728399999962, 33.934558699999982 ], [ -83.36465979999997, 33.933981900000042 ], [ -83.364579199999966, 33.93363649999997 ], [ -83.364511200000024, 33.933463799999984 ], [ -83.364303100000029, 33.933255900000013 ], [ -83.3641448, 33.933163 ], [ -83.3637156, 33.933141599999971 ], [ -83.36328589999998, 33.933165199999969 ], [ -83.36269420000005, 33.933276899999974 ], [ -83.3619303, 33.933469199999983 ], [ -83.361028499999989, 33.9337892 ], [ -83.359956199999985, 33.934103 ], [ -83.359012100000029, 33.934394900000015 ], [ -83.358368399999975, 33.9345943 ], [ -83.3582861, 33.934617799999984 ], [ -83.357862899999986, 33.934687399999973 ], [ -83.3572899, 33.934733200000032 ], [ -83.356712500000015, 33.934809 ], [ -83.356179699999984, 33.934893399999964 ], [ -83.355800300000027, 33.934899500000022 ], [ -83.35531869999997, 33.934879499999965 ], [ -83.354914899999955, 33.934834699999989 ], [ -83.354703400000048, 33.934765599999956 ], [ -83.35448649999995, 33.934629 ], [ -83.354345800000033, 33.9343325 ], [ -83.354152500000026, 33.933993899999969 ], [ -83.353972, 33.933561100000041 ], [ -83.353677499999989, 33.933074800000036 ], [ -83.353380800000039, 33.9326557 ], [ -83.353162800000035, 33.932286900000037 ], [ -83.353079100000031, 33.931829500000028 ], [ -83.353116, 33.931416 ], [ -83.353297900000015, 33.931112799999973 ], [ -83.353583799999953, 33.930802599999971 ], [ -83.35387030000004, 33.930569 ], [ -83.354159399999972, 33.930418099999955 ], [ -83.354254500000025, 33.9303585 ], [ -83.354481100000044, 33.930143499999971 ], [ -83.354633400000026, 33.9300354 ], [ -83.354835200000025, 33.9299421 ], [ -83.355057699999961, 33.929882799999987 ], [ -83.3552062, 33.929842600000036 ], [ -83.355354700000021, 33.9298573 ], [ -83.355446499999985, 33.929913400000032 ], [ -83.355484500000017, 33.930015300000022 ], [ -83.355484500000017, 33.930164799999957 ], [ -83.355407200000016, 33.930727399999967 ], [ -83.355415800000017, 33.931161800000027 ], [ -83.355436899999987, 33.931361699999961 ], [ -83.355493, 33.9315704 ], [ -83.3555402, 33.9316746 ], [ -83.355595499999964, 33.9317787 ], [ -83.355770599999971, 33.9319654 ], [ -83.355999399999988, 33.932165500000032 ], [ -83.3563216, 33.9323916 ], [ -83.356686700000012, 33.9326043 ], [ -83.356980299999961, 33.932747400000039 ], [ -83.357319599999968, 33.9328393 ], [ -83.357848, 33.9328683 ], [ -83.358291099999974, 33.932849599999969 ], [ -83.358720299999959, 33.93272140000002 ], [ -83.359003500000028, 33.932536299999981 ], [ -83.359269600000019, 33.932265699999974 ], [ -83.3596902, 33.9319096 ], [ -83.3601097, 33.93157710000002 ], [ -83.360484099999965, 33.931323399999989 ], [ -83.360848899999951, 33.931047900000017 ], [ -83.361120899999989, 33.930909500000027 ], [ -83.361303199999981, 33.930733699999955 ], [ -83.361415899999969, 33.930468899999987 ], [ -83.361466900000025, 33.930264500000035 ], [ -83.361406800000026, 33.929993900000028 ], [ -83.36149260000002, 33.9297091 ], [ -83.361638500000012, 33.929310299999955 ], [ -83.361793, 33.928897199999973 ], [ -83.3620848, 33.9283844 ], [ -83.362350899999981, 33.9281138 ], [ -83.362929199999954, 33.927833399999969 ], [ -83.363277399999987, 33.927691799999977 ], [ -83.363639400000011, 33.927699399999987 ], [ -83.364145300000033, 33.927808899999988 ], [ -83.364646400000012, 33.927836499999962 ], [ -83.365047, 33.927806699999984 ], [ -83.365466600000019, 33.927679400000017 ], [ -83.3659043, 33.927401600000039 ], [ -83.366084499999985, 33.927159499999988 ], [ -83.3659987, 33.926810499999981 ], [ -83.3658528, 33.9264972 ], [ -83.365621100000013, 33.926005800000013 ], [ -83.365535200000011, 33.925663899999968 ], [ -83.365415100000021, 33.925193899999982 ], [ -83.365166200000033, 33.924574299999961 ], [ -83.365003099999953, 33.924082799999972 ], [ -83.364968700000034, 33.923790799999971 ], [ -83.364951599999955, 33.923399099999983 ], [ -83.364900099999957, 33.923057300000032 ], [ -83.364831399999957, 33.922808 ], [ -83.364668299999963, 33.922558699999989 ], [ -83.364505299999976, 33.9224376 ], [ -83.364299299999985, 33.922387799999974 ], [ -83.3640418, 33.9224376 ], [ -83.3637843, 33.922622799999964 ], [ -83.363595500000017, 33.92281509999998 ], [ -83.363406600000019, 33.92293619999996 ], [ -83.363140600000037, 33.922950399999984 ], [ -83.362685600000049, 33.9229291 ], [ -83.362256499999987, 33.922722500000042 ], [ -83.3620162, 33.922601399999969 ], [ -83.3617501, 33.9223806 ], [ -83.3616814, 33.922195499999958 ], [ -83.361629900000011, 33.921875 ], [ -83.361698600000011, 33.9215616 ], [ -83.361767300000011, 33.921148500000015 ], [ -83.3618445, 33.920892100000032 ], [ -83.3619389, 33.92064280000001 ], [ -83.3620505, 33.920379299999965 ], [ -83.362247899999986, 33.92026530000004 ], [ -83.362728599999969, 33.9200802 ], [ -83.363123400000035, 33.919959100000014 ], [ -83.363569700000014, 33.9198665 ], [ -83.364016, 33.919852199999966 ], [ -83.364342199999982, 33.919852199999966 ], [ -83.364676899999964, 33.919781 ], [ -83.365011699999954, 33.919695499999968 ], [ -83.365252, 33.919538899999978 ], [ -83.365483700000013, 33.919268199999962 ], [ -83.365543800000012, 33.919033199999966 ], [ -83.365569600000015, 33.918627200000039 ], [ -83.36559530000001, 33.918100100000032 ], [ -83.3655781, 33.917801 ], [ -83.365483700000013, 33.917459100000023 ], [ -83.365415100000021, 33.9172098 ], [ -83.365252, 33.9169747 ], [ -83.365123200000028, 33.916903499999968 ], [ -83.364985899999951, 33.916903499999968 ], [ -83.364797099999961, 33.916967600000035 ], [ -83.364531, 33.917088700000015 ], [ -83.364282099999983, 33.917281 ], [ -83.364110399999987, 33.917516100000029 ], [ -83.3638529, 33.917687 ], [ -83.363286500000029, 33.917957699999974 ], [ -83.362823, 33.918093 ], [ -83.362247899999986, 33.91827109999997 ], [ -83.3618102, 33.91829950000001 ], [ -83.361398200000025, 33.918242600000013 ], [ -83.360917500000042, 33.918014599999978 ], [ -83.360411099999965, 33.917687 ], [ -83.3599305, 33.9173451 ], [ -83.3595872, 33.917046 ], [ -83.3595013, 33.916860799999988 ], [ -83.3594412, 33.916575900000041 ], [ -83.3595442, 33.916241099999965 ], [ -83.3597588, 33.916027399999955 ], [ -83.359956199999985, 33.91575680000004 ], [ -83.360033499999986, 33.915500300000041 ], [ -83.360110699999979, 33.915229700000033 ], [ -83.360085, 33.914959 ], [ -83.3599391, 33.914674099999985 ], [ -83.3596987, 33.91427520000002 ], [ -83.359286800000021, 33.913883500000026 ], [ -83.35854, 33.913306499999983 ], [ -83.3579478, 33.91291469999998 ], [ -83.357803699999977, 33.912791 ], [ -83.3572672, 33.9123557 ], [ -83.3567552, 33.911853 ], [ -83.3565481, 33.9115044 ], [ -83.356444400000029, 33.911231 ], [ -83.356428, 33.911079899999962 ], [ -83.356477, 33.910928799999979 ], [ -83.356569099999959, 33.9107851 ], [ -83.356706300000027, 33.910722799999988 ], [ -83.356832, 33.910713700000038 ], [ -83.35699419999996, 33.910756500000026 ], [ -83.357072300000027, 33.9107992 ], [ -83.357235400000022, 33.9108989 ], [ -83.357484799999966, 33.910996100000041 ], [ -83.357775699999962, 33.911057100000029 ], [ -83.358115899999959, 33.91110760000003 ], [ -83.3584493, 33.9111062 ], [ -83.358774800000035, 33.911071300000046 ], [ -83.359080800000029, 33.910984399999961 ], [ -83.3595271, 33.910770700000043 ], [ -83.3598962, 33.9105285 ], [ -83.360299599999976, 33.910222199999957 ], [ -83.360711499999951, 33.909944399999979 ], [ -83.361072, 33.909780600000012 ], [ -83.3614045, 33.909591199999973 ], [ -83.361530400000035, 33.909462900000015 ], [ -83.361636, 33.909289100000024 ], [ -83.361674300000033, 33.909172100000028 ], [ -83.361706600000048, 33.90900240000002 ], [ -83.361698600000011, 33.908818900000021 ], [ -83.361552700000018, 33.908576699999969 ], [ -83.361329500000025, 33.908348800000027 ], [ -83.361084900000037, 33.908145700000013 ], [ -83.361012, 33.908085199999981 ], [ -83.360539899999964, 33.907714799999972 ], [ -83.360179399999979, 33.907422799999971 ], [ -83.360042099999987, 33.9073373 ], [ -83.3597502, 33.907144899999984 ], [ -83.359355400000013, 33.906803 ], [ -83.359192300000018, 33.906546600000041 ], [ -83.358986300000026, 33.906226 ], [ -83.358857599999951, 33.9059482 ], [ -83.358722100000023, 33.905743 ], [ -83.3584943, 33.9055028 ], [ -83.358196699999979, 33.90530709999998 ], [ -83.3577761, 33.905178800000023 ], [ -83.357372700000013, 33.905157500000037 ], [ -83.357072300000027, 33.905250099999968 ], [ -83.356763299999955, 33.905435300000015 ], [ -83.356299799999974, 33.905620499999976 ], [ -83.3559136, 33.905798599999969 ], [ -83.355398600000015, 33.906040800000021 ], [ -83.354900800000038, 33.9061619 ], [ -83.354394399999975, 33.906233100000037 ], [ -83.3538451, 33.906190399999964 ], [ -83.353433100000018, 33.905962400000021 ], [ -83.35327, 33.905706 ], [ -83.352969600000037, 33.905292800000041 ], [ -83.352866600000041, 33.904872499999989 ], [ -83.352798, 33.904252799999966 ], [ -83.352626299999955, 33.903426399999979 ], [ -83.352566199999956, 33.902849400000022 ], [ -83.352523299999959, 33.9018734 ], [ -83.352514699999958, 33.901025700000027 ], [ -83.352600499999951, 33.8998146 ], [ -83.352574799999957, 33.899258900000035 ], [ -83.352446, 33.8988172 ], [ -83.352145599999972, 33.898389799999983 ], [ -83.3515448, 33.897762799999974 ], [ -83.35102980000002, 33.897335400000046 ], [ -83.350343199999969, 33.897000499999962 ], [ -83.3494849, 33.896644299999977 ], [ -83.348884100000035, 33.89623109999998 ], [ -83.348369099999971, 33.89558990000004 ], [ -83.347991399999984, 33.8949701 ], [ -83.3475966, 33.894350299999971 ], [ -83.3475365, 33.8937945 ], [ -83.3476224, 33.893295800000033 ], [ -83.3478369, 33.892925300000016 ], [ -83.348180299999981, 33.892740099999969 ], [ -83.348506399999962, 33.892740099999969 ], [ -83.348781099999954, 33.8928113 ], [ -83.348969900000029, 33.892939599999956 ], [ -83.348995700000032, 33.893096300000046 ], [ -83.348952700000027, 33.8933813 ], [ -83.348884100000035, 33.893595100000013 ], [ -83.348952700000027, 33.8937945 ], [ -83.349167300000019, 33.893901399999955 ], [ -83.3494677, 33.8938515 ], [ -83.350068499999978, 33.893687700000037 ], [ -83.350600699999958, 33.8934383 ], [ -83.351637, 33.89299029999998 ], [ -83.352010099999958, 33.892720799999971 ], [ -83.352257199999968, 33.892355400000028 ], [ -83.35234309999997, 33.8921416 ], [ -83.352231499999974, 33.891942100000023 ], [ -83.352059799999978, 33.891621499999964 ], [ -83.35193959999998, 33.8913579 ], [ -83.352025499999982, 33.890859200000044 ], [ -83.352257199999968, 33.890388900000033 ], [ -83.352386, 33.8899828 ], [ -83.352386, 33.889719200000044 ], [ -83.352317299999967, 33.8893914 ], [ -83.352145599999972, 33.8891991 ], [ -83.3517852, 33.889092200000036 ], [ -83.35128730000001, 33.88893540000003 ], [ -83.350600699999958, 33.888735900000043 ], [ -83.350025599999981, 33.888579200000045 ], [ -83.3495965, 33.888151700000023 ], [ -83.3495364, 33.887738400000018 ], [ -83.3495536, 33.887168400000022 ], [ -83.3495707, 33.886705299999981 ], [ -83.349854, 33.886256399999965 ], [ -83.350051399999984, 33.885800399999987 ], [ -83.350171499999973, 33.8852446 ], [ -83.350308899999973, 33.884731600000016 ], [ -83.35028309999997, 33.8842827 ], [ -83.350326, 33.88381959999996 ], [ -83.350240199999973, 33.88362 ], [ -83.350025599999981, 33.883548800000028 ], [ -83.349811, 33.883548800000028 ], [ -83.3495965, 33.88362 ], [ -83.3495965, 33.883890799999989 ], [ -83.3494677, 33.884118800000024 ], [ -83.349278900000016, 33.8843041 ], [ -83.348866900000033, 33.884475100000017 ], [ -83.348454899999965, 33.8846176 ], [ -83.3478799, 33.88453210000003 ], [ -83.347322, 33.8843041 ], [ -83.347167500000026, 33.8841046 ], [ -83.347038700000027, 33.883584400000039 ], [ -83.347167500000026, 33.883249500000041 ], [ -83.347339100000013, 33.882800600000024 ], [ -83.3476567, 33.882501300000044 ], [ -83.34817169999998, 33.882109400000033 ], [ -83.348712399999954, 33.8817033 ], [ -83.349167300000019, 33.881275699999975 ], [ -83.349442, 33.880948 ], [ -83.3494591, 33.8805418 ], [ -83.349399100000014, 33.880021600000042 ], [ -83.349373300000011, 33.87959410000002 ], [ -83.3494248, 33.87911670000004 ], [ -83.3495106, 33.878596499999986 ], [ -83.3496566, 33.878190300000043 ], [ -83.349636600000039, 33.877583500000014 ] ] } }
]
}
